{"type":"FeatureCollection","features":[{"type":"Feature","id":0,"properties":{"Name":"The Abyss","TerrainType":"The Black"},"geometry":{"type":"MultiPolygon","coordinates":[[[[-0.995458,0.439585],[-0.058298,-1.188395],[0.842992,-0.539901],[0.665373,0.628387],[-0.995458,0.439585]],[[0.020436,-0.093591],[0.020241,-0.093478],[0.019822,-0.093286],[0.019638,-0.093213],[0.019422,-0.092961],[0.019211,-0.092642],[0.019015,-0.092281],[0.018858,-0.091929],[0.018717,-0.091728],[0.018515,-0.091296],[0.018301,-0.09078],[0.018183,-0.090496],[0.018071,-0.090219],[0.018026,-0.090087],[0.01804,-0.089875],[0.018103,-0.089618],[0.018178,-0.089125],[0.018278,-0.088623],[0.018322,-0.088056],[0.018376,-0.087574],[0.018419,-0.087353],[0.018396,-0.087346],[0.018324,-0.087063],[0.018296,-0.086902],[0.018196,-0.086719],[0.01803,-0.086452],[0.017758,-0.086086],[0.017547,-0.085919],[0.017286,-0.085597],[0.017208,-0.085381],[0.017142,-0.085059],[0.017197,-0.084765],[0.017225,-0.084681],[0.017347,-0.084493],[0.017397,-0.084443],[0.017519,-0.084343],[0.017641,-0.084304],[0.017667,-0.0843],[0.024143,-0.065018],[0.024108,-0.06473],[0.024077,-0.06444],[0.02405,-0.064151],[0.024028,-0.063861],[0.024009,-0.06357],[0.023995,-0.06328],[0.023985,-0.062989],[0.003969,-0.047383],[-0.151708,0.074],[-0.152019,0.074242],[-0.144863,0.070645],[0.051187,-0.027902],[0.064905,-0.033326],[0.080731,-0.027641],[0.080775,-0.02764],[0.080732,-0.027641],[0.098958,0.005651],[0.098976,0.005697],[0.098422,0.010454],[0.12976,0.006671],[0.135421,0.005988],[0.144344,0.004911],[0.144346,0.004897],[0.144344,0.004911],[0.152743,0.004698],[0.163704,0.004484],[0.183775,0.003488],[0.189282,-0.000779],[0.189282,-0.000778],[0.190617,-0.001779],[0.195065,-0.005005],[0.199291,-0.00734],[0.202183,-0.011344],[0.203073,-0.017683],[0.200737,-0.023911],[0.197178,-0.026691],[0.195503,-0.035305],[0.194333,-0.035431],[0.195574,-0.035318],[0.194195,-0.037969],[0.193983,-0.043909],[0.194195,-0.053772],[0.195197,-0.061241],[0.195993,-0.061078],[0.196268,-0.061048],[0.19673,-0.061053],[0.197266,-0.061039],[0.197709,-0.061095],[0.198029,-0.060893],[0.198523,-0.060719],[0.198852,-0.060694],[0.199308,-0.060606],[0.199734,-0.060437],[0.200499,-0.060275],[0.201132,-0.060164],[0.202323,-0.060061],[0.203684,-0.060172],[0.203903,-0.060247],[0.203727,-0.060179],[0.204034,-0.060238],[0.204391,-0.060238],[0.204757,-0.060245],[0.204866,-0.060208],[0.204983,-0.060113],[0.205107,-0.060092],[0.205195,-0.060084],[0.205523,-0.060121],[0.205976,-0.060172],[0.206202,-0.060172],[0.206443,-0.060121],[0.206713,-0.060084],[0.206874,-0.060092],[0.206984,-0.060201],[0.207297,-0.060435],[0.20748,-0.060625],[0.207619,-0.060734],[0.207911,-0.060807],[0.207984,-0.060771],[0.208108,-0.060924],[0.208276,-0.061099],[0.208458,-0.061201],[0.208568,-0.061377],[0.208568,-0.061603],[0.20848,-0.06191],[0.208407,-0.062194],[0.208458,-0.062501],[0.20859,-0.063027],[0.208648,-0.063779],[0.208451,-0.064575],[0.20821,-0.064984],[0.207977,-0.065224],[0.207867,-0.065334],[0.207706,-0.065619],[0.207765,-0.065406],[0.207689,-0.065573],[0.207566,-0.067009],[0.207512,-0.067029],[0.207929,-0.066945],[0.208295,-0.06697],[0.20874,-0.066982],[0.208863,-0.067039],[0.209164,-0.067177],[0.209282,-0.067232],[0.209544,-0.067457],[0.20969,-0.067628],[0.20969,-0.067841],[0.209569,-0.067981],[0.209508,-0.068103],[0.209569,-0.068444],[0.209697,-0.068639],[0.209971,-0.068877],[0.210215,-0.069103],[0.21072,-0.06956],[0.211049,-0.070096],[0.211232,-0.070589],[0.211202,-0.071205],[0.211397,-0.072028],[0.211738,-0.073124],[0.211728,-0.073135],[0.211936,-0.073331],[0.212131,-0.073791],[0.212482,-0.073982],[0.212985,-0.074517],[0.213192,-0.074723],[0.213313,-0.075102],[0.213422,-0.075609],[0.213375,-0.076046],[0.213426,-0.076865],[0.213418,-0.077262],[0.213387,-0.077715],[0.213356,-0.078062],[0.213477,-0.078237],[0.213547,-0.078487],[0.213625,-0.079009],[0.213625,-0.079372],[0.213629,-0.079852],[0.213551,-0.08016],[0.213438,-0.080449],[0.213336,-0.080757],[0.213371,-0.080998],[0.213418,-0.081229],[0.213247,-0.081455],[0.213244,-0.081456],[0.216024,-0.093411],[0.215324,-0.093472],[0.216026,-0.093412],[0.21562,-0.095967],[0.215214,-0.099334],[0.213298,-0.102179],[0.210105,-0.105836],[0.206679,-0.111177],[0.205286,-0.115241],[0.207202,-0.120524],[0.206162,-0.12079],[0.207202,-0.120524],[0.209118,-0.124936],[0.210743,-0.126562],[0.213588,-0.12813],[0.219684,-0.130742],[0.219662,-0.130775],[0.222413,-0.133238],[0.22549,-0.138463],[0.225954,-0.142702],[0.224038,-0.154719],[0.223906,-0.154938],[0.22423,-0.15492],[0.226214,-0.157755],[0.225954,-0.160795],[0.225789,-0.162715],[0.225573,-0.16327],[0.222246,-0.171787],[0.216581,-0.182955],[0.216179,-0.180898],[0.216531,-0.182967],[0.216091,-0.184286],[0.213506,-0.192101],[0.210203,-0.203656],[0.204389,-0.199938],[0.210198,-0.203678],[0.205521,-0.210623],[0.19815,-0.218276],[0.187378,-0.227064],[0.184118,-0.229899],[0.180696,-0.231877],[0.180657,-0.231722],[0.180569,-0.232179],[0.180358,-0.232782],[0.179919,-0.233604],[0.179718,-0.23413],[0.179404,-0.234998],[0.179464,-0.235476],[0.179539,-0.236058],[0.179568,-0.236925],[0.179434,-0.237417],[0.179554,-0.237925],[0.179748,-0.238508],[0.180031,-0.238956],[0.180405,-0.239434],[0.180524,-0.240076],[0.180659,-0.240644],[0.180569,-0.241271],[0.180509,-0.241689],[0.180838,-0.242361],[0.181122,-0.243004],[0.181197,-0.243497],[0.181211,-0.243989],[0.181182,-0.244453],[0.180928,-0.24514],[0.180345,-0.245707],[0.179957,-0.245812],[0.17915,-0.245976],[0.178734,-0.24586],[0.178638,-0.245989],[0.178554,-0.246086],[0.178472,-0.246156],[0.178403,-0.246219],[0.178311,-0.246296],[0.178238,-0.246336],[0.178087,-0.246432],[0.177964,-0.246494],[0.177854,-0.246566],[0.177739,-0.246633],[0.177694,-0.246689],[0.177589,-0.246786],[0.177516,-0.246858],[0.17741,-0.247009],[0.17736,-0.247091],[0.177295,-0.247217],[0.177214,-0.247342],[0.177133,-0.247447],[0.176986,-0.247593],[0.176907,-0.247638],[0.176798,-0.247727],[0.176709,-0.247814],[0.17659,-0.247883],[0.176358,-0.248021],[0.176187,-0.248162],[0.176073,-0.248239],[0.176002,-0.248294],[0.175955,-0.248358],[0.17591,-0.24843],[0.175826,-0.248482],[0.175705,-0.248504],[0.175611,-0.248499],[0.17523,-0.248516],[0.174953,-0.248583],[0.17476,-0.248655],[0.174554,-0.248692],[0.174252,-0.248786],[0.17397,-0.24884],[0.173681,-0.248853],[0.17352,-0.248769],[0.173374,-0.248692],[0.173015,-0.2486],[0.17284,-0.248546],[0.172632,-0.248504],[0.172456,-0.248425],[0.172167,-0.248336],[0.172028,-0.248299],[0.171904,-0.248289],[0.171704,-0.248259],[0.171563,-0.248202],[0.171425,-0.248138],[0.171316,-0.248093],[0.171227,-0.248046],[0.171093,-0.248036],[0.170931,-0.247949],[0.170927,-0.247947],[0.17093,-0.24794],[0.170814,-0.247921],[0.170573,-0.247914],[0.170152,-0.247938],[0.170019,-0.248031],[0.169901,-0.248156],[0.169779,-0.248279],[0.169737,-0.248336],[0.169593,-0.248421],[0.169468,-0.248497],[0.169328,-0.248568],[0.169072,-0.248702],[0.168819,-0.248839],[0.168604,-0.248881],[0.168324,-0.248897],[0.168067,-0.248906],[0.167908,-0.248935],[0.167679,-0.248993],[0.167461,-0.249035],[0.167211,-0.249108],[0.16701,-0.249138],[0.166867,-0.24917],[0.166774,-0.249208],[0.166614,-0.24919],[0.166465,-0.249094],[0.166259,-0.248982],[0.166105,-0.248812],[0.166026,-0.248783],[0.165896,-0.248623],[0.16561,-0.248406],[0.165468,-0.248317],[0.165409,-0.24829],[0.164936,-0.248147],[0.164805,-0.248018],[0.164664,-0.247865],[0.164545,-0.247815],[0.164442,-0.247775],[0.164311,-0.247626],[0.1641,-0.24748],[0.164008,-0.247417],[0.163742,-0.24726],[0.16348,-0.247171],[0.163296,-0.247072],[0.163104,-0.246886],[0.16295,-0.246705],[0.162658,-0.246298],[0.162396,-0.246024],[0.162144,-0.245977],[0.161873,-0.245858],[0.161744,-0.245767],[0.16169,-0.245627],[0.161703,-0.24563],[0.161591,-0.245594],[0.161386,-0.245529],[0.161081,-0.245394],[0.1606,-0.245053],[0.16028,-0.244883],[0.15978,-0.244468],[0.159489,-0.244133],[0.159209,-0.243682],[0.15904,-0.243267],[0.159064,-0.243519],[0.128732,-0.244497],[0.12803,-0.245335],[0.108146,-0.244498],[0.102193,-0.244214],[0.100449,-0.242921],[0.09691,-0.248868],[0.096839,-0.249044],[0.096919,-0.249068],[0.097054,-0.249136],[0.097186,-0.249208],[0.097378,-0.249193],[0.097627,-0.249272],[0.09768,-0.249362],[0.097857,-0.249634],[0.097925,-0.24983],[0.097989,-0.249943],[0.098121,-0.250067],[0.09823,-0.250188],[0.0984,-0.250346],[0.098596,-0.250531],[0.098972,-0.25079],[0.099214,-0.250925],[0.099379,-0.251084],[0.099532,-0.251208],[0.099726,-0.25132],[0.099968,-0.251414],[0.100221,-0.251479],[0.10058,-0.251526],[0.101028,-0.251661],[0.101563,-0.25175],[0.102005,-0.251814],[0.102241,-0.251803],[0.102647,-0.252338],[0.102865,-0.252721],[0.103036,-0.252951],[0.103265,-0.253127],[0.103371,-0.253286],[0.103548,-0.253481],[0.103619,-0.253622],[0.103766,-0.253858],[0.103907,-0.254064],[0.103919,-0.254276],[0.10386,-0.254629],[0.103701,-0.254929],[0.103566,-0.255118],[0.103354,-0.25556],[0.103212,-0.255683],[0.102759,-0.256078],[0.102606,-0.256125],[0.102294,-0.256237],[0.10187,-0.256225],[0.101257,-0.255995],[0.100757,-0.25596],[0.099549,-0.255978],[0.099037,-0.255901],[0.097712,-0.255883],[0.097047,-0.255995],[0.096287,-0.256296],[0.095474,-0.256555],[0.094897,-0.256602],[0.094267,-0.256355],[0.093513,-0.256131],[0.092937,-0.255994],[0.09261,-0.25592],[0.091968,-0.255859],[0.090955,-0.255636],[0.08972,-0.255377],[0.089238,-0.25526],[0.088923,-0.255],[0.088664,-0.25479],[0.088417,-0.254624],[0.087905,-0.254216],[0.087522,-0.253914],[0.087207,-0.253512],[0.086966,-0.253247],[0.086589,-0.252845],[0.086379,-0.25266],[0.086052,-0.252351],[0.085928,-0.252335],[0.085787,-0.252327],[0.085429,-0.252413],[0.085182,-0.2525],[0.084959,-0.252728],[0.084793,-0.252913],[0.084743,-0.253061],[0.084552,-0.253136],[0.084391,-0.253142],[0.084014,-0.25321],[0.083502,-0.253284],[0.083051,-0.253457],[0.082897,-0.253654],[0.082613,-0.253784],[0.082391,-0.253821],[0.082144,-0.253815],[0.081711,-0.253833],[0.081304,-0.253821],[0.081032,-0.253827],[0.080569,-0.254148],[0.079939,-0.254414],[0.079507,-0.254519],[0.079204,-0.254599],[0.078772,-0.254574],[0.078519,-0.254383],[0.078204,-0.254136],[0.077926,-0.253957],[0.077259,-0.253518],[0.076858,-0.253136],[0.076531,-0.252728],[0.076142,-0.252487],[0.075604,-0.252351],[0.074999,-0.252086],[0.074524,-0.251814],[0.074061,-0.251351],[0.073604,-0.250894],[0.073381,-0.250758],[0.073368,-0.25073],[0.073349,-0.25068],[0.073344,-0.25068],[0.073328,-0.25068],[0.073048,-0.25068],[0.072697,-0.250707],[0.072216,-0.250883],[0.071712,-0.251058],[0.071294,-0.251278],[0.07098,-0.2514],[0.070633,-0.251454],[0.070107,-0.251454],[0.069748,-0.251323],[0.069482,-0.251256],[0.068466,-0.251193],[0.068196,-0.251094],[0.067472,-0.250932],[0.067378,-0.250919],[0.067311,-0.251071],[0.067261,-0.251242],[0.067203,-0.25135],[0.066991,-0.251499],[0.066623,-0.251696],[0.065773,-0.252065],[0.065373,-0.252142],[0.065139,-0.252173],[0.064685,-0.252173],[0.064284,-0.252191],[0.06379,-0.252052],[0.063039,-0.25202],[0.062436,-0.251948],[0.06174,-0.251863],[0.061222,-0.251836],[0.060696,-0.25175],[0.060134,-0.251616],[0.059725,-0.251557],[0.059334,-0.251377],[0.059096,-0.251148],[0.058695,-0.25082],[0.058525,-0.250712],[0.058556,-0.250597],[0.058529,-0.25069],[0.057999,-0.250486],[0.057646,-0.250276],[0.057058,-0.250106],[0.056575,-0.249919],[0.056233,-0.249873],[0.055812,-0.249712],[0.055266,-0.249594],[0.05482,-0.249398],[0.054192,-0.2493],[0.053835,-0.249298],[0.052635,-0.249315],[0.052454,-0.249347],[0.052172,-0.249384],[0.051571,-0.24949],[0.051182,-0.249606],[0.050918,-0.24964],[0.050676,-0.249721],[0.050397,-0.249752],[0.050233,-0.249761],[0.049577,-0.249767],[0.049128,-0.249764],[0.048693,-0.249703],[0.048374,-0.249525],[0.048218,-0.249372],[0.04812,-0.249252],[0.04803,-0.249207],[0.047998,-0.249247],[0.047862,-0.249271],[0.047789,-0.249262],[0.047697,-0.249172],[0.047531,-0.24914],[0.047451,-0.249058],[0.04717,-0.248869],[0.047065,-0.2488],[0.047009,-0.248707],[0.04692,-0.24859],[0.046913,-0.24853],[0.046779,-0.248344],[0.046699,-0.248192],[0.046634,-0.248014],[0.046614,-0.247861],[0.046561,-0.247665],[0.046442,-0.247372],[0.046365,-0.247204],[0.046333,-0.24701],[0.046261,-0.246907],[0.046148,-0.246662],[0.046061,-0.246501],[0.046053,-0.246331],[0.045883,-0.246094],[0.04571,-0.245809],[0.045461,-0.245463],[0.045263,-0.245137],[0.045082,-0.244838],[0.04504,-0.24463],[0.044988,-0.244386],[0.044984,-0.243776],[0.045061,-0.243516],[0.045117,-0.24335],[0.045204,-0.243034],[0.045346,-0.24289],[0.04562,-0.242697],[0.045809,-0.242572],[0.045951,-0.242498],[0.046243,-0.242519],[0.046503,-0.242523],[0.046921,-0.242514],[0.046979,-0.242474],[0.047348,-0.242298],[0.04764,-0.242055],[0.04769,-0.241976],[0.047859,-0.241647],[0.047889,-0.241566],[0.047972,-0.241238],[0.04796,-0.240848],[0.047947,-0.240514],[0.047848,-0.24023],[0.047729,-0.239921],[0.047645,-0.239587],[0.047513,-0.239258],[0.047432,-0.238906],[0.04746,-0.238535],[0.047603,-0.238086],[0.047769,-0.237677],[0.047877,-0.237497],[0.048039,-0.237187],[0.04817,-0.236917],[0.048268,-0.236862],[0.048291,-0.23685],[0.048315,-0.236869],[0.0483,-0.236852],[0.048397,-0.236711],[0.04867,-0.236461],[0.048907,-0.236283],[0.04929,-0.235781],[0.049399,-0.23543],[0.049455,-0.235077],[0.049464,-0.234682],[0.049476,-0.23405],[0.049418,-0.233886],[0.04935,-0.233533],[0.0493,-0.233298],[0.049294,-0.232605],[0.049246,-0.232111],[0.049122,-0.231594],[0.048831,-0.231121],[0.048598,-0.230713],[0.048278,-0.230283],[0.047943,-0.229934],[0.047724,-0.229584],[0.047418,-0.229198],[0.047003,-0.228747],[0.046778,-0.22855],[0.04653,-0.228463],[0.046414,-0.228339],[0.046552,-0.22807],[0.046676,-0.227961],[0.046887,-0.227837],[0.047149,-0.227647],[0.047499,-0.227451],[0.048059,-0.227189],[0.048062,-0.227189],[0.048079,-0.227091],[0.048052,-0.226971],[0.04796,-0.226724],[0.047879,-0.226569],[0.047859,-0.226354],[0.047882,-0.226157],[0.04793,-0.225859],[0.048041,-0.225686],[0.048208,-0.225567],[0.048321,-0.225474],[0.048473,-0.225367],[0.048592,-0.225286],[0.049061,-0.225015],[0.049281,-0.224881],[0.049433,-0.224758],[0.049556,-0.224669],[0.049624,-0.224609],[0.049708,-0.224523],[0.04983,-0.224418],[0.05006,-0.224227],[0.050292,-0.223911],[0.050343,-0.223729],[0.050453,-0.22344],[0.050534,-0.2233],[0.050876,-0.222738],[0.051108,-0.222403],[0.051029,-0.222465],[0.041046,-0.204705],[0.043422,-0.204953],[0.041047,-0.204703],[0.041559,-0.201696],[0.042509,-0.19611],[0.044358,-0.185235],[0.043009,-0.182001],[0.041522,-0.178828],[0.039898,-0.175722],[0.038142,-0.17269],[0.036257,-0.169736],[0.034246,-0.166866],[0.032113,-0.164086],[0.032138,-0.164083],[0.03184,-0.164028],[0.031546,-0.163952],[0.031259,-0.163855],[0.030978,-0.163739],[0.030707,-0.163603],[0.030446,-0.163448],[0.030197,-0.163276],[0.02996,-0.163086],[0.029737,-0.162881],[0.029529,-0.16266],[0.029337,-0.162425],[0.029161,-0.162178],[0.029004,-0.161918],[0.028865,-0.161649],[0.028746,-0.16137],[0.028646,-0.161083],[0.028567,-0.160791],[0.028508,-0.160493],[0.02847,-0.160192],[0.027601,-0.158941],[0.026817,-0.157634],[0.026122,-0.156277],[0.02552,-0.154878],[0.025012,-0.15344],[0.024602,-0.151973],[0.024291,-0.150481],[0.024081,-0.148971],[0.023972,-0.147451],[0.023966,-0.145927],[0.024061,-0.144406],[0.024258,-0.142895],[0.024555,-0.141401],[0.024952,-0.139929],[0.025447,-0.138488],[0.026037,-0.137083],[0.026719,-0.13572],[0.027492,-0.134406],[0.02835,-0.133147],[0.028821,-0.132997],[0.029281,-0.132816],[0.029727,-0.132604],[0.030158,-0.132363],[0.030572,-0.132093],[0.030967,-0.131795],[0.03134,-0.131472],[0.031691,-0.131124],[0.032018,-0.130753],[0.032318,-0.130361],[0.032592,-0.12995],[0.032837,-0.129521],[0.033053,-0.129076],[0.033238,-0.128618],[0.033392,-0.128149],[0.033514,-0.12767],[0.033603,-0.127184],[0.033659,-0.126693],[0.033682,-0.126199],[0.033672,-0.125705],[0.033628,-0.125213],[0.033551,-0.124725],[0.033441,-0.124243],[0.033299,-0.12377],[0.033125,-0.123308],[0.03292,-0.122858],[0.032686,-0.122423],[0.032423,-0.122005],[0.032132,-0.121605],[0.031814,-0.121227],[0.031472,-0.12087],[0.031107,-0.120537],[0.03072,-0.12023],[0.030313,-0.11995],[0.029888,-0.119698],[0.030453,-0.119754],[0.029543,-0.119661],[0.029048,-0.11951],[0.028641,-0.119162],[0.028291,-0.118698],[0.027949,-0.118283],[0.027811,-0.118122],[0.027707,-0.117984],[0.027571,-0.11789],[0.027461,-0.117738],[0.027463,-0.117402],[0.027351,-0.117225],[0.027217,-0.11709],[0.027125,-0.116988],[0.027031,-0.11691],[0.026884,-0.116885],[0.026693,-0.116906],[0.026405,-0.116963],[0.026164,-0.117051],[0.025998,-0.117101],[0.025906,-0.117152],[0.025823,-0.117202],[0.025789,-0.117202],[0.025763,-0.117166],[0.025761,-0.117002],[0.02577,-0.116894],[0.025766,-0.116724],[0.025802,-0.116441],[0.025858,-0.116289],[0.02594,-0.116174],[0.026042,-0.116084],[0.026175,-0.116025],[0.026306,-0.115965],[0.026426,-0.115866],[0.026479,-0.115801],[0.026541,-0.115696],[0.02652,-0.115624],[0.026463,-0.115496],[0.026419,-0.115415],[0.026486,-0.115077],[0.026555,-0.114939],[0.026619,-0.114842],[0.026821,-0.114628],[0.026895,-0.114591],[0.026915,-0.114586],[0.026913,-0.114587],[0.026245,-0.11413],[0.02561,-0.11363],[0.025008,-0.113089],[0.024445,-0.112508],[0.023921,-0.111892],[0.023439,-0.111241],[0.023002,-0.110561],[0.022611,-0.109852],[0.022269,-0.109119],[0.021976,-0.108365],[0.021733,-0.107593],[0.021543,-0.106807],[0.021406,-0.106009],[0.021322,-0.105205],[0.021293,-0.104396],[0.021317,-0.103587],[0.021394,-0.102782],[0.021526,-0.101984],[0.02171,-0.101196],[0.021947,-0.100422],[0.022234,-0.099666],[0.022801,-0.098528],[0.022794,-0.097716],[0.022707,-0.097412],[0.022664,-0.097196],[0.022516,-0.096918],[0.022369,-0.096658],[0.022291,-0.096502],[0.022065,-0.096224],[0.021797,-0.095435],[0.021519,-0.094594],[0.021398,-0.094273],[0.020938,-0.093744],[0.02167,-0.093705],[0.020925,-0.093734],[0.020851,-0.093663],[0.02085,-0.093661],[0.02058,-0.093662],[0.020436,-0.093591]]]]}}]}