{"type":"FeatureCollection","features":[{"type":"Feature","id":0,"properties":{},"geometry":{"type":"MultiLineString","coordinates":[[[0.105978,-0.131883],[0.106829,-0.131092],[0.106961,-0.130696],[0.107011,-0.130482],[0.107024,-0.130098],[0.107037,-0.129758],[0.107112,-0.129431],[0.107314,-0.129047],[0.107509,-0.128801],[0.108025,-0.128493],[0.108308,-0.128367],[0.108623,-0.128008],[0.109013,-0.127536],[0.109472,-0.126863],[0.110177,-0.1259],[0.110335,-0.125333],[0.110555,-0.124861],[0.110738,-0.124565],[0.110749,-0.124581],[0.110753,-0.124586]]]}},{"type":"Feature","id":1,"properties":{},"geometry":{"type":"MultiLineString","coordinates":[[[0.114074,-0.113288],[0.114056,-0.113289],[0.11395,-0.113305],[0.113718,-0.113333],[0.113183,-0.113374],[0.112845,-0.113363],[0.112568,-0.113283],[0.112261,-0.113152],[0.111582,-0.113122],[0.111063,-0.113181],[0.11072,-0.11321],[0.110516,-0.113195],[0.110215,-0.11311],[0.110209,-0.113108],[0.110063,-0.113217],[0.109983,-0.113407],[0.10991,-0.113677],[0.109771,-0.114057],[0.109537,-0.114276],[0.109158,-0.114619],[0.10915,-0.114636],[0.109088,-0.114772],[0.109077,-0.114794],[0.108902,-0.115057],[0.108836,-0.115225],[0.108807,-0.115495],[0.108778,-0.11578],[0.108639,-0.116131],[0.108464,-0.116338],[0.108259,-0.116577],[0.107885,-0.11682],[0.107563,-0.117109],[0.107072,-0.117464],[0.106651,-0.11775],[0.106105,-0.118044],[0.105894,-0.118039],[0.105567,-0.117703],[0.105408,-0.117432],[0.105241,-0.117255],[0.1052,-0.117065],[0.105259,-0.116905],[0.105346,-0.116649],[0.105653,-0.116109],[0.105865,-0.115598],[0.106224,-0.115032],[0.106361,-0.114816],[0.106719,-0.114079],[0.107106,-0.113502],[0.107347,-0.113254],[0.107928,-0.113042],[0.108414,-0.112873],[0.108691,-0.112692],[0.109298,-0.112445],[0.109502,-0.112366]]]}},{"type":"Feature","id":2,"properties":{},"geometry":{"type":"MultiLineString","coordinates":[[[0.110232,-0.111807],[0.110231,-0.111675],[0.109964,-0.111712],[0.109679,-0.111675],[0.10946,-0.111567],[0.109133,-0.111488],[0.108464,-0.111534],[0.108268,-0.111464],[0.107862,-0.11138],[0.107614,-0.111348],[0.107366,-0.111483],[0.106941,-0.111282],[0.106684,-0.111366],[0.106399,-0.111221],[0.106203,-0.111165],[0.106016,-0.111081],[0.105981,-0.111083],[0.105981,-0.111083],[0.105885,-0.111086],[0.105885,-0.110988],[0.105834,-0.110787],[0.105834,-0.110675],[0.105829,-0.110572],[0.105824,-0.110366],[0.105816,-0.110186],[0.105811,-0.110063],[0.105813,-0.109997],[0.105819,-0.10988],[0.10588,-0.109712],[0.106119,-0.109427],[0.106273,-0.109301],[0.106408,-0.109161],[0.106474,-0.108964],[0.106516,-0.108768],[0.106548,-0.108436],[0.106679,-0.107992],[0.106863,-0.107957]]]}},{"type":"Feature","id":3,"properties":{},"geometry":{"type":"MultiLineString","coordinates":[[[0.110818,-0.109796],[0.111063,-0.110109],[0.111203,-0.110488],[0.111201,-0.110494],[0.111198,-0.110492]]]}},{"type":"Feature","id":4,"properties":{},"geometry":{"type":"MultiLineString","coordinates":[[[0.108664,-0.182287],[0.108676,-0.182293],[0.108673,-0.182291],[0.108715,-0.182584],[0.108878,-0.18312],[0.109053,-0.183621],[0.109144,-0.184013],[0.109205,-0.184313],[0.109288,-0.18475],[0.109463,-0.185225],[0.109649,-0.185738],[0.109809,-0.186262],[0.110136,-0.186779],[0.110402,-0.187007],[0.110463,-0.18717],[0.110523,-0.187607],[0.110611,-0.187714],[0.110808,-0.187843],[0.111029,-0.187866],[0.111295,-0.187778],[0.111523,-0.187585],[0.111884,-0.187182],[0.112237,-0.186874],[0.112382,-0.186566],[0.112435,-0.186327],[0.112465,-0.186122],[0.112503,-0.185822],[0.112542,-0.185582],[0.112583,-0.185291],[0.112601,-0.185096],[0.112678,-0.184929],[0.112833,-0.184644],[0.112981,-0.184371],[0.113047,-0.184217],[0.113046,-0.184212],[0.113088,-0.184189]]]}},{"type":"Feature","id":5,"properties":{},"geometry":{"type":"MultiLineString","coordinates":[[[0.046223,-0.151536],[0.046393,-0.151616],[0.046465,-0.151746],[0.04681,-0.151787],[0.047117,-0.151849],[0.047346,-0.151979],[0.047797,-0.152177],[0.048214,-0.151965],[0.048522,-0.151733],[0.048983,-0.151357],[0.049267,-0.151111],[0.049335,-0.150889],[0.049291,-0.150567],[0.049291,-0.150127],[0.049478,-0.14973],[0.049424,-0.149587],[0.049336,-0.149504],[0.04925,-0.149423],[0.049154,-0.14933],[0.049115,-0.149312]]]}},{"type":"Feature","id":6,"properties":{},"geometry":{"type":"MultiLineString","coordinates":[[[0.053504,-0.140187],[0.053502,-0.140153],[0.053515,-0.139708],[0.053498,-0.139182],[0.053361,-0.13868],[0.053113,-0.138072],[0.053066,-0.137222],[0.053089,-0.136918],[0.05298,-0.136531],[0.052801,-0.13631],[0.05231,-0.136032],[0.052047,-0.136038],[0.051823,-0.136053],[0.051476,-0.136113],[0.050707,-0.136262],[0.050022,-0.136274],[0.049457,-0.136211],[0.048303,-0.136176],[0.047313,-0.136128],[0.047002,-0.136094],[0.046794,-0.136071],[0.046992,-0.135755],[0.047156,-0.135494],[0.047312,-0.135037],[0.047359,-0.134795],[0.047451,-0.134293],[0.047507,-0.134106],[0.047649,-0.13386],[0.047863,-0.133686],[0.04803,-0.133595],[0.048048,-0.133607],[0.048075,-0.133625]]]}},{"type":"Feature","id":7,"properties":{},"geometry":{"type":"MultiLineString","coordinates":[[[0.054715,-0.148933],[0.054717,-0.14893],[0.054726,-0.148918],[0.054644,-0.148889],[0.054441,-0.148803],[0.054237,-0.148784],[0.053971,-0.14875],[0.053841,-0.148469],[0.053674,-0.148182],[0.053473,-0.147895],[0.053251,-0.147649],[0.053047,-0.147347],[0.052927,-0.147138],[0.052518,-0.146301],[0.052408,-0.14599],[0.052393,-0.145706],[0.05238,-0.145536],[0.05234,-0.14524],[0.052301,-0.14504],[0.052131,-0.144867],[0.051933,-0.144772]]]}},{"type":"Feature","id":8,"properties":{},"geometry":{"type":"MultiLineString","coordinates":[[[0.054873,-0.12881],[0.054953,-0.12889],[0.054988,-0.128925],[0.055076,-0.129011],[0.05515,-0.129123],[0.055146,-0.129381],[0.055141,-0.129754],[0.055122,-0.130189],[0.055379,-0.129726],[0.05573,-0.129521],[0.056038,-0.129381],[0.056707,-0.129268],[0.057263,-0.129189],[0.057312,-0.129145],[0.057311,-0.129144],[0.058265,-0.128684],[0.058947,-0.128352],[0.059234,-0.128208],[0.059545,-0.127879],[0.059671,-0.127431],[0.059721,-0.127347],[0.059723,-0.127348],[0.060062,-0.127604],[0.060406,-0.127993],[0.060511,-0.128053],[0.061211,-0.127287],[0.061531,-0.126749],[0.061818,-0.126157],[0.061869,-0.126004],[0.06148,-0.125612],[0.060965,-0.125011],[0.06043,-0.124359],[0.059712,-0.12345],[0.05938,-0.122918],[0.059022,-0.122631],[0.05883,-0.122326],[0.058786,-0.122136],[0.058743,-0.121952],[0.058696,-0.121521],[0.058693,-0.121049],[0.0586,-0.120678],[0.058769,-0.120702],[0.058604,-0.120677],[0.058597,-0.120658],[0.058523,-0.120467],[0.058396,-0.120139],[0.057907,-0.119525],[0.057707,-0.11896],[0.057688,-0.118086],[0.057847,-0.117712],[0.057912,-0.117002],[0.058022,-0.116705],[0.05801,-0.116676],[0.058038,-0.116662],[0.058051,-0.116655],[0.058041,-0.116654],[0.058052,-0.116623],[0.05865,-0.116287],[0.058908,-0.116053],[0.059076,-0.115763],[0.059389,-0.115553],[0.059833,-0.115292],[0.059978,-0.114838],[0.059954,-0.114525],[0.05994,-0.114063],[0.060076,-0.113689],[0.060384,-0.11339],[0.060828,-0.113263],[0.060878,-0.11322]]]}},{"type":"Feature","id":9,"properties":{},"geometry":{"type":"MultiLineString","coordinates":[[[0.058043,-0.11665],[0.058041,-0.116654],[0.058037,-0.116654],[0.057981,-0.116654],[0.057276,-0.116767],[0.05692,-0.116879],[0.056483,-0.117017]]]}},{"type":"Feature","id":10,"properties":{},"geometry":{"type":"MultiLineString","coordinates":[[[0.060067,-0.112638],[0.059783,-0.112473],[0.059368,-0.112422],[0.059344,-0.112442],[0.058607,-0.113066],[0.058151,-0.113447],[0.057634,-0.114259],[0.057503,-0.114969],[0.057054,-0.115373],[0.056729,-0.116182],[0.056506,-0.116991]]]}},{"type":"Feature","id":11,"properties":{},"geometry":{"type":"MultiLineString","coordinates":[[[0.056499,-0.117015],[0.056417,-0.117051],[0.056061,-0.117239],[0.055608,-0.118304],[0.055608,-0.118312],[0.055606,-0.118966],[0.055691,-0.119619],[0.055802,-0.12001],[0.055941,-0.1203],[0.056111,-0.12064],[0.056144,-0.120857],[0.056142,-0.120866],[0.056138,-0.120882],[0.056101,-0.121003],[0.056036,-0.121137],[0.055822,-0.121408],[0.055696,-0.121568],[0.055552,-0.121763],[0.055464,-0.121957],[0.055392,-0.122166],[0.055338,-0.122416],[0.055263,-0.122756],[0.055193,-0.123037],[0.055039,-0.123473],[0.054964,-0.123684],[0.054737,-0.12428],[0.054699,-0.124435],[0.054652,-0.124646],[0.054652,-0.124648],[0.0545,-0.124855],[0.053852,-0.125346],[0.053134,-0.12595],[0.052776,-0.126133],[0.052387,-0.126289],[0.052385,-0.12629],[0.051944,-0.126425],[0.051653,-0.126515],[0.051239,-0.126755],[0.050809,-0.127077]]]}},{"type":"Feature","id":12,"properties":{},"geometry":{"type":"MultiLineString","coordinates":[[[0.047294,-0.129433],[0.04732,-0.129433],[0.047462,-0.128978],[0.04744,-0.127868],[0.047006,-0.126713],[0.046844,-0.125198],[0.046918,-0.123572],[0.046979,-0.122537]]]}},{"type":"Feature","id":13,"properties":{},"geometry":{"type":"MultiLineString","coordinates":[[[0.04768,-0.11242],[0.047796,-0.112464],[0.04815,-0.112608],[0.048206,-0.112637],[0.048332,-0.112709],[0.048379,-0.11275],[0.04839,-0.112745],[0.048412,-0.112749]]]}},{"type":"Feature","id":14,"properties":{},"geometry":{"type":"MultiLineString","coordinates":[[[0.054663,-0.10691],[0.054688,-0.106929],[0.054738,-0.106853],[0.054726,-0.1069],[0.05497,-0.106667],[0.055351,-0.106423],[0.055462,-0.106305],[0.055523,-0.106165],[0.055611,-0.106103],[0.055641,-0.106066],[0.055713,-0.105995],[0.055759,-0.105904],[0.055737,-0.105748],[0.055736,-0.105743],[0.055732,-0.105734],[0.055729,-0.105714]]]}},{"type":"Feature","id":15,"properties":{},"geometry":{"type":"MultiLineString","coordinates":[[[0.058258,-0.103179],[0.058358,-0.103037],[0.058464,-0.102888],[0.058608,-0.102769],[0.058898,-0.102664],[0.059156,-0.102625],[0.059505,-0.102581],[0.059931,-0.1025],[0.059993,-0.102488],[0.060332,-0.102444],[0.060668,-0.102398],[0.061246,-0.10222],[0.061768,-0.102125],[0.062117,-0.102076],[0.062656,-0.102142],[0.062804,-0.102259],[0.063297,-0.102422],[0.063697,-0.102547],[0.063914,-0.10261],[0.064109,-0.102788],[0.064241,-0.102891],[0.064468,-0.102954],[0.064836,-0.102971],[0.065141,-0.103078],[0.065338,-0.103191],[0.065663,-0.103198],[0.065853,-0.103208],[0.065969,-0.103232],[0.065954,-0.102248],[0.065933,-0.101996],[0.065949,-0.101941]]]}},{"type":"Feature","id":16,"properties":{},"geometry":{"type":"MultiLineString","coordinates":[[[0.065623,-0.098974],[0.065865,-0.099019],[0.065939,-0.099026],[0.06597,-0.099021],[0.066372,-0.098952],[0.066687,-0.098814],[0.067018,-0.098506],[0.06716,-0.098357],[0.067425,-0.097716],[0.067755,-0.096967],[0.068037,-0.096759],[0.068539,-0.096262],[0.068812,-0.095858],[0.068902,-0.095553],[0.069131,-0.095096],[0.069509,-0.093977],[0.070083,-0.092083],[0.070723,-0.090749],[0.071697,-0.090041],[0.072551,-0.089588],[0.073378,-0.088827],[0.073846,-0.087906],[0.073956,-0.087313],[0.073761,-0.086583],[0.07367,-0.085004],[0.073774,-0.084404],[0.073748,-0.083869],[0.073565,-0.083022],[0.073565,-0.082096],[0.073448,-0.081483],[0.073712,-0.08086],[0.073878,-0.080192],[0.07407,-0.079685],[0.074513,-0.078958],[0.074925,-0.077981],[0.075758,-0.076506],[0.075814,-0.076301],[0.075859,-0.076136],[0.075918,-0.075918],[0.075865,-0.075747],[0.076024,-0.075853],[0.075859,-0.075726],[0.075691,-0.075532],[0.075602,-0.075239],[0.075638,-0.074536],[0.075664,-0.073659],[0.075735,-0.073562]]]}},{"type":"Feature","id":17,"properties":{},"geometry":{"type":"MultiLineString","coordinates":[[[0.07747,-0.07351],[0.077417,-0.073607],[0.077365,-0.073701],[0.077341,-0.073918],[0.077324,-0.074404],[0.077386,-0.074773],[0.07741,-0.075024],[0.077513,-0.075452],[0.077669,-0.075685],[0.077744,-0.075797],[0.078044,-0.075952],[0.078423,-0.076093],[0.078902,-0.076286],[0.079465,-0.076475],[0.080165,-0.076567],[0.080887,-0.076438],[0.081312,-0.076303],[0.081845,-0.076163],[0.082341,-0.075996],[0.082702,-0.075861],[0.082987,-0.075538],[0.083531,-0.075167],[0.084086,-0.074703],[0.084684,-0.074273],[0.085109,-0.073987],[0.086003,-0.072948],[0.086194,-0.072905],[0.086337,-0.072873],[0.086698,-0.072646],[0.08694,-0.072258],[0.087124,-0.071849],[0.087457,-0.071197],[0.087824,-0.070502],[0.088486,-0.069398],[0.088804,-0.068736],[0.089423,-0.067346],[0.089533,-0.067396],[0.089423,-0.067335],[0.089633,-0.067109],[0.089666,-0.06677],[0.089773,-0.06614],[0.089919,-0.065326],[0.090145,-0.063619],[0.090188,-0.06321],[0.090102,-0.06272],[0.090177,-0.061734],[0.09021,-0.061179],[0.09014,-0.060867],[0.090054,-0.06042],[0.090027,-0.059407],[0.089983,-0.059014],[0.089892,-0.058804],[0.089703,-0.058287],[0.089666,-0.058055],[0.089676,-0.057956],[0.089714,-0.057592],[0.089617,-0.057264],[0.089531,-0.057],[0.089391,-0.056553],[0.08931,-0.056213],[0.089273,-0.055987],[0.089149,-0.055454],[0.089084,-0.054975],[0.089095,-0.054603],[0.089009,-0.054108],[0.089014,-0.052923],[0.089273,-0.052486],[0.089407,-0.051167],[0.089423,-0.050752],[0.089606,-0.049346],[0.089522,-0.049129],[0.089493,-0.049055],[0.089229,-0.048361],[0.088979,-0.04813]]]}},{"type":"Feature","id":18,"properties":{},"geometry":{"type":"MultiLineString","coordinates":[[[0.094093,-0.059024],[0.094098,-0.059018],[0.094489,-0.058536],[0.095023,-0.058194],[0.095512,-0.057958],[0.095839,-0.057683],[0.096047,-0.057467],[0.096399,-0.057185],[0.096689,-0.056943],[0.096843,-0.056872],[0.096888,-0.056753],[0.096945,-0.056392],[0.097082,-0.056014],[0.097119,-0.055641],[0.097173,-0.055089],[0.097289,-0.054666],[0.097383,-0.054376],[0.097551,-0.05387],[0.097622,-0.053761],[0.097992,-0.052908],[0.098213,-0.05236],[0.098319,-0.052035],[0.098478,-0.051538],[0.098589,-0.051074],[0.098685,-0.050918],[0.09895,-0.050321],[0.099382,-0.049286],[0.099376,-0.048794],[0.099487,-0.047706],[0.099337,-0.047345],[0.099334,-0.047338],[0.100341,-0.046672],[0.101382,-0.046234],[0.102215,-0.04588],[0.102972,-0.045727],[0.103381,-0.045623],[0.103867,-0.045554],[0.104023,-0.045471],[0.103999,-0.04547],[0.103942,-0.045387]]]}},{"type":"Feature","id":19,"properties":{},"geometry":{"type":"MultiLineString","coordinates":[[[0.107105,-0.046066],[0.107047,-0.046012],[0.106949,-0.045922],[0.106436,-0.045755],[0.105991,-0.045547],[0.105728,-0.045589],[0.105131,-0.045679],[0.104515,-0.045492]]]}},{"type":"Feature","id":20,"properties":{},"geometry":{"type":"MultiLineString","coordinates":[[[0.102807,-0.063828],[0.102951,-0.06377],[0.103194,-0.0637],[0.103437,-0.063728],[0.103666,-0.063728],[0.104138,-0.063742],[0.104679,-0.06377],[0.104978,-0.063832],[0.105256,-0.063888],[0.105776,-0.064075],[0.106061,-0.064187],[0.106421,-0.064311],[0.10687,-0.064489],[0.107319,-0.06448],[0.107723,-0.064453],[0.108056,-0.064409],[0.108333,-0.064323],[0.108385,-0.064307],[0.108576,-0.064236],[0.108709,-0.064054],[0.108745,-0.063663],[0.108745,-0.063374],[0.108732,-0.063121],[0.108683,-0.062938],[0.108674,-0.062743],[0.108652,-0.062605],[0.108718,-0.062401],[0.108829,-0.062268],[0.1091,-0.062139],[0.109283,-0.061899],[0.109349,-0.061686],[0.109349,-0.061627],[0.109462,-0.061616]]]}},{"type":"Feature","id":21,"properties":{},"geometry":{"type":"MultiLineString","coordinates":[[[0.111403,-0.065307],[0.111663,-0.064687],[0.112164,-0.063712],[0.112692,-0.063088],[0.112757,-0.062995]]]}},{"type":"Feature","id":22,"properties":{},"geometry":{"type":"MultiLineString","coordinates":[[[0.111414,-0.065279],[0.111403,-0.065307],[0.111395,-0.065325],[0.111263,-0.065315],[0.112067,-0.065502],[0.112284,-0.065592],[0.112549,-0.065689],[0.112851,-0.065779],[0.113128,-0.06587],[0.11346,-0.066045],[0.113834,-0.066274],[0.114002,-0.066473],[0.114117,-0.066551],[0.114304,-0.06669],[0.114575,-0.06678],[0.114805,-0.066817],[0.115094,-0.066804],[0.115462,-0.066744],[0.115703,-0.066678],[0.115981,-0.066581],[0.116252,-0.066569],[0.116614,-0.066539],[0.116804,-0.0666],[0.116969,-0.066659]]]}},{"type":"Feature","id":23,"properties":{},"geometry":{"type":"MultiLineString","coordinates":[[[0.113582,-0.060959],[0.113598,-0.060954],[0.113756,-0.060755],[0.113859,-0.060549],[0.113941,-0.060432],[0.114236,-0.060206],[0.114552,-0.060082],[0.114771,-0.060021],[0.114936,-0.059924],[0.115046,-0.059822],[0.115471,-0.059437],[0.115698,-0.059307],[0.11591,-0.059122],[0.116219,-0.058964],[0.116363,-0.058923],[0.116658,-0.058648],[0.116816,-0.058449],[0.117001,-0.058099],[0.117207,-0.057811],[0.117282,-0.057668],[0.117379,-0.057482],[0.117377,-0.05745],[0.117383,-0.057437],[0.117448,-0.057439]]]}},{"type":"Feature","id":24,"properties":{},"geometry":{"type":"MultiLineString","coordinates":[[[0.116682,-0.056838],[0.116684,-0.056643],[0.116816,-0.056489],[0.117097,-0.056419],[0.117229,-0.056392],[0.117809,-0.056225],[0.118204,-0.056063],[0.118516,-0.055993],[0.118814,-0.055975],[0.119245,-0.055997],[0.119772,-0.055988],[0.120215,-0.055918],[0.120733,-0.055962],[0.121555,-0.056015],[0.12206,-0.056344],[0.12227,-0.056485],[0.122494,-0.056827],[0.12292,-0.057091],[0.123234,-0.057196],[0.123288,-0.057114],[0.123524,-0.057007],[0.123738,-0.056825],[0.12376,-0.056664],[0.123964,-0.056535],[0.124307,-0.056535],[0.124907,-0.056803],[0.125615,-0.057093],[0.126172,-0.057447],[0.126172,-0.057448],[0.126129,-0.057736],[0.125968,-0.058101],[0.125733,-0.058283],[0.125486,-0.058433],[0.12525,-0.058583],[0.125089,-0.05884],[0.125081,-0.058976],[0.125079,-0.059023],[0.125075,-0.059023],[0.125144,-0.0594],[0.125304,-0.059738],[0.12557,-0.059988],[0.125831,-0.060126],[0.126171,-0.060216],[0.126741,-0.060213],[0.127321,-0.060173],[0.12776,-0.06009],[0.128252,-0.059963],[0.128634,-0.059906],[0.128972,-0.059827],[0.129253,-0.059813],[0.129562,-0.059801],[0.129587,-0.0598],[0.129464,-0.059554],[0.129451,-0.059093],[0.129468,-0.058838],[0.129489,-0.058531],[0.129872,-0.058821],[0.130597,-0.059093],[0.130777,-0.059229],[0.130979,-0.059282],[0.130985,-0.059277],[0.131071,-0.059212],[0.131111,-0.059181],[0.131317,-0.059234],[0.131458,-0.05948],[0.131673,-0.059923],[0.131778,-0.060235],[0.131914,-0.060902],[0.131971,-0.061232],[0.132103,-0.061579],[0.132507,-0.061917],[0.13267,-0.062154],[0.132929,-0.062418],[0.132993,-0.062554],[0.133288,-0.062465],[0.133686,-0.062318],[0.134072,-0.062267],[0.134373,-0.062369],[0.134651,-0.062585],[0.135043,-0.062795],[0.135463,-0.062868],[0.136008,-0.062744],[0.136764,-0.062417],[0.137061,-0.062309],[0.137454,-0.062157],[0.137758,-0.062082],[0.137964,-0.061979],[0.138216,-0.062142],[0.138306,-0.062201],[0.138781,-0.06251],[0.138995,-0.062561],[0.13909,-0.062567],[0.139073,-0.06262],[0.139205,-0.062576],[0.139359,-0.062586],[0.139528,-0.062561],[0.139803,-0.062519],[0.140132,-0.062497],[0.140333,-0.062491],[0.140601,-0.062519],[0.140783,-0.06257],[0.141247,-0.062606],[0.141582,-0.062583],[0.142157,-0.062449],[0.142457,-0.062331],[0.142955,-0.062162],[0.143313,-0.061954],[0.143549,-0.061769],[0.143559,-0.061727],[0.143551,-0.061498],[0.143679,-0.061274],[0.14373,-0.061184],[0.144149,-0.060575],[0.144314,-0.06034],[0.144499,-0.060036],[0.144549,-0.059702],[0.144698,-0.059347],[0.144868,-0.059053],[0.145392,-0.058808],[0.145577,-0.058803],[0.145472,-0.059143],[0.145452,-0.059542],[0.145636,-0.059906],[0.145946,-0.060335],[0.146265,-0.06054],[0.14649,-0.060725],[0.146485,-0.060899],[0.146779,-0.061239],[0.146754,-0.061533],[0.146654,-0.061663],[0.146485,-0.061773],[0.146455,-0.061957],[0.14637,-0.062132],[0.146255,-0.062202],[0.146081,-0.062262],[0.145966,-0.062386],[0.145926,-0.062701],[0.145841,-0.06297],[0.145726,-0.063185],[0.145522,-0.063424],[0.145352,-0.063544],[0.144913,-0.063809],[0.144895,-0.064057],[0.144894,-0.064095],[0.144868,-0.064269],[0.144752,-0.064432],[0.144606,-0.064611],[0.144452,-0.064783],[0.144248,-0.064941],[0.144022,-0.065085],[0.143845,-0.065253],[0.143615,-0.065534],[0.143443,-0.065818],[0.143271,-0.066104],[0.143336,-0.066128],[0.143383,-0.066147]]]}},{"type":"Feature","id":25,"properties":{},"geometry":{"type":"MultiLineString","coordinates":[[[0.144509,-0.068105],[0.144684,-0.068128],[0.144843,-0.068199],[0.145093,-0.068544],[0.145272,-0.068764],[0.145677,-0.068959],[0.145992,-0.069044],[0.146117,-0.069029],[0.146297,-0.069019],[0.146607,-0.068939],[0.146941,-0.068959],[0.147201,-0.069074],[0.147229,-0.069083],[0.147471,-0.069169],[0.147666,-0.069223],[0.147821,-0.069343],[0.147852,-0.069495],[0.147859,-0.069484],[0.147994,-0.069457],[0.148407,-0.069521],[0.148616,-0.069624],[0.149048,-0.069823],[0.149202,-0.070022],[0.149438,-0.070541],[0.149498,-0.070896],[0.149602,-0.071344],[0.149607,-0.071982],[0.149241,-0.072326],[0.148818,-0.072699],[0.148832,-0.072719],[0.148497,-0.073063],[0.14871,-0.073144],[0.149045,-0.073108],[0.149266,-0.073177],[0.149436,-0.073254],[0.149643,-0.073206],[0.149867,-0.073185],[0.150169,-0.073215],[0.150402,-0.073215],[0.150818,-0.073179],[0.151123,-0.073156],[0.151303,-0.073015],[0.15121,-0.0728],[0.150944,-0.072438],[0.150873,-0.072144],[0.150872,-0.072142],[0.150922,-0.072139],[0.150813,-0.07187],[0.150808,-0.071841],[0.150699,-0.071244],[0.150907,-0.070626],[0.151052,-0.070322],[0.151052,-0.070008],[0.151118,-0.069695],[0.151269,-0.069379],[0.151607,-0.069136],[0.151597,-0.069153],[0.15162,-0.069127],[0.151631,-0.069119],[0.151926,-0.068975],[0.152282,-0.068881],[0.152855,-0.068733],[0.153135,-0.068715],[0.153137,-0.068723],[0.153161,-0.068626],[0.153429,-0.068654],[0.153655,-0.068494],[0.153815,-0.06839],[0.154013,-0.068291],[0.154168,-0.068277],[0.154258,-0.068244],[0.15438,-0.068051],[0.154498,-0.067858],[0.154559,-0.067665],[0.154668,-0.067198],[0.154597,-0.067125]]]}},{"type":"Feature","id":26,"properties":{},"geometry":{"type":"MultiLineString","coordinates":[[[0.154551,-0.067866],[0.154741,-0.067897],[0.154987,-0.067923],[0.155311,-0.067897],[0.155715,-0.067827],[0.155956,-0.067783],[0.156303,-0.067621],[0.156618,-0.067459],[0.15689,-0.067279],[0.157026,-0.067125],[0.157351,-0.066981],[0.157553,-0.066924],[0.15796,-0.066814],[0.158307,-0.066801],[0.158522,-0.066687],[0.158952,-0.066581],[0.15925,-0.066402],[0.15943,-0.066252],[0.159634,-0.066074],[0.159706,-0.066011],[0.159918,-0.065691],[0.15989,-0.065616],[0.159726,-0.065177],[0.159651,-0.064877],[0.159327,-0.064671],[0.159303,-0.064656]]]}},{"type":"Feature","id":27,"properties":{},"geometry":{"type":"MultiLineString","coordinates":[[[0.164531,-0.065167],[0.164462,-0.06518],[0.164529,-0.065144],[0.164696,-0.064959],[0.164892,-0.06463],[0.165207,-0.064527],[0.165566,-0.064376],[0.166035,-0.064122],[0.166289,-0.063768],[0.166226,-0.063651],[0.166394,-0.06383],[0.166549,-0.063934],[0.166723,-0.064127],[0.166975,-0.064198],[0.167117,-0.064179],[0.167331,-0.064347],[0.167415,-0.064612],[0.167427,-0.064935],[0.167505,-0.0652],[0.167744,-0.065406],[0.168151,-0.065581],[0.168506,-0.065684],[0.168862,-0.065768],[0.169062,-0.065813],[0.169236,-0.066007],[0.169365,-0.066362],[0.169495,-0.066737],[0.169558,-0.066805]]]}},{"type":"Feature","id":28,"properties":{},"geometry":{"type":"MultiLineString","coordinates":[[[0.168792,-0.06698],[0.168776,-0.067075],[0.168755,-0.067321],[0.168657,-0.067499],[0.168466,-0.067808],[0.168358,-0.068041],[0.168469,-0.068345],[0.168612,-0.068623],[0.168707,-0.068967],[0.169017,-0.06934],[0.169469,-0.069383],[0.169511,-0.069391],[0.16989,-0.069468]]]}},{"type":"Feature","id":29,"properties":{},"geometry":{"type":"MultiLineString","coordinates":[[[0.171848,-0.077903],[0.171795,-0.077885],[0.171777,-0.077854],[0.171777,-0.07788],[0.171682,-0.077861],[0.171581,-0.077844],[0.171384,-0.07783],[0.171146,-0.077864],[0.170975,-0.077896],[0.170848,-0.077871],[0.170699,-0.077806],[0.170569,-0.077754],[0.170389,-0.077749],[0.170221,-0.077768],[0.170083,-0.07776],[0.170018,-0.077754],[0.169932,-0.07775],[0.169822,-0.077754],[0.169599,-0.077813],[0.169462,-0.077847],[0.16923,-0.077858],[0.169099,-0.077817],[0.168865,-0.077729],[0.168731,-0.077702],[0.168428,-0.077684],[0.168177,-0.077702],[0.16795,-0.077684],[0.167684,-0.077681],[0.167483,-0.077726],[0.167214,-0.077713],[0.167048,-0.07769],[0.166825,-0.077641],[0.166672,-0.077633],[0.166421,-0.077686],[0.166249,-0.077731],[0.166142,-0.07768],[0.1658,-0.077573],[0.165552,-0.077466],[0.165348,-0.077363],[0.165355,-0.077227],[0.165344,-0.077366],[0.165019,-0.077227],[0.164887,-0.0773],[0.164525,-0.077155],[0.164308,-0.077197],[0.16408,-0.077209],[0.163881,-0.077095],[0.16373,-0.076998],[0.163483,-0.077029],[0.16326,-0.077004],[0.163116,-0.07692],[0.16276,-0.076884],[0.162724,-0.076896],[0.162459,-0.076752],[0.161996,-0.07677],[0.16146,-0.07686],[0.161158,-0.077023],[0.160791,-0.077155],[0.160629,-0.077062],[0.160655,-0.076922],[0.160635,-0.076534],[0.160441,-0.07634],[0.160247,-0.076191],[0.160092,-0.075997],[0.159872,-0.075965],[0.159762,-0.075861],[0.159594,-0.075596],[0.159445,-0.07548],[0.159359,-0.07544],[0.159448,-0.075396],[0.159472,-0.075393]]]}},{"type":"Feature","id":30,"properties":{},"geometry":{"type":"MultiLineString","coordinates":[[[0.174102,-0.078476],[0.174506,-0.078611],[0.1748,-0.07853],[0.175109,-0.078618],[0.175492,-0.078736],[0.175896,-0.07867],[0.176161,-0.078758],[0.176308,-0.078824],[0.176544,-0.078743],[0.17675,-0.078765],[0.176992,-0.078942],[0.17722,-0.079111],[0.177456,-0.079111],[0.177926,-0.079089],[0.178257,-0.07903],[0.17861,-0.078971],[0.178883,-0.079023],[0.179147,-0.079207],[0.179346,-0.079449],[0.179456,-0.079766],[0.179601,-0.079828],[0.179593,-0.079846]]]}},{"type":"Feature","id":31,"properties":{},"geometry":{"type":"MultiLineString","coordinates":[[[0.137943,-0.071916],[0.137912,-0.071917],[0.137917,-0.07193],[0.138032,-0.072266],[0.138137,-0.072826],[0.138142,-0.073211],[0.138427,-0.07391],[0.138606,-0.074572],[0.138612,-0.074595],[0.138625,-0.074601]]]}},{"type":"Feature","id":32,"properties":{},"geometry":{"type":"MultiLineString","coordinates":[[[0.130409,-0.072349],[0.130342,-0.072336],[0.130108,-0.072331],[0.129628,-0.072326],[0.129363,-0.072356],[0.128833,-0.072511],[0.128229,-0.072636],[0.128068,-0.072877],[0.127516,-0.073548],[0.127192,-0.073985],[0.126925,-0.074383],[0.126328,-0.074617],[0.125458,-0.07485],[0.124907,-0.07506],[0.124469,-0.075293],[0.124162,-0.075765],[0.123684,-0.075736],[0.123338,-0.075412],[0.122611,-0.075169],[0.122573,-0.075191],[0.12224,-0.075137],[0.1217,-0.075128],[0.121146,-0.075142],[0.120533,-0.075235],[0.119553,-0.075125],[0.119164,-0.075042],[0.118454,-0.074962],[0.117648,-0.074895],[0.116665,-0.075223],[0.115846,-0.0756],[0.115822,-0.075663],[0.115828,-0.075625],[0.115117,-0.075426],[0.114468,-0.074908],[0.114088,-0.074769],[0.11337,-0.074287],[0.113335,-0.074248],[0.112992,-0.074231],[0.112343,-0.074231],[0.110935,-0.074448],[0.110081,-0.074532],[0.110039,-0.074514],[0.109696,-0.074365],[0.10591,-0.072455],[0.107149,-0.071734],[0.107815,-0.071692],[0.108473,-0.071651],[0.109779,-0.071567],[0.111874,-0.071567],[0.111972,-0.071571],[0.111974,-0.071571]]]}},{"type":"Feature","id":33,"properties":{},"geometry":{"type":"MultiLineString","coordinates":[[[0.109642,-0.069674],[0.109485,-0.069543],[0.109087,-0.069331],[0.108605,-0.069151],[0.107978,-0.069084],[0.107308,-0.068765],[0.106765,-0.068668],[0.106565,-0.068691],[0.106343,-0.068716],[0.106291,-0.068611]]]}},{"type":"Feature","id":34,"properties":{},"geometry":{"type":"MultiLineString","coordinates":[[[0.151766,-0.167014],[0.151791,-0.167021],[0.151912,-0.166598],[0.152059,-0.166667],[0.152278,-0.166793],[0.152543,-0.166978],[0.152681,-0.167191],[0.1529,-0.167502],[0.153159,-0.167755],[0.153453,-0.168009],[0.15366,-0.168136],[0.153816,-0.168285],[0.153989,-0.168464],[0.154092,-0.168591],[0.154202,-0.168671],[0.154317,-0.168717],[0.154445,-0.168617],[0.154839,-0.168732],[0.155279,-0.168971],[0.155667,-0.169113],[0.156217,-0.169158],[0.156863,-0.169133],[0.157297,-0.168906],[0.157665,-0.1689],[0.158254,-0.168829],[0.158914,-0.16888],[0.159509,-0.169068],[0.159819,-0.16945],[0.160227,-0.170153],[0.160414,-0.170509],[0.160608,-0.1707],[0.160977,-0.17111],[0.161031,-0.17125],[0.161064,-0.171433],[0.161055,-0.171689],[0.160952,-0.171996],[0.160604,-0.172281],[0.16108,-0.17224],[0.161349,-0.172012],[0.161519,-0.171706],[0.161606,-0.171097],[0.161519,-0.170472],[0.161221,-0.169975],[0.161047,-0.169706],[0.161068,-0.169094],[0.161002,-0.168485],[0.160935,-0.167939],[0.160882,-0.167455],[0.160977,-0.167161],[0.160952,-0.166602],[0.160803,-0.166192],[0.16072,-0.165944],[0.160509,-0.165741],[0.16031,-0.165546],[0.160107,-0.16541],[0.159913,-0.165373],[0.159681,-0.165377],[0.159549,-0.165315],[0.159317,-0.165219],[0.159234,-0.165099],[0.159155,-0.164975],[0.159052,-0.164834],[0.158911,-0.164723],[0.158721,-0.164723],[0.158626,-0.164743],[0.158406,-0.164632],[0.158294,-0.164404],[0.158162,-0.164127],[0.157909,-0.163564],[0.157843,-0.162715],[0.157678,-0.162276],[0.157375,-0.161726],[0.157003,-0.161324],[0.156767,-0.16103],[0.156498,-0.160931],[0.156399,-0.160935],[0.156206,-0.160728],[0.155602,-0.1604],[0.154605,-0.160083],[0.153931,-0.159778],[0.153557,-0.159691],[0.153153,-0.159518],[0.153021,-0.159432],[0.152894,-0.159282],[0.152814,-0.159075],[0.15275,-0.158919],[0.152583,-0.158902],[0.15199,-0.159115],[0.151598,-0.159455],[0.150308,-0.160135],[0.149657,-0.160475],[0.149288,-0.16059],[0.149294,-0.160625],[0.147298,-0.160938],[0.146815,-0.161081],[0.14645,-0.161047],[0.145926,-0.161022],[0.145465,-0.161093],[0.145121,-0.161068],[0.144781,-0.161043],[0.144504,-0.160909],[0.14411,-0.160661],[0.143909,-0.160623],[0.143762,-0.160493],[0.143497,-0.160296],[0.143309,-0.160242],[0.14294,-0.160208],[0.142831,-0.160258],[0.142742,-0.160372],[0.142772,-0.160426],[0.142935,-0.160447],[0.14304,-0.160418],[0.143195,-0.160468],[0.143439,-0.160611],[0.143716,-0.160867],[0.143862,-0.161282],[0.143938,-0.16158],[0.143942,-0.161794],[0.143955,-0.162117],[0.143917,-0.162465],[0.143858,-0.162763],[0.143841,-0.162997],[0.14393,-0.163304],[0.144089,-0.163694],[0.144206,-0.164201],[0.144219,-0.164403],[0.144227,-0.164667],[0.144164,-0.165187],[0.144198,-0.165455],[0.144303,-0.165627],[0.144311,-0.165925],[0.144261,-0.16611],[0.144215,-0.166387],[0.144143,-0.166651],[0.144148,-0.167309],[0.144114,-0.167666],[0.144173,-0.16806],[0.144294,-0.168383],[0.144287,-0.168391],[0.144323,-0.168791],[0.144338,-0.169419],[0.144272,-0.169727],[0.144186,-0.169955],[0.144212,-0.170421],[0.144328,-0.170796],[0.144475,-0.171317],[0.144713,-0.171656],[0.145067,-0.172152],[0.14528,-0.172466],[0.145503,-0.172689],[0.145675,-0.173018],[0.145766,-0.173372],[0.145877,-0.173813],[0.145999,-0.174147],[0.146145,-0.1744],[0.146368,-0.17476],[0.146556,-0.175382],[0.146647,-0.175899],[0.146596,-0.176451],[0.146631,-0.176597],[0.146839,-0.176552],[0.146966,-0.176314],[0.147411,-0.175879],[0.147705,-0.175271],[0.147882,-0.174896],[0.14812,-0.174527],[0.148206,-0.174117],[0.148176,-0.173864],[0.14811,-0.173474],[0.148084,-0.17318],[0.148196,-0.172871],[0.148302,-0.172578],[0.148395,-0.172366],[0.148525,-0.171921],[0.148686,-0.171702],[0.148824,-0.171451],[0.148975,-0.171189],[0.149092,-0.17098],[0.149337,-0.170782],[0.149531,-0.170699],[0.14979,-0.170507],[0.150014,-0.170387],[0.150161,-0.170258],[0.150368,-0.170037],[0.150417,-0.169973],[0.150502,-0.170112],[0.150584,-0.170248],[0.150719,-0.170527],[0.150991,-0.171062],[0.151174,-0.17126],[0.151525,-0.171613],[0.151924,-0.171527],[0.151924,-0.171528],[0.152361,-0.171727],[0.152708,-0.172042],[0.153153,-0.172299],[0.153636,-0.172678],[0.154017,-0.172972],[0.154163,-0.173099],[0.154201,-0.173204],[0.154271,-0.173254],[0.154412,-0.173291],[0.15459,-0.173316],[0.154763,-0.173304],[0.154975,-0.173208],[0.15509,-0.173142],[0.155231,-0.173001],[0.15531,-0.172873],[0.155341,-0.17291],[0.15531,-0.172842],[0.155286,-0.172384],[0.155241,-0.171941],[0.155177,-0.171608],[0.154894,-0.17121],[0.154735,-0.170895],[0.154515,-0.170328],[0.154383,-0.169886],[0.154139,-0.169342],[0.153938,-0.16894],[0.153567,-0.168503],[0.153024,-0.168137],[0.152871,-0.168031]]]}},{"type":"Feature","id":35,"properties":{},"geometry":{"type":"MultiLineString","coordinates":[[[0.155779,-0.180033],[0.155805,-0.180075],[0.155773,-0.180517],[0.155505,-0.181054],[0.155363,-0.181449],[0.155379,-0.18178],[0.155473,-0.182159],[0.155442,-0.182506],[0.155331,-0.18298],[0.154652,-0.183422],[0.154084,-0.182728],[0.153863,-0.182238],[0.153736,-0.182064],[0.153436,-0.181701],[0.153263,-0.181401],[0.1529,-0.181196],[0.152742,-0.180975],[0.152615,-0.180659],[0.152521,-0.180422],[0.15241,-0.180138],[0.152205,-0.179791],[0.151984,-0.179648],[0.151842,-0.17938],[0.151589,-0.179159],[0.151984,-0.179127],[0.152094,-0.178764],[0.151905,-0.178385],[0.151621,-0.177959],[0.151478,-0.177406],[0.151384,-0.177232],[0.151368,-0.176822],[0.151289,-0.176664],[0.151384,-0.176238],[0.151644,-0.176302],[0.1526,-0.176538],[0.153879,-0.177122],[0.153878,-0.177153],[0.153882,-0.177137],[0.153926,-0.177311]]]}},{"type":"Feature","id":36,"properties":{},"geometry":{"type":"MultiLineString","coordinates":[[[0.063343,-0.222859],[0.063373,-0.222877],[0.063084,-0.223744],[0.062844,-0.224211],[0.062493,-0.224793],[0.062399,-0.225691],[0.062368,-0.226139],[0.062351,-0.226886],[0.062288,-0.227673],[0.061902,-0.228317],[0.0616,-0.228826]]]}},{"type":"Feature","id":37,"properties":{},"geometry":{"type":"MultiLineString","coordinates":[[[0.060051,-0.228936],[0.060119,-0.228935],[0.060243,-0.228892],[0.0601,-0.228952],[0.060095,-0.229175],[0.06014,-0.229354],[0.060231,-0.229516],[0.060315,-0.229575],[0.060401,-0.229754],[0.060638,-0.230484],[0.060927,-0.231231],[0.061103,-0.231576],[0.061167,-0.231752],[0.061337,-0.232202],[0.061409,-0.232544],[0.061491,-0.233024],[0.061467,-0.233432],[0.061438,-0.233852],[0.061499,-0.23408],[0.061737,-0.234551],[0.061884,-0.235205],[0.061885,-0.235304],[0.061963,-0.235372]]]}},{"type":"Feature","id":38,"properties":{},"geometry":{"type":"MultiLineString","coordinates":[[[0.066662,-0.232474],[0.066743,-0.232718],[0.066826,-0.233034],[0.066909,-0.233413],[0.06698,-0.233773],[0.067131,-0.234069],[0.06721,-0.234302],[0.06732,-0.234472],[0.067644,-0.23482],[0.067731,-0.234958],[0.067996,-0.23529],[0.068225,-0.23548],[0.068672,-0.235685],[0.068996,-0.235867],[0.069442,-0.236077],[0.069774,-0.236341],[0.070087,-0.236602],[0.070438,-0.236792],[0.070869,-0.23714],[0.071169,-0.237503],[0.071363,-0.237816],[0.071537,-0.238242],[0.071904,-0.23874],[0.072094,-0.239187],[0.072177,-0.239369],[0.072181,-0.239393]]]}},{"type":"Feature","id":39,"properties":{},"geometry":{"type":"MultiLineString","coordinates":[[[0.071044,-0.239097],[0.071035,-0.239106],[0.071045,-0.239125],[0.071177,-0.239378],[0.071436,-0.240096],[0.071831,-0.24066],[0.071922,-0.241048],[0.071928,-0.241508],[0.072019,-0.241793],[0.07242,-0.242201],[0.07277,-0.242492],[0.073184,-0.24288],[0.073404,-0.243094],[0.073657,-0.243204],[0.07411,-0.243392],[0.074518,-0.243632],[0.074738,-0.243755],[0.074829,-0.243884],[0.075224,-0.244195],[0.075431,-0.244344],[0.07593,-0.24457],[0.076376,-0.244797],[0.076778,-0.244946],[0.077224,-0.245127],[0.077606,-0.24527],[0.078073,-0.245244],[0.078532,-0.245192],[0.078701,-0.245205],[0.07888,-0.245228]]]}},{"type":"Feature","id":40,"properties":{},"geometry":{"type":"MultiLineString","coordinates":[[[0.020007,-0.088074],[0.020158,-0.088447],[0.020307,-0.088824],[0.020332,-0.089392],[0.020321,-0.090259],[0.020446,-0.091304],[0.020598,-0.092295],[0.020783,-0.092867],[0.020802,-0.093121],[0.020829,-0.093496],[0.020836,-0.09355],[0.021213,-0.09406],[0.021398,-0.094273],[0.021519,-0.094594],[0.021797,-0.095435],[0.022065,-0.096224],[0.022291,-0.096502],[0.022369,-0.096658],[0.022516,-0.096918],[0.022664,-0.097196],[0.022707,-0.097412],[0.022794,-0.097716],[0.023046,-0.097655],[0.023245,-0.097595],[0.023427,-0.097317],[0.023583,-0.0971],[0.023757,-0.096684],[0.023861,-0.096337],[0.024008,-0.095799],[0.02406,-0.095209],[0.02413,-0.09468],[0.024251,-0.094143],[0.024399,-0.0937],[0.02465,-0.09292],[0.024746,-0.092434],[0.024876,-0.092122],[0.025006,-0.091566],[0.024928,-0.091202],[0.02498,-0.090656],[0.025006,-0.090335],[0.025014,-0.089976]]]}},{"type":"Feature","id":41,"properties":{},"geometry":{"type":"MultiLineString","coordinates":[[[0.176264,-0.069625],[0.176359,-0.069535],[0.176789,-0.069545],[0.177385,-0.069565],[0.177859,-0.069615],[0.178182,-0.069565],[0.178535,-0.069484],[0.178889,-0.069373],[0.179272,-0.06904],[0.179565,-0.068959],[0.179999,-0.068899],[0.180413,-0.068768],[0.180675,-0.068667],[0.180927,-0.068525],[0.1812,-0.068374],[0.181412,-0.068283],[0.181705,-0.068202],[0.181987,-0.068172],[0.1823,-0.068212],[0.182356,-0.068308],[0.182303,-0.068211],[0.182369,-0.068108],[0.182516,-0.068027],[0.182825,-0.067814],[0.183038,-0.06763],[0.183274,-0.067431],[0.183553,-0.067122],[0.183663,-0.066983],[0.183818,-0.066755],[0.184038,-0.066652],[0.184215,-0.066563],[0.184487,-0.06649],[0.184656,-0.066438],[0.185046,-0.066225],[0.185245,-0.066122],[0.185421,-0.066056],[0.185583,-0.065982],[0.185715,-0.065857],[0.185804,-0.065791],[0.185915,-0.065777],[0.18611,-0.065567],[0.186411,-0.065205],[0.186633,-0.064866],[0.186868,-0.064536],[0.187428,-0.064677],[0.187767,-0.064979],[0.188243,-0.065355],[0.18869,-0.06569],[0.189222,-0.066076],[0.189829,-0.066527],[0.190229,-0.066852],[0.190648,-0.067003],[0.191557,-0.067224],[0.192027,-0.067309],[0.192044,-0.067347]]]}},{"type":"Feature","id":42,"properties":{},"geometry":{"type":"MultiLineString","coordinates":[[[0.182922,-0.087818],[0.182923,-0.087821],[0.18301,-0.087805],[0.183156,-0.087847],[0.183222,-0.087892],[0.183376,-0.087803],[0.183507,-0.087661],[0.183931,-0.087538],[0.184195,-0.087457],[0.184295,-0.087394],[0.184486,-0.08736],[0.184617,-0.08729],[0.18474,-0.087203],[0.18497,-0.087062],[0.185182,-0.086994],[0.185535,-0.086842],[0.185794,-0.086667],[0.186294,-0.08641],[0.18675,-0.086219],[0.187051,-0.086073],[0.187349,-0.085897],[0.187488,-0.085777],[0.187655,-0.085439],[0.187765,-0.085212],[0.187794,-0.085114]]]}},{"type":"Feature","id":43,"properties":{},"geometry":{"type":"MultiLineString","coordinates":[[[0.199768,-0.087187],[0.199765,-0.087342],[0.199771,-0.087796],[0.199771,-0.088134],[0.199725,-0.088367],[0.199619,-0.088675],[0.199351,-0.089052],[0.199336,-0.089074],[0.199224,-0.089407],[0.19918,-0.089538],[0.19919,-0.089785],[0.199139,-0.089912],[0.199074,-0.090063],[0.198887,-0.090416],[0.198751,-0.090634],[0.198634,-0.090845]]]}},{"type":"Feature","id":44,"properties":{},"geometry":{"type":"MultiLineString","coordinates":[[[0.203235,-0.09157],[0.203201,-0.091633],[0.203182,-0.091627],[0.203209,-0.091638],[0.203254,-0.091759],[0.203345,-0.092093],[0.20338,-0.092279],[0.20334,-0.092789],[0.20333,-0.093178],[0.20332,-0.09341],[0.20332,-0.093809],[0.203365,-0.094092],[0.20332,-0.09441],[0.203297,-0.094416]]]}},{"type":"Feature","id":45,"properties":{},"geometry":{"type":"MultiLineString","coordinates":[[[0.191285,-0.089312],[0.191306,-0.089337],[0.191684,-0.08886],[0.191777,-0.088743],[0.191955,-0.088561],[0.192016,-0.08846],[0.192093,-0.088337],[0.192091,-0.088178],[0.19208,-0.087959],[0.192098,-0.087712],[0.192153,-0.087451],[0.19223,-0.087323],[0.192305,-0.087257],[0.192609,-0.087102],[0.192904,-0.086964],[0.19293,-0.08696],[0.193258,-0.087006],[0.193446,-0.087056],[0.193585,-0.087091],[0.193751,-0.087155],[0.193981,-0.087361],[0.194073,-0.087555],[0.194325,-0.08784],[0.194547,-0.088028],[0.194817,-0.088155],[0.194951,-0.088263],[0.195107,-0.088265],[0.195185,-0.088173],[0.195263,-0.088113],[0.195414,-0.088205],[0.19543,-0.088255],[0.195389,-0.088371],[0.195209,-0.088539],[0.195156,-0.088627],[0.195078,-0.088871],[0.195052,-0.089099],[0.195092,-0.089305],[0.195124,-0.089582],[0.195059,-0.089892],[0.194907,-0.090237],[0.194775,-0.090544],[0.194696,-0.090533],[0.194771,-0.090544],[0.194687,-0.090738],[0.19465,-0.090864],[0.194674,-0.09105],[0.194812,-0.091199],[0.194848,-0.091349],[0.194816,-0.091656],[0.194796,-0.091894],[0.194792,-0.091987],[0.194848,-0.0924],[0.194873,-0.092582],[0.194864,-0.092816],[0.194689,-0.093336],[0.194567,-0.093801],[0.194391,-0.094114],[0.194231,-0.094513],[0.193861,-0.095009],[0.193571,-0.095227],[0.193392,-0.095354],[0.193134,-0.095467],[0.192849,-0.095519],[0.192585,-0.095535],[0.192358,-0.095416],[0.192037,-0.095374],[0.191786,-0.095449],[0.191532,-0.095457],[0.191279,-0.09546],[0.190862,-0.095418],[0.190624,-0.0954],[0.190293,-0.095276],[0.189939,-0.095059],[0.189767,-0.094887]]]}},{"type":"Feature","id":46,"properties":{},"geometry":{"type":"MultiLineString","coordinates":[[[0.195167,-0.100255],[0.19502,-0.100396],[0.194875,-0.100559],[0.194658,-0.100747],[0.194474,-0.100871],[0.194209,-0.100992],[0.193752,-0.101207],[0.19355,-0.101309],[0.193259,-0.101526],[0.193062,-0.101678],[0.192882,-0.101868],[0.192752,-0.102113],[0.192657,-0.102337],[0.192605,-0.102439],[0.192524,-0.102532],[0.192359,-0.102608],[0.192175,-0.102679],[0.191707,-0.102883],[0.191325,-0.103016],[0.191181,-0.103102],[0.191063,-0.103172],[0.191066,-0.103175],[0.191228,-0.103399],[0.191431,-0.103555],[0.191503,-0.10379],[0.19157,-0.10408],[0.191581,-0.104475],[0.191706,-0.104919],[0.191881,-0.105127],[0.192035,-0.105236],[0.192154,-0.105466],[0.192246,-0.105849],[0.192237,-0.106304],[0.192397,-0.10655],[0.192423,-0.106562]]]}},{"type":"Feature","id":47,"properties":{},"geometry":{"type":"MultiLineString","coordinates":[[[0.210844,-0.07997],[0.210846,-0.080039],[0.21114,-0.080202],[0.211265,-0.080316],[0.211601,-0.080698],[0.211882,-0.081088],[0.21187,-0.081162],[0.212139,-0.081478],[0.212303,-0.081669],[0.212564,-0.081767],[0.212849,-0.0817],[0.213247,-0.081455],[0.213418,-0.081229],[0.213371,-0.080998],[0.213336,-0.080757],[0.213438,-0.080449],[0.213551,-0.08016],[0.213629,-0.079852],[0.213625,-0.079372],[0.213625,-0.079009],[0.213547,-0.078487],[0.213477,-0.078237],[0.213356,-0.078062],[0.213387,-0.077715],[0.213418,-0.077262],[0.213426,-0.076865],[0.213375,-0.076046],[0.213422,-0.075609],[0.213313,-0.075102],[0.213192,-0.074723],[0.212985,-0.074517],[0.212482,-0.073982],[0.212131,-0.073791],[0.211936,-0.073331],[0.211728,-0.073135],[0.211738,-0.073124],[0.211397,-0.072028],[0.211202,-0.071205],[0.211232,-0.070589],[0.211049,-0.070096],[0.21072,-0.06956],[0.210215,-0.069103],[0.209971,-0.068877],[0.209697,-0.068639],[0.209569,-0.068444],[0.209508,-0.068103],[0.209569,-0.067981],[0.20969,-0.067841],[0.20969,-0.067628],[0.209544,-0.067457],[0.209282,-0.067232],[0.20874,-0.066982],[0.208295,-0.06697],[0.207929,-0.066945],[0.20732,-0.067067],[0.206875,-0.067317],[0.206601,-0.067518],[0.206181,-0.067543],[0.206125,-0.067793]]]}},{"type":"Feature","id":48,"properties":{},"geometry":{"type":"MultiLineString","coordinates":[[[0.196532,-0.06511],[0.196639,-0.06527],[0.196674,-0.065259],[0.196992,-0.065787],[0.197175,-0.066522],[0.197636,-0.066954],[0.197966,-0.067631],[0.19878,-0.068765],[0.199345,-0.069795],[0.199433,-0.070615],[0.199466,-0.070998],[0.199813,-0.071687],[0.199823,-0.071647]]]}},{"type":"Feature","id":49,"properties":{},"geometry":{"type":"MultiLineString","coordinates":[[[0.187809,-0.116716],[0.187727,-0.116664],[0.187784,-0.116668],[0.187838,-0.116483],[0.187955,-0.115969],[0.187934,-0.115346],[0.187893,-0.114955],[0.187795,-0.114856],[0.187784,-0.114845],[0.187721,-0.114849],[0.187653,-0.114852],[0.187482,-0.114989],[0.187345,-0.115044],[0.187208,-0.115003],[0.18705,-0.114886],[0.186879,-0.11477],[0.18666,-0.114619],[0.186331,-0.114557],[0.186043,-0.11453],[0.185796,-0.11453],[0.184946,-0.114681],[0.184672,-0.114749],[0.184514,-0.114828]]]}},{"type":"Feature","id":50,"properties":{},"geometry":{"type":"MultiLineString","coordinates":[[[0.177735,-0.14045],[0.177629,-0.14074],[0.177513,-0.141184],[0.177354,-0.141556],[0.17723,-0.141929],[0.177168,-0.142515],[0.177097,-0.143224],[0.177088,-0.143641],[0.177176,-0.143783],[0.177372,-0.143694],[0.177895,-0.143331],[0.178285,-0.143091],[0.17872,-0.143056],[0.179181,-0.142932],[0.179465,-0.14279],[0.179749,-0.142683],[0.180131,-0.142568],[0.180486,-0.142488],[0.181015,-0.142302],[0.181018,-0.142302],[0.181709,-0.142236],[0.181879,-0.142236],[0.182163,-0.14227],[0.182606,-0.142458],[0.18285,-0.142492],[0.183072,-0.142526],[0.18331,-0.142549],[0.183628,-0.142526],[0.18406,-0.142463],[0.184327,-0.14239],[0.184548,-0.142344],[0.18498,-0.142134],[0.185246,-0.142021],[0.18553,-0.14185],[0.185769,-0.141748],[0.18653,-0.14143],[0.187069,-0.141135],[0.187228,-0.140908],[0.187342,-0.1408],[0.187552,-0.140635],[0.187688,-0.140493],[0.188065,-0.140093],[0.188314,-0.139675],[0.188458,-0.139395],[0.188595,-0.139164],[0.188611,-0.139005],[0.18866,-0.138697],[0.188663,-0.138545],[0.188666,-0.138298],[0.188732,-0.138051],[0.188863,-0.137807],[0.188968,-0.137674],[0.188935,-0.137634],[0.188969,-0.13767],[0.189099,-0.137579],[0.189297,-0.137514],[0.189504,-0.137495],[0.189823,-0.137425],[0.190195,-0.137356],[0.190411,-0.137318],[0.190757,-0.137202],[0.191062,-0.137063],[0.191251,-0.136963],[0.191397,-0.136863],[0.191611,-0.136823],[0.19189,-0.136783],[0.191781,-0.136632],[0.191483,-0.136404],[0.19113,-0.136172],[0.190892,-0.135851],[0.190664,-0.135532],[0.190418,-0.135207],[0.190257,-0.134735],[0.190237,-0.134514],[0.190334,-0.134386],[0.190409,-0.134051],[0.19036,-0.133837],[0.190302,-0.133462],[0.190241,-0.13336],[0.190174,-0.133265],[0.190055,-0.133407],[0.189625,-0.133628],[0.189048,-0.134016],[0.188399,-0.134467],[0.188122,-0.134694],[0.188125,-0.134553]]]}},{"type":"Feature","id":51,"properties":{},"geometry":{"type":"MultiLineString","coordinates":[[[0.216559,-0.156949],[0.216218,-0.15695],[0.216564,-0.15696],[0.216893,-0.157496],[0.217435,-0.158321],[0.218525,-0.159775],[0.21909,-0.160882],[0.219272,-0.161788],[0.219302,-0.16239],[0.219302,-0.163482],[0.219169,-0.164349],[0.219121,-0.165084],[0.218574,-0.165645],[0.217839,-0.166151],[0.217218,-0.166829],[0.21701,-0.167112]]]}},{"type":"Feature","id":52,"properties":{},"geometry":{"type":"MultiLineString","coordinates":[[[0.21701,-0.167112],[0.216961,-0.166524],[0.21675,-0.166335],[0.21579,-0.165671]]]}},{"type":"Feature","id":53,"properties":{},"geometry":{"type":"MultiLineString","coordinates":[[[0.204553,-0.172046],[0.204377,-0.171809],[0.20395,-0.171413],[0.203392,-0.170561],[0.202951,-0.170084],[0.202409,-0.169948],[0.2021,-0.169816],[0.201816,-0.169628],[0.201537,-0.169182],[0.201167,-0.168721],[0.200833,-0.168387],[0.200828,-0.16839],[0.200407,-0.16839],[0.199846,-0.167962],[0.199329,-0.167499],[0.199039,-0.167152],[0.198916,-0.166801],[0.198922,-0.166467],[0.199448,-0.166475],[0.199861,-0.166542],[0.200255,-0.166338],[0.200513,-0.166141],[0.20098,-0.16578],[0.201208,-0.165653],[0.201615,-0.165421],[0.201877,-0.165134],[0.202014,-0.16492],[0.202118,-0.164702],[0.202236,-0.164329],[0.202394,-0.163982],[0.202668,-0.163309],[0.202759,-0.162923],[0.202923,-0.162487],[0.203192,-0.162343],[0.20319,-0.162335],[0.203203,-0.162232]]]}},{"type":"Feature","id":54,"properties":{},"geometry":{"type":"MultiLineString","coordinates":[[[0.180633,-0.166206],[0.180644,-0.166092],[0.180992,-0.16588],[0.181148,-0.165727],[0.181238,-0.165576],[0.18125,-0.165425],[0.181262,-0.165201],[0.181406,-0.164902],[0.181605,-0.164615],[0.182219,-0.16426],[0.182376,-0.164487],[0.182633,-0.164704],[0.183033,-0.164862],[0.183046,-0.164868]]]}},{"type":"Feature","id":55,"properties":{},"geometry":{"type":"MultiLineString","coordinates":[[[0.187867,-0.164034],[0.187866,-0.164023],[0.18833,-0.163806],[0.188829,-0.163307],[0.188833,-0.163302],[0.188832,-0.163299]]]}},{"type":"Feature","id":56,"properties":{},"geometry":{"type":"MultiLineString","coordinates":[[[0.117505,-0.216007],[0.117507,-0.216157],[0.117471,-0.216383],[0.117457,-0.216778],[0.117522,-0.217019],[0.117683,-0.217238],[0.117744,-0.217472],[0.11777,-0.217773],[0.117845,-0.217949],[0.117931,-0.218079],[0.117946,-0.21833],[0.117924,-0.218495],[0.117877,-0.218779],[0.117877,-0.219145],[0.117946,-0.21958],[0.118046,-0.219893],[0.118201,-0.220237],[0.118525,-0.220909],[0.11884,-0.221572],[0.118952,-0.221847],[0.119244,-0.222587],[0.119569,-0.223194],[0.119934,-0.223615],[0.12045,-0.224013],[0.120911,-0.22435],[0.121348,-0.224574],[0.121781,-0.224771],[0.122213,-0.224765],[0.122499,-0.224849],[0.122987,-0.225046],[0.12361,-0.225062],[0.12407,-0.225203],[0.124519,-0.225214],[0.124772,-0.225046],[0.125339,-0.224978],[0.125799,-0.224849],[0.125979,-0.224838],[0.126618,-0.224838],[0.127045,-0.224799],[0.1276,-0.224608],[0.127489,-0.224449],[0.127632,-0.224641],[0.128002,-0.224709],[0.128132,-0.224754]]]}},{"type":"Feature","id":57,"properties":{},"geometry":{"type":"MultiLineString","coordinates":[[[0.178621,-0.246008],[0.178638,-0.245989],[0.178734,-0.24586],[0.17915,-0.245976],[0.179957,-0.245812],[0.180345,-0.245707],[0.180928,-0.24514],[0.181182,-0.244453],[0.181211,-0.243989],[0.181197,-0.243497],[0.181122,-0.243004],[0.180838,-0.242361],[0.180509,-0.241689],[0.180569,-0.241271],[0.180659,-0.240644],[0.180524,-0.240076],[0.180405,-0.239434],[0.180031,-0.238956],[0.179748,-0.238508],[0.179554,-0.237925],[0.179434,-0.237417],[0.179568,-0.236925],[0.179539,-0.236058],[0.179464,-0.235476],[0.179404,-0.234998],[0.179718,-0.23413],[0.179919,-0.233604],[0.180358,-0.232782],[0.180569,-0.232179],[0.180693,-0.231539],[0.180569,-0.230879],[0.180349,-0.230201],[0.180263,-0.229732],[0.18036,-0.229353],[0.180268,-0.228337],[0.17984,-0.227267],[0.179277,-0.226612],[0.178905,-0.226117],[0.178904,-0.226114]]]}},{"type":"Feature","id":58,"properties":{},"geometry":{"type":"MultiLineString","coordinates":[[[0.171982,-0.235019],[0.171975,-0.23501],[0.17187,-0.23489],[0.17163,-0.23472],[0.171495,-0.234614],[0.171415,-0.234549],[0.171335,-0.234454],[0.17131,-0.234414],[0.1713,-0.234284],[0.17125,-0.234239],[0.17117,-0.234224],[0.17109,-0.234224],[0.171045,-0.234149],[0.171009,-0.234049],[0.170974,-0.233944],[0.170944,-0.233879],[0.170909,-0.233809],[0.170864,-0.233709],[0.170854,-0.233664],[0.170849,-0.233589],[0.170889,-0.233513],[0.170919,-0.233478],[0.170754,-0.233423],[0.170519,-0.233438],[0.170144,-0.233508],[0.169693,-0.233584],[0.169438,-0.233659],[0.168973,-0.233764],[0.168582,-0.234084],[0.168372,-0.234344],[0.168069,-0.234578],[0.167763,-0.234883],[0.167646,-0.235026],[0.167478,-0.235178],[0.167163,-0.235311],[0.166997,-0.235399],[0.166896,-0.235498],[0.166826,-0.235496],[0.166802,-0.235559],[0.166691,-0.23558],[0.166396,-0.235547],[0.166332,-0.235574],[0.16623,-0.235506],[0.166189,-0.235463],[0.166097,-0.235406],[0.165951,-0.235348],[0.165918,-0.23532],[0.165855,-0.235301],[0.165763,-0.235305],[0.165771,-0.23533],[0.165709,-0.235365],[0.165638,-0.235369],[0.165578,-0.235326],[0.165494,-0.235283],[0.165318,-0.235268],[0.165093,-0.235264],[0.164847,-0.235294],[0.164643,-0.235346],[0.164482,-0.235363],[0.164481,-0.235363],[0.164266,-0.235289],[0.164055,-0.235346],[0.163639,-0.235629],[0.163473,-0.235781],[0.163215,-0.23599],[0.162868,-0.236295],[0.162417,-0.236695],[0.161801,-0.237262],[0.161491,-0.237502],[0.160725,-0.237917],[0.159955,-0.238243],[0.159579,-0.238628],[0.159084,-0.239484],[0.158839,-0.240009],[0.158729,-0.240424],[0.158779,-0.24075],[0.158774,-0.2412],[0.158774,-0.242066],[0.158839,-0.242586],[0.159024,-0.243227],[0.159209,-0.243682],[0.159489,-0.244133],[0.15978,-0.244468],[0.16028,-0.244883],[0.1606,-0.245053],[0.161081,-0.245394],[0.161386,-0.245529],[0.161591,-0.245594],[0.161703,-0.24563],[0.16169,-0.245627],[0.161736,-0.245746]]]}}]}