{"type":"FeatureCollection","features":[{"type":"Feature","properties":{"k":"region","t":"Brand","a":2687049},"geometry":{"type":"Point","coordinates":[0.15171,-0.168535]}},{"type":"Feature","properties":{"k":"region","t":"Bylong Isle","a":7390989},"geometry":{"type":"Point","coordinates":[0.152297,-0.043465]}},{"type":"Feature","properties":{"k":"region","t":"Coast of Horrors","a":2807626},"geometry":{"type":"Point","coordinates":[0.049456,-0.131489]}},{"type":"Feature","properties":{"k":"region","t":"Demilamp","a":46564},"geometry":{"type":"Point","coordinates":[0.072686,-0.165662]}},{"type":"Feature","properties":{"k":"region","t":"Ebon Isle","a":1052162},"geometry":{"type":"Point","coordinates":[0.200956,-0.08862]}},{"type":"Feature","properties":{"k":"region","t":"Fang","a":2985899},"geometry":{"type":"Point","coordinates":[0.196101,-0.10883]}},{"type":"Feature","properties":{"k":"region","t":"Freemen's Isles","a":500018},"geometry":{"type":"Point","coordinates":[0.169321,-0.15973]}},{"type":"Feature","properties":{"k":"region","t":"Glittering Isles","a":277176},"geometry":{"type":"Point","coordinates":[0.14542,-0.147801]}},{"type":"Feature","properties":{"k":"region","t":"Greybrook","a":437247},"geometry":{"type":"Point","coordinates":[0.061927,-0.206797]}},{"type":"Feature","properties":{"k":"region","t":"Hammerhead","a":3574269},"geometry":{"type":"Point","coordinates":[0.171163,-0.240365]}},{"type":"Feature","properties":{"k":"region","t":"Isle of Drought","a":937747},"geometry":{"type":"Point","coordinates":[0.189269,-0.09233]}},{"type":"Feature","properties":{"k":"region","t":"Isle of Hope","a":899368},"geometry":{"type":"Point","coordinates":[0.185159,-0.163375]}},{"type":"Feature","properties":{"k":"region","t":"Isle of Spiders","a":747118},"geometry":{"type":"Point","coordinates":[0.029683,-0.058011]}},{"type":"Feature","properties":{"k":"region","t":"Makepeace","a":273554},"geometry":{"type":"Point","coordinates":[0.159414,-0.119527]}},{"type":"Feature","properties":{"k":"region","t":"Mountains of Night","a":572455},"geometry":{"type":"Point","coordinates":[0.195941,-0.069626]}},{"type":"Feature","properties":{"k":"region","t":"Silent Isles","a":315988},"geometry":{"type":"Point","coordinates":[0.187006,-0.193851]}},{"type":"Feature","properties":{"k":"region","t":"Southern Isles","a":1398509},"geometry":{"type":"Point","coordinates":[0.248678,-0.237863]}},{"type":"Feature","properties":{"k":"region","t":"Steppes of Dusk","a":4495994},"geometry":{"type":"Point","coordinates":[0.061024,-0.11418]}},{"type":"Feature","properties":{"k":"region","t":"Tanglewood","a":15817181},"geometry":{"type":"Point","coordinates":[0.070063,-0.238871]}},{"type":"Feature","properties":{"k":"region","t":"The Barb","a":1273929},"geometry":{"type":"Point","coordinates":[0.070822,-0.184663]}},{"type":"Feature","properties":{"k":"region","t":"The Barrier Mountains","a":4736918},"geometry":{"type":"Point","coordinates":[0.077555,-0.072124]}},{"type":"Feature","properties":{"k":"region","t":"The Black Fume","a":1566983},"geometry":{"type":"Point","coordinates":[0.185523,-0.115591]}},{"type":"Feature","properties":{"k":"region","t":"The Blessed Isles","a":907581},"geometry":{"type":"Point","coordinates":[0.132381,-0.104351]}},{"type":"Feature","properties":{"k":"region","t":"The Blue Coast and Bay of Shadows","a":1858038},"geometry":{"type":"Point","coordinates":[0.105961,-0.102539]}},{"type":"Feature","properties":{"k":"region","t":"The Blue Isle","a":591461},"geometry":{"type":"Point","coordinates":[0.178422,-0.065252]}},{"type":"Feature","properties":{"k":"region","t":"The Blue Mountains Coast","a":4023295},"geometry":{"type":"Point","coordinates":[0.120895,-0.076328]}},{"type":"Feature","properties":{"k":"region","t":"The Dragon's Jaws","a":1316123},"geometry":{"type":"Point","coordinates":[0.051619,-0.138573]}},{"type":"Feature","properties":{"k":"region","t":"The Evenmounts","a":687396},"geometry":{"type":"Point","coordinates":[0.160864,-0.066799]}},{"type":"Feature","properties":{"k":"region","t":"The Eyeteeth","a":2139383},"geometry":{"type":"Point","coordinates":[0.056637,-0.144943]}},{"type":"Feature","properties":{"k":"region","t":"The Farmer's Isle","a":825818},"geometry":{"type":"Point","coordinates":[0.201186,-0.063504]}},{"type":"Feature","properties":{"k":"region","t":"The Flail","a":1123140},"geometry":{"type":"Point","coordinates":[0.154093,-0.217939]}},{"type":"Feature","properties":{"k":"region","t":"The Founders' Isles","a":484725},"geometry":{"type":"Point","coordinates":[0.195674,-0.169017]}},{"type":"Feature","properties":{"k":"region","t":"The Gloaming Cold","a":7188912},"geometry":{"type":"Point","coordinates":[0.06846,-0.058505]}},{"type":"Feature","properties":{"k":"region","t":"The Golden Cape","a":8072743},"geometry":{"type":"Point","coordinates":[0.121391,-0.137319]}},{"type":"Feature","properties":{"k":"region","t":"The Guard","a":374571},"geometry":{"type":"Point","coordinates":[0.030305,-0.117305]}},{"type":"Feature","properties":{"k":"region","t":"The Heartland","a":10095696},"geometry":{"type":"Point","coordinates":[0.089911,-0.108176]}},{"type":"Feature","properties":{"k":"region","t":"The Isle of Idols","a":1466193},"geometry":{"type":"Point","coordinates":[0.203025,-0.131143]}},{"type":"Feature","properties":{"k":"region","t":"The Isle of Spite","a":660697},"geometry":{"type":"Point","coordinates":[0.021476,-0.090571]}},{"type":"Feature","properties":{"k":"region","t":"The Lands of Plenty","a":3678306},"geometry":{"type":"Point","coordinates":[0.084286,-0.085648]}},{"type":"Feature","properties":{"k":"region","t":"The Long Vally","a":7169405},"geometry":{"type":"Point","coordinates":[0.143913,-0.069312]}},{"type":"Feature","properties":{"k":"region","t":"The Mountains of Dawn","a":968330},"geometry":{"type":"Point","coordinates":[0.110208,-0.062785]}},{"type":"Feature","properties":{"k":"region","t":"The Mountains of Morn","a":781254},"geometry":{"type":"Point","coordinates":[0.140938,-0.064092]}},{"type":"Feature","properties":{"k":"region","t":"The Nightlands","a":4432346},"geometry":{"type":"Point","coordinates":[0.186542,-0.078279]}},{"type":"Feature","properties":{"k":"region","t":"The Rainlands","a":21014884},"geometry":{"type":"Point","coordinates":[0.097355,-0.152331]}},{"type":"Feature","properties":{"k":"region","t":"The Rainwood","a":3632083},"geometry":{"type":"Point","coordinates":[0.106319,-0.123044]}},{"type":"Feature","properties":{"k":"region","t":"The Redwood Isle","a":1876769},"geometry":{"type":"Point","coordinates":[0.184858,-0.135052]}},{"type":"Feature","properties":{"k":"region","t":"The Shadowed Isles","a":271657},"geometry":{"type":"Point","coordinates":[0.041129,-0.061197]}},{"type":"Feature","properties":{"k":"region","t":"The Shield","a":1216180},"geometry":{"type":"Point","coordinates":[0.208253,-0.073283]}},{"type":"Feature","properties":{"k":"region","t":"The Sisters","a":8980031},"geometry":{"type":"Point","coordinates":[0.123838,-0.188935]}},{"type":"Feature","properties":{"k":"region","t":"The Springlands","a":5977278},"geometry":{"type":"Point","coordinates":[0.098009,-0.073187]}},{"type":"Feature","properties":{"k":"region","t":"The Sword Isles","a":764185},"geometry":{"type":"Point","coordinates":[0.035543,-0.090664]}},{"type":"Feature","properties":{"k":"region","t":"The Three","a":119241},"geometry":{"type":"Point","coordinates":[0.084653,-0.198508]}},{"type":"Feature","properties":{"k":"region","t":"The Watching Peaks","a":4830153},"geometry":{"type":"Point","coordinates":[0.212071,-0.156731]}},{"type":"Feature","properties":{"k":"region","t":"The Western Passage","a":2048577},"geometry":{"type":"Point","coordinates":[0.072595,-0.098132]}},{"type":"Feature","properties":{"k":"region","t":"The White Cape","a":3279089},"geometry":{"type":"Point","coordinates":[0.064111,-0.132833]}},{"type":"Feature","properties":{"k":"region","t":"The White Peaks","a":1135192},"geometry":{"type":"Point","coordinates":[0.056204,-0.123424]}},{"type":"Feature","properties":{"k":"region","t":"The Wild Vastness","a":6785962},"geometry":{"type":"Point","coordinates":[0.058113,-0.074536]}},{"type":"Feature","properties":{"k":"region","t":"The Winterlands","a":6453782},"geometry":{"type":"Point","coordinates":[0.102335,-0.047719]}},{"type":"Feature","properties":{"k":"territory","t":"Giantfall","a":290804},"geometry":{"type":"Point","coordinates":[0.04064,-0.142336]}},{"type":"Feature","properties":{"k":"territory","t":"Spitting Marsh","a":595187},"geometry":{"type":"Point","coordinates":[0.045371,-0.143887]}},{"type":"Feature","properties":{"k":"territory","t":"False Light","a":1398509},"geometry":{"type":"Point","coordinates":[0.248678,-0.237863]}},{"type":"Feature","properties":{"k":"territory","t":"Sentry","a":178395},"geometry":{"type":"Point","coordinates":[0.110916,-0.184863]}},{"type":"Feature","properties":{"k":"territory","t":"Eighty Streams","a":620914},"geometry":{"type":"Point","coordinates":[0.115013,-0.179369]}},{"type":"Feature","properties":{"k":"territory","t":"Leaving Lands","a":662896},"geometry":{"type":"Point","coordinates":[0.109673,-0.178357]}},{"type":"Feature","properties":{"k":"territory","t":"Coast of Mud","a":793193},"geometry":{"type":"Point","coordinates":[0.102356,-0.174522]}},{"type":"Feature","properties":{"k":"territory","t":"Southern Pouring Coast","a":955724},"geometry":{"type":"Point","coordinates":[0.092286,-0.166473]}},{"type":"Feature","properties":{"k":"territory","t":"South Rainland Coast","a":1243014},"geometry":{"type":"Point","coordinates":[0.112421,-0.165141]}},{"type":"Feature","properties":{"k":"territory","t":"Pouring Coast","a":960804},"geometry":{"type":"Point","coordinates":[0.083062,-0.156564]}},{"type":"Feature","properties":{"k":"territory","t":"Fruitful Vale","a":1761236},"geometry":{"type":"Point","coordinates":[0.105489,-0.149983]}},{"type":"Feature","properties":{"k":"territory","t":"Southern Rainlands","a":3489858},"geometry":{"type":"Point","coordinates":[0.100635,-0.162691]}},{"type":"Feature","properties":{"k":"territory","t":"Northern Pouring Coast","a":711833},"geometry":{"type":"Point","coordinates":[0.077772,-0.145872]}},{"type":"Feature","properties":{"k":"territory","t":"Bay of Clouds","a":405243},"geometry":{"type":"Point","coordinates":[0.083021,-0.136877]}},{"type":"Feature","properties":{"k":"territory","t":"North Rainland Coast","a":822188},"geometry":{"type":"Point","coordinates":[0.078277,-0.127616]}},{"type":"Feature","properties":{"k":"territory","t":"Mountains of Summer","a":674859},"geometry":{"type":"Point","coordinates":[0.078001,-0.115043]}},{"type":"Feature","properties":{"k":"territory","t":"West Summerlands","a":1124187},"geometry":{"type":"Point","coordinates":[0.079054,-0.10508]}},{"type":"Feature","properties":{"k":"territory","t":"Harper's Gap","a":495167},"geometry":{"type":"Point","coordinates":[0.070274,-0.105046]}},{"type":"Feature","properties":{"k":"territory","t":"Bay of Dusk","a":791721},"geometry":{"type":"Point","coordinates":[0.068605,-0.112013]}},{"type":"Feature","properties":{"k":"territory","t":"Coast of Dusk","a":273228},"geometry":{"type":"Point","coordinates":[0.070733,-0.121507]}},{"type":"Feature","properties":{"k":"territory","t":"Vale of Bones","a":997579},"geometry":{"type":"Point","coordinates":[0.063627,-0.12666]}},{"type":"Feature","properties":{"k":"territory","t":"Vale of Worms","a":590713},"geometry":{"type":"Point","coordinates":[0.057342,-0.132963]}},{"type":"Feature","properties":{"k":"territory","t":"Skyscraper","a":171642},"geometry":{"type":"Point","coordinates":[0.054093,-0.135667]}},{"type":"Feature","properties":{"k":"territory","t":"Bitten Vale","a":594271},"geometry":{"type":"Point","coordinates":[0.048784,-0.139107]}},{"type":"Feature","properties":{"k":"territory","t":"Forest of Bones","a":517693},"geometry":{"type":"Point","coordinates":[0.064824,-0.134431]}},{"type":"Feature","properties":{"k":"territory","t":"Snowcape","a":141954},"geometry":{"type":"Point","coordinates":[0.069424,-0.138189]}},{"type":"Feature","properties":{"k":"territory","t":"Coast of Sleet","a":426861},"geometry":{"type":"Point","coordinates":[0.069878,-0.130511]}},{"type":"Feature","properties":{"k":"territory","t":"Hailcape","a":604292},"geometry":{"type":"Point","coordinates":[0.065595,-0.141908]}},{"type":"Feature","properties":{"k":"territory","t":"Latespring","a":1079472},"geometry":{"type":"Point","coordinates":[0.064245,-0.118374]}},{"type":"Feature","properties":{"k":"territory","t":"Fruitful Coast","a":1001341},"geometry":{"type":"Point","coordinates":[0.112706,-0.152886]}},{"type":"Feature","properties":{"k":"territory","t":"Bank of Green","a":858995},"geometry":{"type":"Point","coordinates":[0.10918,-0.140701]}},{"type":"Feature","properties":{"k":"territory","t":"Bank of Gold","a":772007},"geometry":{"type":"Point","coordinates":[0.111956,-0.136951]}},{"type":"Feature","properties":{"k":"territory","t":"Boiling Marsh","a":694143},"geometry":{"type":"Point","coordinates":[0.111467,-0.130989]}},{"type":"Feature","properties":{"k":"territory","t":"Stonefall","a":148764},"geometry":{"type":"Point","coordinates":[0.0596,-0.124993]}},{"type":"Feature","properties":{"k":"territory","t":"Serpenttooth","a":191762},"geometry":{"type":"Point","coordinates":[0.057334,-0.127033]}},{"type":"Feature","properties":{"k":"territory","t":"Vale of Orcs","a":126540},"geometry":{"type":"Point","coordinates":[0.05607,-0.123803]}},{"type":"Feature","properties":{"k":"territory","t":"The Crook","a":135634},"geometry":{"type":"Point","coordinates":[0.057097,-0.119493]}},{"type":"Feature","properties":{"k":"territory","t":"White Peaks South","a":159671},"geometry":{"type":"Point","coordinates":[0.053645,-0.127754]}},{"type":"Feature","properties":{"k":"territory","t":"Cloudgutter","a":163861},"geometry":{"type":"Point","coordinates":[0.053295,-0.123979]}},{"type":"Feature","properties":{"k":"territory","t":"Blood Peak","a":97486},"geometry":{"type":"Point","coordinates":[0.054035,-0.120875]}},{"type":"Feature","properties":{"k":"territory","t":"Central Rainlands","a":4235096},"geometry":{"type":"Point","coordinates":[0.091799,-0.144761]}},{"type":"Feature","properties":{"k":"territory","t":"River Coast North","a":640349},"geometry":{"type":"Point","coordinates":[0.120619,-0.146306]}},{"type":"Feature","properties":{"k":"territory","t":"River Coast South","a":548397},"geometry":{"type":"Point","coordinates":[0.127321,-0.154418]}},{"type":"Feature","properties":{"k":"territory","t":"Golden Point","a":231728},"geometry":{"type":"Point","coordinates":[0.134227,-0.159123]}},{"type":"Feature","properties":{"k":"territory","t":"5th Candle Tower","a":686258},"geometry":{"type":"Point","coordinates":[0.124954,-0.145065]}},{"type":"Feature","properties":{"k":"territory","t":"Southport","a":59650},"geometry":{"type":"Point","coordinates":[0.140222,-0.157147]}},{"type":"Feature","properties":{"k":"territory","t":"Southern Coast of Gold","a":517891},"geometry":{"type":"Point","coordinates":[0.131042,-0.15021]}},{"type":"Feature","properties":{"k":"territory","t":"Coast of Gold","a":626606},"geometry":{"type":"Point","coordinates":[0.128417,-0.140535]}},{"type":"Feature","properties":{"k":"territory","t":"Northern Coast of Gold","a":624156},"geometry":{"type":"Point","coordinates":[0.126609,-0.1302]}},{"type":"Feature","properties":{"k":"territory","t":"Rainwood Coast","a":649711},"geometry":{"type":"Point","coordinates":[0.122751,-0.118856]}},{"type":"Feature","properties":{"k":"territory","t":"Brooklands","a":2731242},"geometry":{"type":"Point","coordinates":[0.118953,-0.128141]}},{"type":"Feature","properties":{"k":"territory","t":"Eastern Rainwood","a":759034},"geometry":{"type":"Point","coordinates":[0.105581,-0.127401]}},{"type":"Feature","properties":{"k":"territory","t":"Northern Rainlands","a":2314156},"geometry":{"type":"Point","coordinates":[0.089575,-0.1306]}},{"type":"Feature","properties":{"k":"territory","t":"Southern Rainwood","a":536141},"geometry":{"type":"Point","coordinates":[0.097523,-0.128195]}},{"type":"Feature","properties":{"k":"territory","t":"Western Rainwood","a":825003},"geometry":{"type":"Point","coordinates":[0.097087,-0.122784]}},{"type":"Feature","properties":{"k":"territory","t":"Northern Rainwood","a":451472},"geometry":{"type":"Point","coordinates":[0.106437,-0.120402]}},{"type":"Feature","properties":{"k":"territory","t":"Shadowmount South","a":108104},"geometry":{"type":"Point","coordinates":[0.112307,-0.114092]}},{"type":"Feature","properties":{"k":"territory","t":"Bay of Shadows","a":75793},"geometry":{"type":"Point","coordinates":[0.111598,-0.112274]}},{"type":"Feature","properties":{"k":"territory","t":"Shadowmount West","a":168286},"geometry":{"type":"Point","coordinates":[0.10761,-0.115157]}},{"type":"Feature","properties":{"k":"territory","t":"Pass of Shadows","a":119741},"geometry":{"type":"Point","coordinates":[0.1069,-0.112639]}},{"type":"Feature","properties":{"k":"territory","t":"Maze of Green","a":708493},"geometry":{"type":"Point","coordinates":[0.092508,-0.117348]}},{"type":"Feature","properties":{"k":"territory","t":"Summerwood","a":541789},"geometry":{"type":"Point","coordinates":[0.101802,-0.117061]}},{"type":"Feature","properties":{"k":"territory","t":"Middle Vale","a":1403085},"geometry":{"type":"Point","coordinates":[0.084013,-0.117577]}},{"type":"Feature","properties":{"k":"territory","t":"Shadowmount North","a":158241},"geometry":{"type":"Point","coordinates":[0.108304,-0.110162]}},{"type":"Feature","properties":{"k":"territory","t":"South Summerland","a":614472},"geometry":{"type":"Point","coordinates":[0.09921,-0.11224]}},{"type":"Feature","properties":{"k":"territory","t":"Southern Land of Reeds","a":821293},"geometry":{"type":"Point","coordinates":[0.091028,-0.11022]}},{"type":"Feature","properties":{"k":"territory","t":"Southern Blue Coast","a":582632},"geometry":{"type":"Point","coordinates":[0.108538,-0.104201]}},{"type":"Feature","properties":{"k":"territory","t":"North Summerlands","a":1082960},"geometry":{"type":"Point","coordinates":[0.099336,-0.098705]}},{"type":"Feature","properties":{"k":"territory","t":"Land of Reeds","a":1175382},"geometry":{"type":"Point","coordinates":[0.090594,-0.102778]}},{"type":"Feature","properties":{"k":"territory","t":"1st Candle Tower","a":840523},"geometry":{"type":"Point","coordinates":[0.101538,-0.106612]}},{"type":"Feature","properties":{"k":"territory","t":"Stonehook","a":214437},"geometry":{"type":"Point","coordinates":[0.206306,-0.062219]}},{"type":"Feature","properties":{"k":"territory","t":"Frozen Point","a":170328},"geometry":{"type":"Point","coordinates":[0.048361,-0.049189]}},{"type":"Feature","properties":{"k":"territory","t":"Black Redoubt","a":93305},"geometry":{"type":"Point","coordinates":[0.216033,-0.168685]}},{"type":"Feature","properties":{"k":"territory","t":"Makepeace","a":273554},"geometry":{"type":"Point","coordinates":[0.159414,-0.119527]}},{"type":"Feature","properties":{"k":"territory","t":"Blue Coast","a":645330},"geometry":{"type":"Point","coordinates":[0.100731,-0.090927]}},{"type":"Feature","properties":{"k":"territory","t":"The Second Candle Tower","a":457651},"geometry":{"type":"Point","coordinates":[0.152123,-0.041969]}},{"type":"Feature","properties":{"k":"territory","t":"Bylong Prefecture","a":6933339},"geometry":{"type":"Point","coordinates":[0.162943,-0.044614]}},{"type":"Feature","properties":{"k":"territory","t":"East Watching Peaks","a":203900},"geometry":{"type":"Point","coordinates":[0.217692,-0.161873]}},{"type":"Feature","properties":{"k":"territory","t":"Watching Peaks Crossing","a":126896},"geometry":{"type":"Point","coordinates":[0.214704,-0.153917]}},{"type":"Feature","properties":{"k":"territory","t":"Coast of Miracles","a":184810},"geometry":{"type":"Point","coordinates":[0.211504,-0.157101]}},{"type":"Feature","properties":{"k":"territory","t":"Ashlen Coast","a":247254},"geometry":{"type":"Point","coordinates":[0.211331,-0.148356]}},{"type":"Feature","properties":{"k":"territory","t":"Fields of Grey","a":865016},"geometry":{"type":"Point","coordinates":[0.215445,-0.14541]}},{"type":"Feature","properties":{"k":"territory","t":"Ashfall Vally","a":1109364},"geometry":{"type":"Point","coordinates":[0.211078,-0.162007]}},{"type":"Feature","properties":{"k":"territory","t":"Idolbridge South","a":90745},"geometry":{"type":"Point","coordinates":[0.210387,-0.143153]}},{"type":"Feature","properties":{"k":"territory","t":"Idolbridge","a":56234},"geometry":{"type":"Point","coordinates":[0.208725,-0.139157]}},{"type":"Feature","properties":{"k":"territory","t":"Landking","a":287266},"geometry":{"type":"Point","coordinates":[0.212954,-0.138372]}},{"type":"Feature","properties":{"k":"territory","t":"North Watching Peaks","a":321827},"geometry":{"type":"Point","coordinates":[0.218364,-0.139774]}},{"type":"Feature","properties":{"k":"territory","t":"Captor's Coast","a":204285},"geometry":{"type":"Point","coordinates":[0.196005,-0.169855]}},{"type":"Feature","properties":{"k":"territory","t":"Brass Piece","a":19727},"geometry":{"type":"Point","coordinates":[0.194522,-0.165403]}},{"type":"Feature","properties":{"k":"territory","t":"Captor's Forest","a":69209},"geometry":{"type":"Point","coordinates":[0.194671,-0.168467]}},{"type":"Feature","properties":{"k":"territory","t":"Lurker's Wood","a":164044},"geometry":{"type":"Point","coordinates":[0.211927,-0.167327]}},{"type":"Feature","properties":{"k":"territory","t":"Watching Expanse","a":566719},"geometry":{"type":"Point","coordinates":[0.210069,-0.171448]}},{"type":"Feature","properties":{"k":"territory","t":"South Watching Peaks","a":125770},"geometry":{"type":"Point","coordinates":[0.203559,-0.169676]}},{"type":"Feature","properties":{"k":"territory","t":"West Watching Peaks","a":152976},"geometry":{"type":"Point","coordinates":[0.201841,-0.166055]}},{"type":"Feature","properties":{"k":"territory","t":"Bleakwood","a":290364},"geometry":{"type":"Point","coordinates":[0.206175,-0.166935]}},{"type":"Feature","properties":{"k":"territory","t":"The Wanderer","a":33654},"geometry":{"type":"Point","coordinates":[0.171791,-0.230479]}},{"type":"Feature","properties":{"k":"territory","t":"Adrift of Light","a":102230},"geometry":{"type":"Point","coordinates":[0.164532,-0.232451]}},{"type":"Feature","properties":{"k":"territory","t":"Drifter's Head","a":187163},"geometry":{"type":"Point","coordinates":[0.172068,-0.238168]}},{"type":"Feature","properties":{"k":"territory","t":"The Bones","a":624972},"geometry":{"type":"Point","coordinates":[0.17886,-0.237998]}},{"type":"Feature","properties":{"k":"territory","t":"Shallow Coast","a":366353},"geometry":{"type":"Point","coordinates":[0.175275,-0.236242]}},{"type":"Feature","properties":{"k":"territory","t":"Driftwood","a":432172},"geometry":{"type":"Point","coordinates":[0.174469,-0.245755]}},{"type":"Feature","properties":{"k":"territory","t":"Hammerhead Mountains","a":258184},"geometry":{"type":"Point","coordinates":[0.168418,-0.23598]}},{"type":"Feature","properties":{"k":"territory","t":"Old Man","a":233944},"geometry":{"type":"Point","coordinates":[0.165831,-0.243174]}},{"type":"Feature","properties":{"k":"territory","t":"Clanwood","a":627054},"geometry":{"type":"Point","coordinates":[0.170769,-0.241065]}},{"type":"Feature","properties":{"k":"territory","t":"Orcwood","a":388244},"geometry":{"type":"Point","coordinates":[0.166598,-0.246405]}},{"type":"Feature","properties":{"k":"territory","t":"Hammerhead Mountains West","a":463769},"geometry":{"type":"Point","coordinates":[0.161849,-0.240319]}},{"type":"Feature","properties":{"k":"territory","t":"Arch of the Sun","a":112418},"geometry":{"type":"Point","coordinates":[0.150138,-0.073417]}},{"type":"Feature","properties":{"k":"territory","t":"Rager","a":28018},"geometry":{"type":"Point","coordinates":[0.160342,-0.230297]}},{"type":"Feature","properties":{"k":"territory","t":"Ship Bane","a":16256},"geometry":{"type":"Point","coordinates":[0.158296,-0.230815]}},{"type":"Feature","properties":{"k":"territory","t":"Last Glimpse","a":43929},"geometry":{"type":"Point","coordinates":[0.157895,-0.236605]}},{"type":"Feature","properties":{"k":"territory","t":"Killer's Haven","a":76616},"geometry":{"type":"Point","coordinates":[0.15998,-0.233975]}},{"type":"Feature","properties":{"k":"territory","t":"Springwater Isle","a":75661},"geometry":{"type":"Point","coordinates":[0.156223,-0.231453]}},{"type":"Feature","properties":{"k":"territory","t":"Shoal Deemed","a":57249},"geometry":{"type":"Point","coordinates":[0.158459,-0.227817]}},{"type":"Feature","properties":{"k":"territory","t":"Reaper","a":16379},"geometry":{"type":"Point","coordinates":[0.155908,-0.22853]}},{"type":"Feature","properties":{"k":"territory","t":"Eel Harvest","a":52048},"geometry":{"type":"Point","coordinates":[0.155947,-0.224398]}},{"type":"Feature","properties":{"k":"territory","t":"Younger Twin","a":57702},"geometry":{"type":"Point","coordinates":[0.14549,-0.207591]}},{"type":"Feature","properties":{"k":"territory","t":"Calmwater","a":51674},"geometry":{"type":"Point","coordinates":[0.148266,-0.209516]}},{"type":"Feature","properties":{"k":"territory","t":"Long Crossing South","a":215492},"geometry":{"type":"Point","coordinates":[0.138498,-0.204274]}},{"type":"Feature","properties":{"k":"territory","t":"Youngest","a":554952},"geometry":{"type":"Point","coordinates":[0.140349,-0.210276]}},{"type":"Feature","properties":{"k":"territory","t":"Elder Twin","a":50600},"geometry":{"type":"Point","coordinates":[0.147739,-0.205779]}},{"type":"Feature","properties":{"k":"territory","t":"Sorrowful","a":41005},"geometry":{"type":"Point","coordinates":[0.154021,-0.227257]}},{"type":"Feature","properties":{"k":"territory","t":"Widowmaker","a":11239},"geometry":{"type":"Point","coordinates":[0.153969,-0.221977]}},{"type":"Feature","properties":{"k":"territory","t":"Sickle","a":45242},"geometry":{"type":"Point","coordinates":[0.150626,-0.217789]}},{"type":"Feature","properties":{"k":"territory","t":"Fogveil","a":72555},"geometry":{"type":"Point","coordinates":[0.151651,-0.222131]}},{"type":"Feature","properties":{"k":"territory","t":"Lost Bearing","a":37387},"geometry":{"type":"Point","coordinates":[0.151688,-0.215025]}},{"type":"Feature","properties":{"k":"territory","t":"Kneecap","a":39320},"geometry":{"type":"Point","coordinates":[0.14824,-0.213565]}},{"type":"Feature","properties":{"k":"territory","t":"Seedfall","a":22490},"geometry":{"type":"Point","coordinates":[0.153702,-0.210742]}},{"type":"Feature","properties":{"k":"territory","t":"The Bully","a":121057},"geometry":{"type":"Point","coordinates":[0.154099,-0.218319]}},{"type":"Feature","properties":{"k":"territory","t":"Noble's Passage","a":70826},"geometry":{"type":"Point","coordinates":[0.146823,-0.229279]}},{"type":"Feature","properties":{"k":"territory","t":"Fairwood","a":226892},"geometry":{"type":"Point","coordinates":[0.102875,-0.207457]}},{"type":"Feature","properties":{"k":"territory","t":"Truest","a":784266},"geometry":{"type":"Point","coordinates":[0.114611,-0.210121]}},{"type":"Feature","properties":{"k":"territory","t":"Silent Crossing","a":79541},"geometry":{"type":"Point","coordinates":[0.119656,-0.208667]}},{"type":"Feature","properties":{"k":"territory","t":"Cradled Bay","a":170066},"geometry":{"type":"Point","coordinates":[0.11793,-0.20427]}},{"type":"Feature","properties":{"k":"territory","t":"Fairest","a":1532629},"geometry":{"type":"Point","coordinates":[0.106759,-0.203057]}},{"type":"Feature","properties":{"k":"territory","t":"Eldest","a":1487538},"geometry":{"type":"Point","coordinates":[0.128297,-0.207481]}},{"type":"Feature","properties":{"k":"territory","t":"Long Crossing North","a":256531},"geometry":{"type":"Point","coordinates":[0.132842,-0.196401]}},{"type":"Feature","properties":{"k":"territory","t":"Kindest","a":1456374},"geometry":{"type":"Point","coordinates":[0.125447,-0.189022]}},{"type":"Feature","properties":{"k":"territory","t":"Lovely Crossing","a":175370},"geometry":{"type":"Point","coordinates":[0.118855,-0.200671]}},{"type":"Feature","properties":{"k":"territory","t":"Kindwood","a":586261},"geometry":{"type":"Point","coordinates":[0.119457,-0.192638]}},{"type":"Feature","properties":{"k":"territory","t":"Fair Warden","a":63125},"geometry":{"type":"Point","coordinates":[0.148519,-0.071067]}},{"type":"Feature","properties":{"k":"territory","t":"Cruel Warden","a":105982},"geometry":{"type":"Point","coordinates":[0.152227,-0.070777]}},{"type":"Feature","properties":{"k":"territory","t":"Spur","a":59216},"geometry":{"type":"Point","coordinates":[0.153287,-0.067562]}},{"type":"Feature","properties":{"k":"territory","t":"Gentle Coast","a":202227},"geometry":{"type":"Point","coordinates":[0.15675,-0.07714]}},{"type":"Feature","properties":{"k":"territory","t":"Idolbridge North","a":61433},"geometry":{"type":"Point","coordinates":[0.206965,-0.134882]}},{"type":"Feature","properties":{"k":"territory","t":"Banshee Wood","a":734638},"geometry":{"type":"Point","coordinates":[0.06485,-0.074507]}},{"type":"Feature","properties":{"k":"territory","t":"Coast of Spiders","a":187328},"geometry":{"type":"Point","coordinates":[0.032674,-0.059592]}},{"type":"Feature","properties":{"k":"territory","t":"Isle of Spiders","a":181377},"geometry":{"type":"Point","coordinates":[0.029652,-0.055394]}},{"type":"Feature","properties":{"k":"territory","t":"Forest of Spiders","a":378413},"geometry":{"type":"Point","coordinates":[0.028218,-0.058482]}},{"type":"Feature","properties":{"k":"territory","t":"Western Land of Reeds","a":1108676},"geometry":{"type":"Point","coordinates":[0.083437,-0.097423]}},{"type":"Feature","properties":{"k":"territory","t":"Hills of Plenty","a":992190},"geometry":{"type":"Point","coordinates":[0.091562,-0.091426]}},{"type":"Feature","properties":{"k":"territory","t":"Northern Plain","a":924474},"geometry":{"type":"Point","coordinates":[0.094054,-0.082991]}},{"type":"Feature","properties":{"k":"territory","t":"Dale of Plenty","a":920353},"geometry":{"type":"Point","coordinates":[0.085253,-0.08667]}},{"type":"Feature","properties":{"k":"territory","t":"Northern Steppe","a":956883},"geometry":{"type":"Point","coordinates":[0.090281,-0.074402]}},{"type":"Feature","properties":{"k":"territory","t":"Barrier Mountains North","a":2520684},"geometry":{"type":"Point","coordinates":[0.085035,-0.059751]}},{"type":"Feature","properties":{"k":"territory","t":"Dark Cradle","a":1152208},"geometry":{"type":"Point","coordinates":[0.081545,-0.061444]}},{"type":"Feature","properties":{"k":"territory","t":"Glaring Gates","a":18758},"geometry":{"type":"Point","coordinates":[0.104383,-0.044664]}},{"type":"Feature","properties":{"k":"territory","t":"The Loom","a":154517},"geometry":{"type":"Point","coordinates":[0.106853,-0.062841]}},{"type":"Feature","properties":{"k":"territory","t":"The Pale","a":2282504},"geometry":{"type":"Point","coordinates":[0.10327,-0.054264]}},{"type":"Feature","properties":{"k":"territory","t":"Frigid Marsh","a":1305767},"geometry":{"type":"Point","coordinates":[0.094033,-0.051926]}},{"type":"Feature","properties":{"k":"territory","t":"North Springlands","a":1157268},"geometry":{"type":"Point","coordinates":[0.095111,-0.064084]}},{"type":"Feature","properties":{"k":"territory","t":"Great North Pass","a":521823},"geometry":{"type":"Point","coordinates":[0.10914,-0.066715]}},{"type":"Feature","properties":{"k":"territory","t":"Daggerpoint","a":262033},"geometry":{"type":"Point","coordinates":[0.111258,-0.072856]}},{"type":"Feature","properties":{"k":"territory","t":"False Peak","a":112796},"geometry":{"type":"Point","coordinates":[0.108569,-0.07044]}},{"type":"Feature","properties":{"k":"territory","t":"Northern Blue Coast","a":951335},"geometry":{"type":"Point","coordinates":[0.109203,-0.082073]}},{"type":"Feature","properties":{"k":"territory","t":"3rd Candle tower","a":1472118},"geometry":{"type":"Point","coordinates":[0.100355,-0.071905]}},{"type":"Feature","properties":{"k":"territory","t":"South Springlands","a":944714},"geometry":{"type":"Point","coordinates":[0.103452,-0.079084]}},{"type":"Feature","properties":{"k":"territory","t":"West Mountains of Dawn","a":233184},"geometry":{"type":"Point","coordinates":[0.11315,-0.059335]}},{"type":"Feature","properties":{"k":"territory","t":"Dawnpeak","a":64584},"geometry":{"type":"Point","coordinates":[0.124547,-0.057784]}},{"type":"Feature","properties":{"k":"territory","t":"East Mountains of Dawn","a":104055},"geometry":{"type":"Point","coordinates":[0.127235,-0.059046]}},{"type":"Feature","properties":{"k":"territory","t":"Mountains of Dawn","a":91295},"geometry":{"type":"Point","coordinates":[0.120078,-0.056798]}},{"type":"Feature","properties":{"k":"territory","t":"Longslope","a":184985},"geometry":{"type":"Point","coordinates":[0.110779,-0.063132]}},{"type":"Feature","properties":{"k":"territory","t":"Ironveil","a":135712},"geometry":{"type":"Point","coordinates":[0.114063,-0.065147]}},{"type":"Feature","properties":{"k":"territory","t":"West Mountains of Morn","a":105865},"geometry":{"type":"Point","coordinates":[0.131294,-0.061292]}},{"type":"Feature","properties":{"k":"territory","t":"Host of Spears","a":300289},"geometry":{"type":"Point","coordinates":[0.114484,-0.070687]}},{"type":"Feature","properties":{"k":"territory","t":"Servant's Sickle","a":284225},"geometry":{"type":"Point","coordinates":[0.110626,-0.07581]}},{"type":"Feature","properties":{"k":"territory","t":"Vale of Dawn","a":2250966},"geometry":{"type":"Point","coordinates":[0.121753,-0.064746]}},{"type":"Feature","properties":{"k":"territory","t":"Vale of Noonday","a":649089},"geometry":{"type":"Point","coordinates":[0.143072,-0.071997]}},{"type":"Feature","properties":{"k":"territory","t":"False Dawn","a":157994},"geometry":{"type":"Point","coordinates":[0.135763,-0.072464]}},{"type":"Feature","properties":{"k":"territory","t":"Blackiron","a":134871},"geometry":{"type":"Point","coordinates":[0.128279,-0.071121]}},{"type":"Feature","properties":{"k":"territory","t":"Spar","a":55245},"geometry":{"type":"Point","coordinates":[0.145899,-0.067756]}},{"type":"Feature","properties":{"k":"territory","t":"Cove of Cloaks","a":81029},"geometry":{"type":"Point","coordinates":[0.142793,-0.067839]}},{"type":"Feature","properties":{"k":"territory","t":"Vale of Morn","a":1208320},"geometry":{"type":"Point","coordinates":[0.134522,-0.067551]}},{"type":"Feature","properties":{"k":"territory","t":"Blackwater Coast","a":626590},"geometry":{"type":"Point","coordinates":[0.141921,-0.076243]}},{"type":"Feature","properties":{"k":"territory","t":"Fey's Wrath","a":221519},"geometry":{"type":"Point","coordinates":[0.118871,-0.074188]}},{"type":"Feature","properties":{"k":"territory","t":"Saltpeak","a":135565},"geometry":{"type":"Point","coordinates":[0.125416,-0.07367]}},{"type":"Feature","properties":{"k":"territory","t":"Farmer's Coast","a":219166},"geometry":{"type":"Point","coordinates":[0.198982,-0.061634]}},{"type":"Feature","properties":{"k":"territory","t":"Dreamwood","a":230704},"geometry":{"type":"Point","coordinates":[0.199896,-0.063708]}},{"type":"Feature","properties":{"k":"territory","t":"Razormouth","a":161512},"geometry":{"type":"Point","coordinates":[0.199221,-0.067455]}},{"type":"Feature","properties":{"k":"territory","t":"Idol Coast","a":119471},"geometry":{"type":"Point","coordinates":[0.206474,-0.130618]}},{"type":"Feature","properties":{"k":"territory","t":"Shaded Point","a":242671},"geometry":{"type":"Point","coordinates":[0.202775,-0.123148]}},{"type":"Feature","properties":{"k":"territory","t":"Temple Forest","a":830783},"geometry":{"type":"Point","coordinates":[0.202728,-0.133444]}},{"type":"Feature","properties":{"k":"territory","t":"Axebeard","a":132276},"geometry":{"type":"Point","coordinates":[0.19978,-0.126345]}},{"type":"Feature","properties":{"k":"territory","t":"Bitterblack","a":23328},"geometry":{"type":"Point","coordinates":[0.192814,-0.133092]}},{"type":"Feature","properties":{"k":"territory","t":"Billowing Isle","a":63928},"geometry":{"type":"Point","coordinates":[0.179572,-0.122576]}},{"type":"Feature","properties":{"k":"territory","t":"Mountains of Ash","a":156965},"geometry":{"type":"Point","coordinates":[0.186922,-0.127496]}},{"type":"Feature","properties":{"k":"territory","t":"The Catchers","a":82391},"geometry":{"type":"Point","coordinates":[0.198382,-0.162671]}},{"type":"Feature","properties":{"k":"territory","t":"Level Stone","a":109113},"geometry":{"type":"Point","coordinates":[0.197802,-0.15966]}},{"type":"Feature","properties":{"k":"territory","t":"Cleaver","a":20510},"geometry":{"type":"Point","coordinates":[0.182197,-0.147489]}},{"type":"Feature","properties":{"k":"territory","t":"Forest of Flies","a":174161},"geometry":{"type":"Point","coordinates":[0.185431,-0.13711]}},{"type":"Feature","properties":{"k":"territory","t":"Forest of Filth","a":191016},"geometry":{"type":"Point","coordinates":[0.187044,-0.131868]}},{"type":"Feature","properties":{"k":"territory","t":"Gateway","a":970629},"geometry":{"type":"Point","coordinates":[0.082063,-0.079439]}},{"type":"Feature","properties":{"k":"territory","t":"Glimmering Slope","a":795134},"geometry":{"type":"Point","coordinates":[0.076801,-0.084835]}},{"type":"Feature","properties":{"k":"territory","t":"Blacksight","a":661701},"geometry":{"type":"Point","coordinates":[0.070985,-0.09934]}},{"type":"Feature","properties":{"k":"territory","t":"Gloaming Wood","a":2037929},"geometry":{"type":"Point","coordinates":[0.069525,-0.062605]}},{"type":"Feature","properties":{"k":"territory","t":"Southern Lamplands","a":542513},"geometry":{"type":"Point","coordinates":[0.077297,-0.064529]}},{"type":"Feature","properties":{"k":"territory","t":"Northern Lamplands","a":1051503},"geometry":{"type":"Point","coordinates":[0.076238,-0.053193]}},{"type":"Feature","properties":{"k":"territory","t":"Diamond Pass","a":88812},"geometry":{"type":"Point","coordinates":[0.076698,-0.073973]}},{"type":"Feature","properties":{"k":"territory","t":"Barrier Mountains South","a":2127422},"geometry":{"type":"Point","coordinates":[0.068727,-0.086707]}},{"type":"Feature","properties":{"k":"territory","t":"Barrier Foothills","a":891719},"geometry":{"type":"Point","coordinates":[0.075078,-0.093396]}},{"type":"Feature","properties":{"k":"territory","t":"Eastern Torchlands","a":814369},"geometry":{"type":"Point","coordinates":[0.067006,-0.070245]}},{"type":"Feature","properties":{"k":"territory","t":"Stalker's Bay South","a":1065475},"geometry":{"type":"Point","coordinates":[0.059197,-0.057576]}},{"type":"Feature","properties":{"k":"territory","t":"Stalker's Bay West","a":750797},"geometry":{"type":"Point","coordinates":[0.050655,-0.055809]}},{"type":"Feature","properties":{"k":"territory","t":"Venom Point","a":418486},"geometry":{"type":"Point","coordinates":[0.059967,-0.046975]}},{"type":"Feature","properties":{"k":"territory","t":"Raider's Bank","a":110755},"geometry":{"type":"Point","coordinates":[0.040943,-0.062434]}},{"type":"Feature","properties":{"k":"territory","t":"Iron Rest","a":76453},"geometry":{"type":"Point","coordinates":[0.03991,-0.05472]}},{"type":"Feature","properties":{"k":"territory","t":"Rock of Sacrifice","a":53977},"geometry":{"type":"Point","coordinates":[0.048737,-0.040751]}},{"type":"Feature","properties":{"k":"territory","t":"Shaded Vastness","a":2408406},"geometry":{"type":"Point","coordinates":[0.059585,-0.082894]}},{"type":"Feature","properties":{"k":"territory","t":"Western Torchlands","a":1472561},"geometry":{"type":"Point","coordinates":[0.05284,-0.064751]}},{"type":"Feature","properties":{"k":"territory","t":"Ranging Wilds","a":1356027},"geometry":{"type":"Point","coordinates":[0.052235,-0.072912]}},{"type":"Feature","properties":{"k":"territory","t":"Riven Dale","a":411185},"geometry":{"type":"Point","coordinates":[0.050069,-0.130982]}},{"type":"Feature","properties":{"k":"territory","t":"Northern Dragon's Jaws","a":120140},"geometry":{"type":"Point","coordinates":[0.049407,-0.135142]}},{"type":"Feature","properties":{"k":"territory","t":"Patrol Coast","a":194141},"geometry":{"type":"Point","coordinates":[0.044703,-0.135979]}},{"type":"Feature","properties":{"k":"territory","t":"Bare Stone","a":761},"geometry":{"type":"Point","coordinates":[0.047704,-0.154007]}},{"type":"Feature","properties":{"k":"territory","t":"Corsair's Nest","a":121005},"geometry":{"type":"Point","coordinates":[0.046451,-0.155638]}},{"type":"Feature","properties":{"k":"territory","t":"Watcher","a":62477},"geometry":{"type":"Point","coordinates":[0.048094,-0.150825]}},{"type":"Feature","properties":{"k":"territory","t":"Candle's Reach","a":228644},"geometry":{"type":"Point","coordinates":[0.042789,-0.1501]}},{"type":"Feature","properties":{"k":"territory","t":"Witchwood","a":258704},"geometry":{"type":"Point","coordinates":[0.046005,-0.148679]}},{"type":"Feature","properties":{"k":"territory","t":"Southern Dragon's Jaws","a":131526},"geometry":{"type":"Point","coordinates":[0.051843,-0.142665]}},{"type":"Feature","properties":{"k":"territory","t":"The Dragon's Jaws","a":164414},"geometry":{"type":"Point","coordinates":[0.058395,-0.138124]}},{"type":"Feature","properties":{"k":"territory","t":"Spearpoint","a":134135},"geometry":{"type":"Point","coordinates":[0.054471,-0.139532]}},{"type":"Feature","properties":{"k":"territory","t":"Cape of Gazing","a":390338},"geometry":{"type":"Point","coordinates":[0.057336,-0.150919]}},{"type":"Feature","properties":{"k":"territory","t":"Earthfire Swamp","a":710910},"geometry":{"type":"Point","coordinates":[0.056922,-0.143861]}},{"type":"Feature","properties":{"k":"territory","t":"South Frigid Coast","a":300274},"geometry":{"type":"Point","coordinates":[0.093384,-0.044306]}},{"type":"Feature","properties":{"k":"territory","t":"Grandfather's Eye","a":70544},"geometry":{"type":"Point","coordinates":[0.101028,-0.045865]}},{"type":"Feature","properties":{"k":"territory","t":"Six Pillars","a":65313},"geometry":{"type":"Point","coordinates":[0.106915,-0.045027]}},{"type":"Feature","properties":{"k":"territory","t":"Hearth Coast South","a":243221},"geometry":{"type":"Point","coordinates":[0.110931,-0.045308]}},{"type":"Feature","properties":{"k":"territory","t":"Whitewood","a":253737},"geometry":{"type":"Point","coordinates":[0.108699,-0.037751]}},{"type":"Feature","properties":{"k":"territory","t":"Hearth Coast North","a":239594},"geometry":{"type":"Point","coordinates":[0.112859,-0.038882]}},{"type":"Feature","properties":{"k":"territory","t":"Shivering Vale","a":1016029},"geometry":{"type":"Point","coordinates":[0.103377,-0.041951]}},{"type":"Feature","properties":{"k":"territory","t":"Frigid Coast","a":280545},"geometry":{"type":"Point","coordinates":[0.100533,-0.037971]}},{"type":"Feature","properties":{"k":"territory","t":"North Frigid Coast","a":161275},"geometry":{"type":"Point","coordinates":[0.11006,-0.035074]}},{"type":"Feature","properties":{"k":"territory","t":"Warm Point","a":216506},"geometry":{"type":"Point","coordinates":[0.116772,-0.033036]}},{"type":"Feature","properties":{"k":"territory","t":"Wrought-Iron Peak","a":107489},"geometry":{"type":"Point","coordinates":[0.162683,-0.076113]}},{"type":"Feature","properties":{"k":"territory","t":"Evenmounts West","a":115437},"geometry":{"type":"Point","coordinates":[0.157375,-0.066152]}},{"type":"Feature","properties":{"k":"territory","t":"Mornpoint","a":101306},"geometry":{"type":"Point","coordinates":[0.145165,-0.061374]}},{"type":"Feature","properties":{"k":"territory","t":"East Mountains of Morn","a":89957},"geometry":{"type":"Point","coordinates":[0.140535,-0.061605]}},{"type":"Feature","properties":{"k":"territory","t":"South Mountains of Morn","a":183804},"geometry":{"type":"Point","coordinates":[0.142267,-0.063781]}},{"type":"Feature","properties":{"k":"territory","t":"Mountains of Morn","a":101027},"geometry":{"type":"Point","coordinates":[0.135813,-0.063166]}},{"type":"Feature","properties":{"k":"territory","t":"Frostmane","a":137081},"geometry":{"type":"Point","coordinates":[0.163051,-0.064304]}},{"type":"Feature","properties":{"k":"territory","t":"Evenmounts","a":101049},"geometry":{"type":"Point","coordinates":[0.162724,-0.066133]}},{"type":"Feature","properties":{"k":"territory","t":"Evenmounts East","a":88225},"geometry":{"type":"Point","coordinates":[0.166954,-0.065512]}},{"type":"Feature","properties":{"k":"territory","t":"Harrowing Slopes","a":80408},"geometry":{"type":"Point","coordinates":[0.170085,-0.068422]}},{"type":"Feature","properties":{"k":"territory","t":"Mountains of Night WEst","a":93710},"geometry":{"type":"Point","coordinates":[0.179605,-0.069631]}},{"type":"Feature","properties":{"k":"territory","t":"Mirrormount","a":80750},"geometry":{"type":"Point","coordinates":[0.177097,-0.063668]}},{"type":"Feature","properties":{"k":"territory","t":"Blue Valley","a":243231},"geometry":{"type":"Point","coordinates":[0.176222,-0.06582]}},{"type":"Feature","properties":{"k":"territory","t":"Vale of Even","a":1640935},"geometry":{"type":"Point","coordinates":[0.161097,-0.071188]}},{"type":"Feature","properties":{"k":"territory","t":"Isle of Silver","a":223478},"geometry":{"type":"Point","coordinates":[0.174474,-0.08397]}},{"type":"Feature","properties":{"k":"territory","t":"Mountains of dusk","a":252833},"geometry":{"type":"Point","coordinates":[0.167994,-0.07603]}},{"type":"Feature","properties":{"k":"territory","t":"Foamtooth Mountains","a":243266},"geometry":{"type":"Point","coordinates":[0.178495,-0.07745]}},{"type":"Feature","properties":{"k":"territory","t":"Vale of Dusk","a":745154},"geometry":{"type":"Point","coordinates":[0.17367,-0.073483]}},{"type":"Feature","properties":{"k":"territory","t":"Waking Mountains","a":155621},"geometry":{"type":"Point","coordinates":[0.182585,-0.06385]}},{"type":"Feature","properties":{"k":"territory","t":"Narrow Coast","a":111867},"geometry":{"type":"Point","coordinates":[0.17837,-0.06711]}},{"type":"Feature","properties":{"k":"territory","t":"Last Blue Bay","a":508344},"geometry":{"type":"Point","coordinates":[0.180198,-0.085173]}},{"type":"Feature","properties":{"k":"territory","t":"Yellow Forest","a":124500},"geometry":{"type":"Point","coordinates":[0.185325,-0.0857]}},{"type":"Feature","properties":{"k":"territory","t":"Chillwood","a":85130},"geometry":{"type":"Point","coordinates":[0.191847,-0.077841]}},{"type":"Feature","properties":{"k":"territory","t":"Keeper","a":9414},"geometry":{"type":"Point","coordinates":[0.200659,-0.073704]}},{"type":"Feature","properties":{"k":"territory","t":"Whiskey Peaks","a":157260},"geometry":{"type":"Point","coordinates":[0.199135,-0.076532]}},{"type":"Feature","properties":{"k":"territory","t":"Vale of Storm","a":1382499},"geometry":{"type":"Point","coordinates":[0.190657,-0.080786]}},{"type":"Feature","properties":{"k":"territory","t":"Mountains of Night","a":78616},"geometry":{"type":"Point","coordinates":[0.184599,-0.067398]}},{"type":"Feature","properties":{"k":"territory","t":"Mountains of Night East","a":157899},"geometry":{"type":"Point","coordinates":[0.189245,-0.067072]}},{"type":"Feature","properties":{"k":"territory","t":"Vale of Night","a":1707870},"geometry":{"type":"Point","coordinates":[0.186489,-0.073213]}},{"type":"Feature","properties":{"k":"territory","t":"Midnight Cape","a":232814},"geometry":{"type":"Point","coordinates":[0.195911,-0.069928]}},{"type":"Feature","properties":{"k":"territory","t":"Sandhook","a":156293},"geometry":{"type":"Point","coordinates":[0.203995,-0.06777]}},{"type":"Feature","properties":{"k":"territory","t":"The Shield","a":242238},"geometry":{"type":"Point","coordinates":[0.209024,-0.069976]}},{"type":"Feature","properties":{"k":"territory","t":"South Shield","a":233338},"geometry":{"type":"Point","coordinates":[0.212134,-0.077349]}},{"type":"Feature","properties":{"k":"territory","t":"Bitter Vale","a":584311},"geometry":{"type":"Point","coordinates":[0.207524,-0.074504]}},{"type":"Feature","properties":{"k":"territory","t":"Smuggler's Rest","a":154265},"geometry":{"type":"Point","coordinates":[0.202386,-0.083285]}},{"type":"Feature","properties":{"k":"territory","t":"Ebonwood","a":218635},"geometry":{"type":"Point","coordinates":[0.200797,-0.085699]}},{"type":"Feature","properties":{"k":"territory","t":"Redshell","a":134691},"geometry":{"type":"Point","coordinates":[0.198215,-0.088243]}},{"type":"Feature","properties":{"k":"territory","t":"Ebon Coast","a":128441},"geometry":{"type":"Point","coordinates":[0.203286,-0.08829]}},{"type":"Feature","properties":{"k":"territory","t":"Landmark","a":60510},"geometry":{"type":"Point","coordinates":[0.202525,-0.092976]}},{"type":"Feature","properties":{"k":"territory","t":"Laughing Coast","a":205314},"geometry":{"type":"Point","coordinates":[0.200153,-0.093749]}},{"type":"Feature","properties":{"k":"territory","t":"Ebonmount","a":150323},"geometry":{"type":"Point","coordinates":[0.200653,-0.090205]}},{"type":"Feature","properties":{"k":"territory","t":"Isle of Drought","a":433335},"geometry":{"type":"Point","coordinates":[0.188818,-0.092083]}},{"type":"Feature","properties":{"k":"territory","t":"Sweatlands","a":214230},"geometry":{"type":"Point","coordinates":[0.184895,-0.094046]}},{"type":"Feature","properties":{"k":"territory","t":"Sharp Rocks","a":164201},"geometry":{"type":"Point","coordinates":[0.193023,-0.093316]}},{"type":"Feature","properties":{"k":"territory","t":"Goldmount","a":125981},"geometry":{"type":"Point","coordinates":[0.193362,-0.088974]}},{"type":"Feature","properties":{"k":"territory","t":"Greave","a":273810},"geometry":{"type":"Point","coordinates":[0.19518,-0.12445]}},{"type":"Feature","properties":{"k":"territory","t":"Dead Plain","a":652667},"geometry":{"type":"Point","coordinates":[0.194202,-0.115856]}},{"type":"Feature","properties":{"k":"territory","t":"Wilding Steppe","a":756953},"geometry":{"type":"Point","coordinates":[0.198921,-0.107178]}},{"type":"Feature","properties":{"k":"territory","t":"Cedar Coast","a":130522},"geometry":{"type":"Point","coordinates":[0.191958,-0.109052]}},{"type":"Feature","properties":{"k":"territory","t":"Old Cedars","a":173827},"geometry":{"type":"Point","coordinates":[0.194422,-0.108237]}},{"type":"Feature","properties":{"k":"territory","t":"Heights of Glory","a":271767},"geometry":{"type":"Point","coordinates":[0.194381,-0.103193]}},{"type":"Feature","properties":{"k":"territory","t":"Trueborn's Landing","a":338404},"geometry":{"type":"Point","coordinates":[0.192382,-0.099711]}},{"type":"Feature","properties":{"k":"territory","t":"Daring Coast","a":387962},"geometry":{"type":"Point","coordinates":[0.201037,-0.101301]}},{"type":"Feature","properties":{"k":"territory","t":"Boiling Rocks","a":48778},"geometry":{"type":"Point","coordinates":[0.184232,-0.103323]}},{"type":"Feature","properties":{"k":"territory","t":"Clear Skies","a":206255},"geometry":{"type":"Point","coordinates":[0.178361,-0.106834]}},{"type":"Feature","properties":{"k":"territory","t":"Dragonmount","a":156892},"geometry":{"type":"Point","coordinates":[0.185375,-0.116424]}},{"type":"Feature","properties":{"k":"territory","t":"Glass Coast","a":174722},"geometry":{"type":"Point","coordinates":[0.186726,-0.119078]}},{"type":"Feature","properties":{"k":"territory","t":"Beside the Black Fume","a":383797},"geometry":{"type":"Point","coordinates":[0.180789,-0.114706]}},{"type":"Feature","properties":{"k":"territory","t":"Safe Landing","a":87833},"geometry":{"type":"Point","coordinates":[0.186643,-0.113602]}},{"type":"Feature","properties":{"k":"territory","t":"Fuming Coast","a":190044},"geometry":{"type":"Point","coordinates":[0.183795,-0.120838]}},{"type":"Feature","properties":{"k":"territory","t":"Smoking Isle","a":81126},"geometry":{"type":"Point","coordinates":[0.177729,-0.129782]}},{"type":"Feature","properties":{"k":"territory","t":"Redwood Coast","a":200949},"geometry":{"type":"Point","coordinates":[0.189465,-0.130351]}},{"type":"Feature","properties":{"k":"territory","t":"Hollow Peak","a":113574},"geometry":{"type":"Point","coordinates":[0.189576,-0.135741]}},{"type":"Feature","properties":{"k":"territory","t":"Mountains of Soot","a":266472},"geometry":{"type":"Point","coordinates":[0.18549,-0.139997]}},{"type":"Feature","properties":{"k":"territory","t":"Firemount","a":81794},"geometry":{"type":"Point","coordinates":[0.178502,-0.142009]}},{"type":"Feature","properties":{"k":"territory","t":"Clouded Coast","a":691854},"geometry":{"type":"Point","coordinates":[0.182036,-0.135652]}},{"type":"Feature","properties":{"k":"territory","t":"Lonesome","a":5977},"geometry":{"type":"Point","coordinates":[0.199322,-0.196541]}},{"type":"Feature","properties":{"k":"territory","t":"Ancient Whale Graveyard","a":310011},"geometry":{"type":"Point","coordinates":[0.186768,-0.193799]}},{"type":"Feature","properties":{"k":"territory","t":"Cruelest","a":934937},"geometry":{"type":"Point","coordinates":[0.122141,-0.219536]}},{"type":"Feature","properties":{"k":"territory","t":"Clubfoot","a":519551},"geometry":{"type":"Point","coordinates":[0.129645,-0.223376]}},{"type":"Feature","properties":{"k":"territory","t":"Coastal Grove","a":218028},"geometry":{"type":"Point","coordinates":[0.066962,-0.179163]}},{"type":"Feature","properties":{"k":"territory","t":"Twilight Cove","a":129364},"geometry":{"type":"Point","coordinates":[0.070402,-0.182752]}},{"type":"Feature","properties":{"k":"territory","t":"Crystal Point","a":118262},"geometry":{"type":"Point","coordinates":[0.075042,-0.183488]}},{"type":"Feature","properties":{"k":"territory","t":"Carven Ridges","a":248298},"geometry":{"type":"Point","coordinates":[0.075321,-0.189217]}},{"type":"Feature","properties":{"k":"territory","t":"Bearing Hills","a":559996},"geometry":{"type":"Point","coordinates":[0.069537,-0.185474]}},{"type":"Feature","properties":{"k":"territory","t":"Ivystone","a":30964},"geometry":{"type":"Point","coordinates":[0.086654,-0.200897]}},{"type":"Feature","properties":{"k":"territory","t":"Breaker","a":38552},"geometry":{"type":"Point","coordinates":[0.085057,-0.203072]}},{"type":"Feature","properties":{"k":"territory","t":"Mistress","a":49724},"geometry":{"type":"Point","coordinates":[0.084691,-0.198917]}},{"type":"Feature","properties":{"k":"territory","t":"Mad Coast South","a":715086},"geometry":{"type":"Point","coordinates":[0.09084,-0.244069]}},{"type":"Feature","properties":{"k":"territory","t":"Valor's Wreck","a":563768},"geometry":{"type":"Point","coordinates":[0.098567,-0.253654]}},{"type":"Feature","properties":{"k":"territory","t":"Nameless Bay","a":566610},"geometry":{"type":"Point","coordinates":[0.091038,-0.252311]}},{"type":"Feature","properties":{"k":"territory","t":"Nameless Coast East","a":376745},"geometry":{"type":"Point","coordinates":[0.080231,-0.252145]}},{"type":"Feature","properties":{"k":"territory","t":"Eastwood","a":650233},"geometry":{"type":"Point","coordinates":[0.084501,-0.247918]}},{"type":"Feature","properties":{"k":"territory","t":"Great Green Deep","a":1776518},"geometry":{"type":"Point","coordinates":[0.079872,-0.238566]}},{"type":"Feature","properties":{"k":"territory","t":"Moldbog","a":369702},"geometry":{"type":"Point","coordinates":[0.070307,-0.235052]}},{"type":"Feature","properties":{"k":"territory","t":"The Dividing Peaks","a":258210},"geometry":{"type":"Point","coordinates":[0.075247,-0.242491]}},{"type":"Feature","properties":{"k":"territory","t":"The Murkwood","a":1241510},"geometry":{"type":"Point","coordinates":[0.072225,-0.246185]}},{"type":"Feature","properties":{"k":"territory","t":"Black Grass Vale","a":1031903},"geometry":{"type":"Point","coordinates":[0.056988,-0.245007]}},{"type":"Feature","properties":{"k":"territory","t":"Bay of Boars","a":441128},"geometry":{"type":"Point","coordinates":[0.048079,-0.243997]}},{"type":"Feature","properties":{"k":"territory","t":"Nameless Coast","a":419762},"geometry":{"type":"Point","coordinates":[0.066588,-0.25038]}},{"type":"Feature","properties":{"k":"territory","t":"Nameless Coast West","a":346044},"geometry":{"type":"Point","coordinates":[0.053885,-0.248427]}},{"type":"Feature","properties":{"k":"territory","t":"Foolsfall","a":183918},"geometry":{"type":"Point","coordinates":[0.06707,-0.23808]}},{"type":"Feature","properties":{"k":"territory","t":"Taker","a":180015},"geometry":{"type":"Point","coordinates":[0.068151,-0.236078]}},{"type":"Feature","properties":{"k":"territory","t":"Howler","a":178286},"geometry":{"type":"Point","coordinates":[0.061737,-0.237479]}},{"type":"Feature","properties":{"k":"territory","t":"The Failing","a":461950},"geometry":{"type":"Point","coordinates":[0.064171,-0.242035]}},{"type":"Feature","properties":{"k":"territory","t":"Cruel Mistress","a":195334},"geometry":{"type":"Point","coordinates":[0.060036,-0.240832]}},{"type":"Feature","properties":{"k":"territory","t":"Scattering Peaks","a":329491},"geometry":{"type":"Point","coordinates":[0.063141,-0.232664]}},{"type":"Feature","properties":{"k":"territory","t":"Black Bog","a":462952},"geometry":{"type":"Point","coordinates":[0.053505,-0.238422]}},{"type":"Feature","properties":{"k":"territory","t":"Peaks of Warning","a":577633},"geometry":{"type":"Point","coordinates":[0.058849,-0.225203]}},{"type":"Feature","properties":{"k":"territory","t":"Lonesome Coast South","a":359877},"geometry":{"type":"Point","coordinates":[0.049948,-0.23146]}},{"type":"Feature","properties":{"k":"territory","t":"Lonesome Coast","a":404700},"geometry":{"type":"Point","coordinates":[0.053073,-0.223427]}},{"type":"Feature","properties":{"k":"territory","t":"Kingdom of Unmen","a":1115014},"geometry":{"type":"Point","coordinates":[0.056161,-0.23194]}},{"type":"Feature","properties":{"k":"territory","t":"Lonesome Coast East","a":462248},"geometry":{"type":"Point","coordinates":[0.063232,-0.220632]}},{"type":"Feature","properties":{"k":"territory","t":"Sliverwood","a":470445},"geometry":{"type":"Point","coordinates":[0.064934,-0.227005]}},{"type":"Feature","properties":{"k":"territory","t":"Mad Coast","a":833072},"geometry":{"type":"Point","coordinates":[0.082553,-0.231947]}},{"type":"Feature","properties":{"k":"territory","t":"Madman's Port","a":845659},"geometry":{"type":"Point","coordinates":[0.070303,-0.230332]}},{"type":"Feature","properties":{"k":"territory","t":"Greybrook","a":437247},"geometry":{"type":"Point","coordinates":[0.061927,-0.206797]}},{"type":"Feature","properties":{"k":"territory","t":"Forest of Horrors","a":327002},"geometry":{"type":"Point","coordinates":[0.049171,-0.125145]}},{"type":"Feature","properties":{"k":"territory","t":"South Bone Coast","a":144219},"geometry":{"type":"Point","coordinates":[0.045934,-0.11968]}},{"type":"Feature","properties":{"k":"territory","t":"The White Peaks","a":111476},"geometry":{"type":"Point","coordinates":[0.058629,-0.114691]}},{"type":"Feature","properties":{"k":"territory","t":"Lower Steppes of Dusk","a":1240648},"geometry":{"type":"Point","coordinates":[0.05093,-0.116272]}},{"type":"Feature","properties":{"k":"territory","t":"Guard Point","a":108159},"geometry":{"type":"Point","coordinates":[0.032896,-0.118589]}},{"type":"Feature","properties":{"k":"territory","t":"Guard Coast","a":142208},"geometry":{"type":"Point","coordinates":[0.028575,-0.117452]}},{"type":"Feature","properties":{"k":"territory","t":"Fisher's Vale","a":124204},"geometry":{"type":"Point","coordinates":[0.03003,-0.116018]}},{"type":"Feature","properties":{"k":"territory","t":"Carry On","a":15274},"geometry":{"type":"Point","coordinates":[0.029367,-0.110018]}},{"type":"Feature","properties":{"k":"territory","t":"East Chestnut Isle","a":12874},"geometry":{"type":"Point","coordinates":[0.037125,-0.106923]}},{"type":"Feature","properties":{"k":"territory","t":"South Chestnut Isle","a":15727},"geometry":{"type":"Point","coordinates":[0.034699,-0.107793]}},{"type":"Feature","properties":{"k":"territory","t":"North Chestnut Isle","a":23555},"geometry":{"type":"Point","coordinates":[0.035022,-0.105556]}},{"type":"Feature","properties":{"k":"territory","t":"The Grip","a":197610},"geometry":{"type":"Point","coordinates":[0.028453,-0.101307]}},{"type":"Feature","properties":{"k":"territory","t":"Helm's Folly","a":188953},"geometry":{"type":"Point","coordinates":[0.02092,-0.087319]}},{"type":"Feature","properties":{"k":"territory","t":"Blade Coast","a":177720},"geometry":{"type":"Point","coordinates":[0.023342,-0.093538]}},{"type":"Feature","properties":{"k":"territory","t":"Spitepeak","a":158682},"geometry":{"type":"Point","coordinates":[0.021793,-0.091291]}},{"type":"Feature","properties":{"k":"territory","t":"Lightless Wood","a":135370},"geometry":{"type":"Point","coordinates":[0.019428,-0.090371]}},{"type":"Feature","properties":{"k":"territory","t":"Pommel","a":341697},"geometry":{"type":"Point","coordinates":[0.03502,-0.091034]}},{"type":"Feature","properties":{"k":"territory","t":"Bone Coast","a":119796},"geometry":{"type":"Point","coordinates":[0.041975,-0.114815]}},{"type":"Feature","properties":{"k":"territory","t":"Seething Coast West","a":105424},"geometry":{"type":"Point","coordinates":[0.044899,-0.112752]}},{"type":"Feature","properties":{"k":"territory","t":"Seething Coast East","a":120906},"geometry":{"type":"Point","coordinates":[0.051108,-0.111918]}},{"type":"Feature","properties":{"k":"territory","t":"Bay of Horrors","a":99875},"geometry":{"type":"Point","coordinates":[0.055816,-0.10916]}},{"type":"Feature","properties":{"k":"territory","t":"Jagged Coast South","a":149694},"geometry":{"type":"Point","coordinates":[0.052375,-0.104897]}},{"type":"Feature","properties":{"k":"territory","t":"Foundry","a":157448},"geometry":{"type":"Point","coordinates":[0.046456,-0.098528]}},{"type":"Feature","properties":{"k":"territory","t":"Steppes of Dusk","a":1110925},"geometry":{"type":"Point","coordinates":[0.061375,-0.107509]}},{"type":"Feature","properties":{"k":"territory","t":"Jagged Point","a":153150},"geometry":{"type":"Point","coordinates":[0.050459,-0.101695]}},{"type":"Feature","properties":{"k":"territory","t":"Passage of Knives","a":167215},"geometry":{"type":"Point","coordinates":[0.054903,-0.103586]}},{"type":"Feature","properties":{"k":"territory","t":"Jagged Coast West","a":140884},"geometry":{"type":"Point","coordinates":[0.056781,-0.101833]}},{"type":"Feature","properties":{"k":"territory","t":"Jagged Coast East","a":154867},"geometry":{"type":"Point","coordinates":[0.062836,-0.101512]}},{"type":"Feature","properties":{"k":"territory","t":"Demilamp","a":46564},"geometry":{"type":"Point","coordinates":[0.072686,-0.165662]}},{"type":"Feature","properties":{"k":"territory","t":"Halt","a":173617},"geometry":{"type":"Point","coordinates":[0.167405,-0.133385]}},{"type":"Feature","properties":{"k":"territory","t":"Whitewood Isle","a":13721},"geometry":{"type":"Point","coordinates":[0.176805,-0.149881]}},{"type":"Feature","properties":{"k":"territory","t":"Spine","a":52925},"geometry":{"type":"Point","coordinates":[0.175209,-0.147993]}},{"type":"Feature","properties":{"k":"territory","t":"Saltrock","a":9110},"geometry":{"type":"Point","coordinates":[0.177611,-0.155972]}},{"type":"Feature","properties":{"k":"territory","t":"Foothold","a":1155611},"geometry":{"type":"Point","coordinates":[0.011046,-0.178466]}},{"type":"Feature","properties":{"k":"territory","t":"Dim Coast","a":189688},"geometry":{"type":"Point","coordinates":[0.153576,-0.179675]}},{"type":"Feature","properties":{"k":"territory","t":"Whaler's Coast","a":143936},"geometry":{"type":"Point","coordinates":[0.154926,-0.176436]}},{"type":"Feature","properties":{"k":"territory","t":"Woods of Refusal","a":122772},"geometry":{"type":"Point","coordinates":[0.153634,-0.170939]}},{"type":"Feature","properties":{"k":"territory","t":"Whaler's Coast West","a":261177},"geometry":{"type":"Point","coordinates":[0.151618,-0.173527]}},{"type":"Feature","properties":{"k":"territory","t":"Leyflan's Cape","a":447870},"geometry":{"type":"Point","coordinates":[0.157641,-0.166576]}},{"type":"Feature","properties":{"k":"territory","t":"Sharktooth","a":19701},"geometry":{"type":"Point","coordinates":[0.173439,-0.16169]}},{"type":"Feature","properties":{"k":"territory","t":"Grant","a":305957},"geometry":{"type":"Point","coordinates":[0.168175,-0.163794]}},{"type":"Feature","properties":{"k":"territory","t":"Turnaside","a":52518},"geometry":{"type":"Point","coordinates":[0.16144,-0.157925]}},{"type":"Feature","properties":{"k":"territory","t":"Surety","a":25575},"geometry":{"type":"Point","coordinates":[0.166559,-0.154035]}},{"type":"Feature","properties":{"k":"territory","t":"Northcoast","a":836081},"geometry":{"type":"Point","coordinates":[0.124719,-0.076506]}},{"type":"Feature","properties":{"k":"territory","t":"Hidden Bay","a":101358},"geometry":{"type":"Point","coordinates":[0.151455,-0.169022]}},{"type":"Feature","properties":{"k":"territory","t":"Mountains of the Brand","a":406793},"geometry":{"type":"Point","coordinates":[0.147182,-0.17067]}},{"type":"Feature","properties":{"k":"territory","t":"North Mountains of the Brand","a":475933},"geometry":{"type":"Point","coordinates":[0.152921,-0.162949]}},{"type":"Feature","properties":{"k":"territory","t":"Vale of the Brand","a":537523},"geometry":{"type":"Point","coordinates":[0.147257,-0.164382]}},{"type":"Feature","properties":{"k":"territory","t":"Glint","a":13859},"geometry":{"type":"Point","coordinates":[0.151228,-0.156963]}},{"type":"Feature","properties":{"k":"territory","t":"Ponderer","a":66151},"geometry":{"type":"Point","coordinates":[0.149029,-0.155747]}},{"type":"Feature","properties":{"k":"territory","t":"Blue Harbor","a":33809},"geometry":{"type":"Point","coordinates":[0.143322,-0.147728]}},{"type":"Feature","properties":{"k":"territory","t":"South Limit","a":103707},"geometry":{"type":"Point","coordinates":[0.145949,-0.148431]}},{"type":"Feature","properties":{"k":"territory","t":"Border","a":13378},"geometry":{"type":"Point","coordinates":[0.146477,-0.125576]}},{"type":"Feature","properties":{"k":"territory","t":"Dovemount","a":149815},"geometry":{"type":"Point","coordinates":[0.132667,-0.101683]}},{"type":"Feature","properties":{"k":"territory","t":"Isle of Doves","a":375411},"geometry":{"type":"Point","coordinates":[0.132802,-0.105655]}},{"type":"Feature","properties":{"k":"territory","t":"Blackrock's Town","a":182227},"geometry":{"type":"Point","coordinates":[0.12184,-0.098367]}},{"type":"Feature","properties":{"k":"territory","t":"Isle of Apples","a":200127},"geometry":{"type":"Point","coordinates":[0.129225,-0.096859]}},{"type":"Feature","properties":{"k":"territory","t":"Mount Hope","a":225144},"geometry":{"type":"Point","coordinates":[0.185743,-0.162625]}},{"type":"Feature","properties":{"k":"territory","t":"Willow Vale","a":62945},"geometry":{"type":"Point","coordinates":[0.185568,-0.165011]}},{"type":"Feature","properties":{"k":"territory","t":"Sundered Bay","a":200220},"geometry":{"type":"Point","coordinates":[0.188719,-0.159938]}},{"type":"Feature","properties":{"k":"territory","t":"Sundered Coast","a":170045},"geometry":{"type":"Point","coordinates":[0.182932,-0.162007]}},{"type":"Feature","properties":{"k":"territory","t":"Cape of Leaving","a":241020},"geometry":{"type":"Point","coordinates":[0.18312,-0.167469]}},{"type":"Feature","properties":{"k":"territory","t":"Le Poisson Steve","a":25822},"geometry":{"type":"Point","coordinates":[0.149729,-0.010413]}},{"type":"Feature","properties":{"k":"territory","t":"Outlook","a":30472},"geometry":{"type":"Point","coordinates":[0.030432,-0.076723]}},{"type":"Feature","properties":{"k":"territory","t":"Evenward","a":89105},"geometry":{"type":"Point","coordinates":[0.152012,-0.076302]}},{"type":"Feature","properties":{"k":"territory","t":"Rainwood Slopes","a":410958},"geometry":{"type":"Point","coordinates":[0.111585,-0.118323]}},{"type":"Feature","properties":{"k":"ocean","t":"Gulf of Leaving","a":4689443},"geometry":{"type":"Point","coordinates":[0.122997,-0.163867]}},{"type":"Feature","properties":{"k":"ocean","t":"Strait of the Sisters","a":652168},"geometry":{"type":"Point","coordinates":[0.116205,-0.18637]}},{"type":"Feature","properties":{"k":"ocean","t":"Winedark","a":8810209},"geometry":{"type":"Point","coordinates":[0.139159,-0.183307]}},{"type":"Feature","properties":{"k":"ocean","t":"Sea of Doves","a":3317534},"geometry":{"type":"Point","coordinates":[0.121892,-0.10939]}},{"type":"Feature","properties":{"k":"ocean","t":"Bay of Doves","a":670014},"geometry":{"type":"Point","coordinates":[0.126752,-0.100264]}},{"type":"Feature","properties":{"k":"ocean","t":"Inmost Sea","a":4992640},"geometry":{"type":"Point","coordinates":[0.115523,-0.090844]}},{"type":"Feature","properties":{"k":"ocean","t":"Black River","a":267425},"geometry":{"type":"Point","coordinates":[0.150744,-0.07432]}},{"type":"Feature","properties":{"k":"ocean","t":"North Sea","a":7874441},"geometry":{"type":"Point","coordinates":[0.145373,-0.085057]}},{"type":"Feature","properties":{"k":"ocean","t":"Southwest Passage","a":772156},"geometry":{"type":"Point","coordinates":[0.140026,-0.162003]}},{"type":"Feature","properties":{"k":"ocean","t":"Bay of the Brand","a":431332},"geometry":{"type":"Point","coordinates":[0.157236,-0.17207]}},{"type":"Feature","properties":{"k":"ocean","t":"Inland Sea","a":1624918},"geometry":{"type":"Point","coordinates":[0.127672,-0.201995]}},{"type":"Feature","properties":{"k":"ocean","t":"Bridal Train","a":1789655},"geometry":{"type":"Point","coordinates":[0.131622,-0.216876]}},{"type":"Feature","properties":{"k":"ocean","t":"The Flail","a":4758406},"geometry":{"type":"Point","coordinates":[0.154101,-0.220993]}},{"type":"Feature","properties":{"k":"ocean","t":"Clansea","a":6952829},"geometry":{"type":"Point","coordinates":[0.164741,-0.215588]}},{"type":"Feature","properties":{"k":"ocean","t":"Shining Sea","a":7493165},"geometry":{"type":"Point","coordinates":[0.137487,-0.133261]}},{"type":"Feature","properties":{"k":"ocean","t":"Calmwaters","a":2022856},"geometry":{"type":"Point","coordinates":[0.150068,-0.156656]}},{"type":"Feature","properties":{"k":"ocean","t":"Forbidden Waters","a":5257413},"geometry":{"type":"Point","coordinates":[0.15509,-0.140969]}},{"type":"Feature","properties":{"k":"ocean","t":"King's Sea","a":17568024},"geometry":{"type":"Point","coordinates":[0.15796,-0.108234]}},{"type":"Feature","properties":{"k":"ocean","t":"Grey Passage","a":1422475},"geometry":{"type":"Point","coordinates":[0.172978,-0.084024]}},{"type":"Feature","properties":{"k":"ocean","t":"Fuming Sea","a":3044889},"geometry":{"type":"Point","coordinates":[0.183629,-0.106084]}},{"type":"Feature","properties":{"k":"ocean","t":"Choking Sea","a":4191337},"geometry":{"type":"Point","coordinates":[0.175008,-0.130981]}},{"type":"Feature","properties":{"k":"ocean","t":"Windwhipped","a":5086419},"geometry":{"type":"Point","coordinates":[0.181138,-0.178069]}},{"type":"Feature","properties":{"k":"ocean","t":"Dying Grounds","a":9378979},"geometry":{"type":"Point","coordinates":[0.166609,-0.190813]}},{"type":"Feature","properties":{"k":"ocean","t":"Booming Deep","a":9743365},"geometry":{"type":"Point","coordinates":[0.189347,-0.210708]}},{"type":"Feature","properties":{"k":"ocean","t":"Sea of Arrival","a":3273659},"geometry":{"type":"Point","coordinates":[0.194286,-0.167171]}},{"type":"Feature","properties":{"k":"ocean","t":"Freeman's Sea","a":7558978},"geometry":{"type":"Point","coordinates":[0.173555,-0.1555]}},{"type":"Feature","properties":{"k":"ocean","t":"Godsea","a":6025211},"geometry":{"type":"Point","coordinates":[0.199069,-0.147751]}},{"type":"Feature","properties":{"k":"ocean","t":"Watching Deep","a":6551108},"geometry":{"type":"Point","coordinates":[0.204247,-0.186826]}},{"type":"Feature","properties":{"k":"ocean","t":"Watching Coast South","a":2168264},"geometry":{"type":"Point","coordinates":[0.219905,-0.166584]}},{"type":"Feature","properties":{"k":"ocean","t":"Watching Coast North","a":1784400},"geometry":{"type":"Point","coordinates":[0.221436,-0.1447]}},{"type":"Feature","properties":{"k":"ocean","t":"Gates of Night","a":1607732},"geometry":{"type":"Point","coordinates":[0.210838,-0.130852]}},{"type":"Feature","properties":{"k":"ocean","t":"Groom's Drowning","a":6854548},"geometry":{"type":"Point","coordinates":[0.143048,-0.232407]}},{"type":"Feature","properties":{"k":"ocean","t":"The Grey Deep","a":10992267},"geometry":{"type":"Point","coordinates":[0.102692,-0.228871]}},{"type":"Feature","properties":{"k":"ocean","t":"Flickering Reefs","a":4833650},"geometry":{"type":"Point","coordinates":[0.114888,-0.221883]}},{"type":"Feature","properties":{"k":"ocean","t":"Nameless Reefs","a":1980876},"geometry":{"type":"Point","coordinates":[0.09146,-0.236004]}},{"type":"Feature","properties":{"k":"ocean","t":"Embrace","a":2114279},"geometry":{"type":"Point","coordinates":[0.109733,-0.194016]}},{"type":"Feature","properties":{"k":"ocean","t":"Dreaming Deep","a":7900839},"geometry":{"type":"Point","coordinates":[0.090945,-0.184584]}},{"type":"Feature","properties":{"k":"ocean","t":"Sea of the Three","a":3754894},"geometry":{"type":"Point","coordinates":[0.08764,-0.202993]}},{"type":"Feature","properties":{"k":"ocean","t":"Madman's Bay","a":1354004},"geometry":{"type":"Point","coordinates":[0.075222,-0.221489]}},{"type":"Feature","properties":{"k":"ocean","t":"Grey Reefs","a":3003726},"geometry":{"type":"Point","coordinates":[0.07083,-0.209141]}},{"type":"Feature","properties":{"k":"ocean","t":"Twilit Sea","a":2661855},"geometry":{"type":"Point","coordinates":[0.066952,-0.194589]}},{"type":"Feature","properties":{"k":"ocean","t":"Lonesome Bay","a":2827257},"geometry":{"type":"Point","coordinates":[0.053078,-0.212721]}},{"type":"Feature","properties":{"k":"ocean","t":"Grim's Grave","a":4346791},"geometry":{"type":"Point","coordinates":[0.051419,-0.196111]}},{"type":"Feature","properties":{"k":"ocean","t":"Ashrain Passage","a":892434},"geometry":{"type":"Point","coordinates":[0.191062,-0.125924]}},{"type":"Feature","properties":{"k":"ocean","t":"Gutted Man","a":1129022},"geometry":{"type":"Point","coordinates":[0.198174,-0.126167]}},{"type":"Feature","properties":{"k":"ocean","t":"Daring Sea","a":2747548},"geometry":{"type":"Point","coordinates":[0.206658,-0.105226]}},{"type":"Feature","properties":{"k":"ocean","t":"Ebon Sea","a":1410378},"geometry":{"type":"Point","coordinates":[0.209726,-0.088612]}},{"type":"Feature","properties":{"k":"ocean","t":"Sheltered Deep","a":1112327},"geometry":{"type":"Point","coordinates":[0.204206,-0.077291]}},{"type":"Feature","properties":{"k":"ocean","t":"Seahook","a":231034},"geometry":{"type":"Point","coordinates":[0.204597,-0.065304]}},{"type":"Feature","properties":{"k":"ocean","t":"Bay of Night","a":196522},"geometry":{"type":"Point","coordinates":[0.196401,-0.072611]}},{"type":"Feature","properties":{"k":"ocean","t":"Eye of the Needle","a":465790},"geometry":{"type":"Point","coordinates":[0.193982,-0.066069]}},{"type":"Feature","properties":{"k":"ocean","t":"Waking Deep","a":2489350},"geometry":{"type":"Point","coordinates":[0.182723,-0.05735]}},{"type":"Feature","properties":{"k":"ocean","t":"Edge of the World","a":6280813},"geometry":{"type":"Point","coordinates":[0.182215,-0.041914]}},{"type":"Feature","properties":{"k":"ocean","t":"Blind Strait","a":620300},"geometry":{"type":"Point","coordinates":[0.170767,-0.064921]}},{"type":"Feature","properties":{"k":"ocean","t":"Black River Inlet","a":1153537},"geometry":{"type":"Point","coordinates":[0.152434,-0.064516]}},{"type":"Feature","properties":{"k":"ocean","t":"The Narrow Sea","a":6675788},"geometry":{"type":"Point","coordinates":[0.15011,-0.055669]}},{"type":"Feature","properties":{"k":"ocean","t":"Dawnsea","a":5123396},"geometry":{"type":"Point","coordinates":[0.12071,-0.045857]}},{"type":"Feature","properties":{"k":"ocean","t":"Hearthsea","a":1631532},"geometry":{"type":"Point","coordinates":[0.129007,-0.031845]}},{"type":"Feature","properties":{"k":"ocean","t":"Silent Divide","a":2847922},"geometry":{"type":"Point","coordinates":[0.154066,-0.030442]}},{"type":"Feature","properties":{"k":"ocean","t":"Charsea South","a":7056279},"geometry":{"type":"Point","coordinates":[0.190676,-0.01912]}},{"type":"Feature","properties":{"k":"ocean","t":"Charsea North","a":7009812},"geometry":{"type":"Point","coordinates":[0.165591,-0.002648]}},{"type":"Feature","properties":{"k":"ocean","t":"Embersea North","a":7838650},"geometry":{"type":"Point","coordinates":[0.124731,5.9e-05]}},{"type":"Feature","properties":{"k":"ocean","t":"Blasted Isles","a":830696},"geometry":{"type":"Point","coordinates":[0.139171,-0.015165]}},{"type":"Feature","properties":{"k":"ocean","t":"Blackened Isles","a":952359},"geometry":{"type":"Point","coordinates":[0.124039,-0.016329]}},{"type":"Feature","properties":{"k":"ocean","t":"Wintersea","a":5602677},"geometry":{"type":"Point","coordinates":[0.096098,-0.033817]}},{"type":"Feature","properties":{"k":"ocean","t":"Embersea South","a":1775000},"geometry":{"type":"Point","coordinates":[0.120425,-0.02433]}},{"type":"Feature","properties":{"k":"ocean","t":"Embersea West","a":7706481},"geometry":{"type":"Point","coordinates":[0.09963,-0.01306]}},{"type":"Feature","properties":{"k":"ocean","t":"Shadowed Sea North","a":6947110},"geometry":{"type":"Point","coordinates":[0.065941,-0.04241]}},{"type":"Feature","properties":{"k":"ocean","t":"Shadowed Deep","a":3566043},"geometry":{"type":"Point","coordinates":[0.038269,-0.046887]}},{"type":"Feature","properties":{"k":"ocean","t":"Shadowed Sea South","a":4555813},"geometry":{"type":"Point","coordinates":[0.036375,-0.0664]}},{"type":"Feature","properties":{"k":"ocean","t":"Marchwaters","a":3142358},"geometry":{"type":"Point","coordinates":[0.042436,-0.082641]}},{"type":"Feature","properties":{"k":"ocean","t":"Black Reefs","a":2709092},"geometry":{"type":"Point","coordinates":[0.025928,-0.081349]}},{"type":"Feature","properties":{"k":"ocean","t":"Foundered Sea","a":2641354},"geometry":{"type":"Point","coordinates":[0.05214,-0.094756]}},{"type":"Feature","properties":{"k":"ocean","t":"Sea of Swords","a":2314677},"geometry":{"type":"Point","coordinates":[0.034728,-0.097474]}},{"type":"Feature","properties":{"k":"ocean","t":"Gulf of Horrors","a":2137866},"geometry":{"type":"Point","coordinates":[0.043293,-0.107044]}},{"type":"Feature","properties":{"k":"ocean","t":"Farreach","a":2507109},"geometry":{"type":"Point","coordinates":[0.030396,-0.109869]}},{"type":"Feature","properties":{"k":"ocean","t":"Patrolsea","a":2934596},"geometry":{"type":"Point","coordinates":[0.039559,-0.127173]}},{"type":"Feature","properties":{"k":"ocean","t":"Fiend's Approach","a":5803425},"geometry":{"type":"Point","coordinates":[0.03379,-0.149475]}},{"type":"Feature","properties":{"k":"ocean","t":"Lamplit Sea","a":14926909},"geometry":{"type":"Point","coordinates":[0.061054,-0.16931]}},{"type":"Feature","properties":{"k":"ocean","t":"Gulf of Dusk","a":2094960},"geometry":{"type":"Point","coordinates":[0.074585,-0.130026]}},{"type":"Feature","properties":{"k":"ocean","t":"Twin Gulfs","a":2014630},"geometry":{"type":"Point","coordinates":[0.066924,-0.148415]}},{"type":"Feature","properties":{"k":"ocean","t":"Fool's Passage","a":70424},"geometry":{"type":"Point","coordinates":[0.046281,-0.153038]}},{"type":"Feature","properties":{"k":"ocean","t":"Dragon's Gulf","a":899251},"geometry":{"type":"Point","coordinates":[0.052046,-0.152117]}},{"type":"Feature","properties":{"k":"ocean","t":"Iron Lanes","a":61069725},"geometry":{"type":"Point","coordinates":[-0.025498,-0.005056]}},{"type":"Feature","properties":{"k":"ocean","t":"Devil's Arms","a":954463},"geometry":{"type":"Point","coordinates":[0.195305,-0.095872]}},{"type":"Feature","properties":{"k":"ocean","t":"Passage of Storms","a":887767},"geometry":{"type":"Point","coordinates":[0.190281,-0.086711]}}]}