{"type":"FeatureCollection","features":[{"type":"Feature","id":0,"properties":{},"geometry":{"type":"MultiLineString","coordinates":[[[0.113186,-0.184206],[0.113034,-0.184088],[0.112963,-0.183975],[0.11295,-0.183954],[0.112739,-0.183849],[0.112623,-0.183766],[0.112533,-0.183708],[0.112452,-0.183635],[0.11241,-0.183561],[0.112289,-0.183391],[0.112236,-0.183246],[0.112202,-0.183112],[0.112191,-0.182443],[0.112171,-0.181949],[0.112144,-0.181651],[0.112213,-0.181335],[0.112319,-0.181068],[0.112439,-0.180906],[0.112492,-0.180724],[0.112509,-0.180495],[0.112481,-0.179415],[0.112607,-0.179122],[0.112604,-0.178969],[0.112604,-0.178771],[0.112635,-0.178589],[0.112705,-0.178486],[0.112791,-0.178458],[0.112928,-0.178386],[0.112992,-0.178291],[0.112989,-0.17809],[0.112984,-0.177883],[0.112981,-0.177649],[0.113006,-0.17744],[0.11309,-0.177267],[0.113143,-0.177124],[0.113165,-0.176949],[0.113173,-0.176781],[0.113165,-0.176628],[0.113182,-0.176407],[0.113307,-0.176198],[0.113383,-0.175963],[0.113371,-0.175849],[0.113388,-0.175729],[0.113447,-0.175601],[0.113517,-0.175489],[0.113553,-0.175319],[0.113659,-0.175096],[0.113754,-0.174833],[0.113879,-0.174635],[0.113952,-0.174482],[0.113983,-0.174352],[0.113991,-0.174317],[0.114011,-0.174099],[0.114016,-0.173879],[0.114032,-0.173853],[0.113818,-0.172716],[0.113464,-0.171243],[0.113122,-0.170466],[0.112757,-0.170025],[0.112391,-0.169509],[0.111916,-0.169172],[0.111469,-0.169085],[0.110901,-0.168877],[0.110361,-0.168639],[0.109828,-0.168268],[0.109747,-0.168012],[0.109451,-0.167624],[0.109115,-0.167137],[0.108825,-0.166684],[0.108564,-0.166093],[0.108639,-0.165872],[0.108627,-0.165594],[0.108523,-0.165356],[0.108216,-0.164626],[0.107891,-0.163843],[0.107659,-0.163257],[0.107502,-0.162886],[0.107357,-0.162497],[0.106946,-0.161714],[0.106395,-0.160908],[0.10571,-0.159993],[0.105399,-0.159395],[0.105088,-0.158915],[0.104886,-0.158568],[0.104651,-0.158316],[0.104428,-0.158024],[0.104223,-0.15772],[0.103896,-0.157292],[0.10371,-0.157012],[0.103174,-0.156349],[0.102755,-0.155755],[0.102483,-0.155521],[0.102325,-0.155284],[0.101968,-0.154922],[0.101584,-0.154534],[0.101335,-0.154299],[0.101045,-0.153901],[0.100807,-0.153611],[0.10058,-0.153261],[0.100397,-0.152963],[0.100191,-0.152577],[0.100148,-0.152376],[0.100083,-0.152122],[0.099949,-0.15175],[0.099961,-0.151451],[0.099968,-0.151146],[0.099935,-0.150974],[0.099796,-0.150679],[0.099741,-0.150468],[0.099743,-0.150197],[0.099736,-0.149892],[0.099812,-0.149593],[0.099832,-0.1493],[0.099834,-0.149264],[0.099959,-0.148945],[0.100074,-0.148387],[0.100393,-0.14772],[0.100716,-0.146872],[0.10086,-0.146515],[0.101141,-0.145692],[0.101328,-0.145103],[0.101428,-0.144918],[0.101591,-0.144414],[0.101627,-0.144098],[0.101809,-0.143599],[0.10192,-0.143312],[0.101927,-0.143067],[0.101934,-0.142784],[0.10198,-0.142557],[0.10202,-0.142401],[0.102083,-0.142142],[0.102109,-0.141945],[0.102138,-0.141638],[0.102162,-0.141449],[0.102282,-0.14113],[0.102332,-0.140895],[0.102346,-0.140591],[0.102382,-0.140296],[0.102542,-0.139834],[0.102548,-0.139816],[0.102549,-0.139817],[0.10263,-0.139634],[0.102776,-0.139233],[0.102871,-0.139072],[0.103097,-0.138765],[0.103426,-0.138254],[0.10355,-0.13786],[0.103857,-0.137488],[0.104047,-0.137013],[0.104273,-0.136232],[0.104426,-0.13556],[0.104477,-0.135122],[0.104492,-0.134713],[0.104404,-0.134414],[0.104069,-0.133727],[0.10389,-0.133377],[0.103673,-0.133158],[0.103672,-0.133157],[0.103525,-0.133015],[0.103267,-0.132875],[0.103071,-0.132797],[0.102812,-0.132665],[0.102667,-0.13251],[0.102619,-0.132168],[0.10261,-0.131941],[0.10242,-0.131599],[0.102212,-0.131039],[0.102022,-0.130432],[0.101747,-0.129816],[0.101718,-0.129256],[0.101709,-0.128554],[0.101699,-0.127909],[0.101699,-0.127036],[0.101709,-0.126534],[0.101832,-0.125955],[0.102012,-0.125338],[0.102155,-0.124873],[0.102316,-0.124494],[0.102524,-0.123999]]]}},{"type":"Feature","id":1,"properties":{},"geometry":{"type":"MultiLineString","coordinates":[[[0.086483,-0.164118],[0.086472,-0.164087],[0.08647,-0.164081],[0.086501,-0.164003],[0.086569,-0.163917],[0.086812,-0.163445],[0.087118,-0.162988],[0.08741,-0.162506],[0.087714,-0.161986],[0.087707,-0.161732],[0.087721,-0.161504],[0.087897,-0.161281],[0.088073,-0.161031],[0.088474,-0.16062],[0.088489,-0.160411],[0.088491,-0.160115],[0.088491,-0.160112],[0.088493,-0.159871],[0.088459,-0.159466],[0.088389,-0.158994],[0.088386,-0.158807],[0.088313,-0.158399],[0.088243,-0.158137],[0.088178,-0.157867],[0.088149,-0.157681],[0.088126,-0.157242],[0.088128,-0.157071],[0.088211,-0.156774],[0.088428,-0.156492],[0.088823,-0.15598],[0.089033,-0.155778],[0.089386,-0.155438],[0.089828,-0.155136],[0.089996,-0.155052],[0.090364,-0.154848],[0.090646,-0.154737],[0.090906,-0.154673],[0.091353,-0.154582],[0.091753,-0.154531],[0.092249,-0.154378],[0.092547,-0.154225],[0.093073,-0.15397],[0.093516,-0.153688],[0.093904,-0.153509],[0.094774,-0.152992],[0.095109,-0.152807],[0.09681,-0.151514],[0.097234,-0.150964],[0.097883,-0.15048],[0.098358,-0.149977],[0.098577,-0.149814],[0.098762,-0.149715],[0.098998,-0.149618],[0.099237,-0.149593],[0.099459,-0.149516],[0.099553,-0.149428],[0.099832,-0.1493],[0.099821,-0.149465]]]}},{"type":"Feature","id":2,"properties":{},"geometry":{"type":"MultiLineString","coordinates":[[[0.103852,-0.133339],[0.10389,-0.133377],[0.103886,-0.133369],[0.104483,-0.133849],[0.104704,-0.134027],[0.105091,-0.134465],[0.105792,-0.135304],[0.106436,-0.136211],[0.106622,-0.136469],[0.106921,-0.136816],[0.107205,-0.137112],[0.107381,-0.137225],[0.107507,-0.137318],[0.107707,-0.137438],[0.10794,-0.137554],[0.108479,-0.137841],[0.108868,-0.137991],[0.109277,-0.138188],[0.109669,-0.138359],[0.11004,-0.138451],[0.110411,-0.138562],[0.110656,-0.138694],[0.111108,-0.138786],[0.111254,-0.13881],[0.111475,-0.138873],[0.111613,-0.13896],[0.112092,-0.139157],[0.112453,-0.139247],[0.112741,-0.139379],[0.113114,-0.139537],[0.113542,-0.139636],[0.113862,-0.139729],[0.114086,-0.139848],[0.114293,-0.139983],[0.114418,-0.140153],[0.114714,-0.140706],[0.11478,-0.140943],[0.114801,-0.141311],[0.114912,-0.141496],[0.115085,-0.14175],[0.115271,-0.141941]]]}},{"type":"Feature","id":3,"properties":{},"geometry":{"type":"MultiLineString","coordinates":[[[0.11674,-0.143859],[0.11676,-0.143536],[0.116762,-0.14348],[0.116775,-0.143147],[0.116784,-0.142797],[0.116793,-0.142456],[0.116934,-0.142187],[0.117029,-0.141921],[0.117155,-0.141538],[0.117248,-0.141251],[0.117277,-0.141071],[0.117277,-0.140934],[0.117316,-0.140689],[0.117337,-0.140476],[0.117475,-0.140246],[0.117675,-0.14009],[0.117843,-0.140001],[0.117962,-0.139932],[0.11819,-0.139767],[0.11845,-0.13963],[0.118569,-0.139516],[0.11861,-0.139382],[0.118611,-0.139379],[0.118551,-0.139265],[0.118402,-0.139145],[0.118151,-0.138703],[0.11792,-0.138326],[0.117768,-0.138063],[0.117571,-0.137707],[0.117403,-0.137548],[0.117277,-0.137321],[0.117146,-0.137055],[0.11714,-0.136887],[0.117097,-0.13652],[0.117032,-0.136324],[0.11695,-0.136054],[0.116926,-0.135714],[0.116906,-0.135545],[0.11681,-0.135295],[0.116677,-0.134936],[0.116556,-0.13465],[0.116451,-0.134437],[0.116234,-0.134034],[0.116084,-0.13374],[0.115835,-0.13322],[0.115484,-0.132459],[0.115126,-0.131706],[0.114775,-0.130973],[0.11457,-0.130638],[0.114135,-0.130038],[0.113837,-0.129506],[0.113402,-0.128886],[0.112366,-0.126948],[0.11179,-0.125961],[0.111222,-0.125265],[0.111024,-0.12496],[0.110944,-0.124838],[0.110749,-0.124581],[0.110738,-0.124565],[0.11059,-0.124272],[0.11047,-0.124038],[0.110378,-0.123837],[0.110323,-0.123734],[0.110078,-0.123272],[0.109822,-0.122813],[0.109768,-0.122721],[0.109526,-0.122245],[0.109343,-0.121697],[0.109326,-0.12144],[0.109317,-0.120994],[0.109364,-0.120538],[0.10944,-0.120036],[0.109601,-0.119504],[0.10963,-0.119002],[0.109449,-0.118176],[0.109392,-0.117607],[0.109478,-0.116801],[0.109421,-0.116327],[0.10925,-0.115843],[0.109184,-0.115378],[0.109163,-0.11502],[0.10938,-0.114915],[0.109509,-0.114808],[0.109687,-0.114711],[0.109881,-0.114678],[0.110113,-0.114692],[0.110406,-0.114759],[0.110642,-0.114799],[0.110847,-0.114878],[0.111106,-0.114943],[0.111484,-0.114959],[0.11216,-0.114978],[0.112414,-0.114963],[0.112539,-0.11489],[0.11264,-0.114821],[0.112799,-0.11477],[0.11314,-0.114791],[0.113396,-0.114847],[0.113665,-0.114892],[0.11398,-0.114897],[0.114358,-0.114903],[0.114572,-0.114865],[0.114769,-0.114785],[0.114919,-0.114705],[0.115009,-0.114561],[0.115084,-0.114438],[0.115191,-0.114353],[0.115324,-0.114305],[0.115662,-0.114189]]]}},{"type":"Feature","id":4,"properties":{},"geometry":{"type":"MultiLineString","coordinates":[[[0.132029,-0.159484],[0.132051,-0.159485],[0.132041,-0.159348],[0.132041,-0.159347],[0.132035,-0.159255],[0.131925,-0.159052],[0.131858,-0.158906],[0.13168,-0.158739],[0.131654,-0.15853],[0.131717,-0.158301],[0.131753,-0.158087],[0.131826,-0.157743],[0.131936,-0.157289],[0.132098,-0.156862],[0.13216,-0.156559],[0.132165,-0.156249],[0.132184,-0.15623],[0.132222,-0.156168],[0.132412,-0.156097],[0.132784,-0.155988],[0.133079,-0.155933],[0.133399,-0.155888],[0.133798,-0.155896],[0.134038,-0.155916],[0.134234,-0.155941],[0.134371,-0.15595],[0.134435,-0.156014]]]}},{"type":"Feature","id":5,"properties":{},"geometry":{"type":"MultiLineString","coordinates":[[[0.132084,-0.156197],[0.131952,-0.156116],[0.131686,-0.156006],[0.131399,-0.155798],[0.131081,-0.155584],[0.130846,-0.155428],[0.130622,-0.155323],[0.130554,-0.155136],[0.130533,-0.154833],[0.130403,-0.154447],[0.13021,-0.154061],[0.12997,-0.153639],[0.129657,-0.152935],[0.129448,-0.152554],[0.129287,-0.152236],[0.129042,-0.152054],[0.12887,-0.151746],[0.128776,-0.15148],[0.128682,-0.151084],[0.128708,-0.150641],[0.128783,-0.150184],[0.128848,-0.149658],[0.128844,-0.14939],[0.128836,-0.149123],[0.128798,-0.148942],[0.128697,-0.148597],[0.128701,-0.148348],[0.128669,-0.147791],[0.128541,-0.147363],[0.128369,-0.146391],[0.128379,-0.146099],[0.128353,-0.145666],[0.128389,-0.14552],[0.12839,-0.145515],[0.128345,-0.145525],[0.128254,-0.145545],[0.128222,-0.145546],[0.128079,-0.145553],[0.127919,-0.145493],[0.127745,-0.145376],[0.127403,-0.144903],[0.127217,-0.144627],[0.126963,-0.144292],[0.126585,-0.143944],[0.12647,-0.143793],[0.126086,-0.143506],[0.125943,-0.143162],[0.12585,-0.142868],[0.125714,-0.142664],[0.125491,-0.142149],[0.125473,-0.141912],[0.125468,-0.141713],[0.125371,-0.141367],[0.125342,-0.140992],[0.125331,-0.140388],[0.125396,-0.13981],[0.12538,-0.13928],[0.125347,-0.138954],[0.125323,-0.138644],[0.125323,-0.138416],[0.125209,-0.138172],[0.125022,-0.138009],[0.125021,-0.138009],[0.124663,-0.138017],[0.124255,-0.138253],[0.123766,-0.138636],[0.123489,-0.138856],[0.123294,-0.139052],[0.123131,-0.139304],[0.122732,-0.139484],[0.122357,-0.139744],[0.1223,-0.13994],[0.122007,-0.140201],[0.121298,-0.140412],[0.120955,-0.140535],[0.120695,-0.140901],[0.120589,-0.141146],[0.120524,-0.14126],[0.120248,-0.141366],[0.120266,-0.14139]]]}},{"type":"Feature","id":6,"properties":{},"geometry":{"type":"MultiLineString","coordinates":[[[0.118619,-0.13939],[0.118658,-0.139427],[0.11887,-0.139647],[0.119195,-0.140168],[0.119839,-0.140804],[0.120248,-0.141366],[0.120266,-0.14139],[0.120313,-0.141454],[0.120426,-0.14161],[0.120649,-0.141927],[0.121004,-0.142433],[0.121477,-0.143166],[0.122072,-0.144079],[0.122658,-0.144975],[0.122952,-0.145595],[0.123628,-0.14733],[0.123807,-0.148161],[0.124043,-0.148642],[0.124068,-0.149269],[0.12419,-0.149864],[0.124296,-0.150312],[0.124418,-0.150817],[0.124329,-0.151306],[0.124303,-0.151326],[0.123986,-0.151575],[0.123595,-0.151836],[0.123269,-0.15208],[0.12274,-0.152455],[0.122023,-0.15274],[0.121624,-0.152898],[0.121428,-0.152976]]]}},{"type":"Feature","id":7,"properties":{},"geometry":{"type":"MultiLineString","coordinates":[[[0.124281,-0.151344],[0.124303,-0.151326],[0.124468,-0.151246],[0.124776,-0.151146],[0.125418,-0.150964],[0.125944,-0.150787],[0.12646,-0.150708],[0.127107,-0.150776],[0.127404,-0.150854],[0.127994,-0.150943],[0.128353,-0.150964],[0.128572,-0.150927],[0.128702,-0.150654]]]}},{"type":"Feature","id":8,"properties":{},"geometry":{"type":"MultiLineString","coordinates":[[[0.072541,-0.109374],[0.07251,-0.109392],[0.072506,-0.10939],[0.072431,-0.109343],[0.07216,-0.109268],[0.072006,-0.109198],[0.071786,-0.109076],[0.071534,-0.108894],[0.071436,-0.108633],[0.071221,-0.108516],[0.070875,-0.108376],[0.070403,-0.108193],[0.070211,-0.108157],[0.069547,-0.107968],[0.069306,-0.107873],[0.068751,-0.107675],[0.068401,-0.107478],[0.068204,-0.107172],[0.068065,-0.10685],[0.067911,-0.106661],[0.06778,-0.106295],[0.067765,-0.106098],[0.067678,-0.10596],[0.067597,-0.10577],[0.067535,-0.105623],[0.067375,-0.105715],[0.066492,-0.10629],[0.066205,-0.106544],[0.066151,-0.106986],[0.066086,-0.10713],[0.06596,-0.107405],[0.065969,-0.107692],[0.06581,-0.108042],[0.065461,-0.108823],[0.06541,-0.109226],[0.065341,-0.109499],[0.06497,-0.110043],[0.064925,-0.11039],[0.064764,-0.110713],[0.064524,-0.111021],[0.064474,-0.111293],[0.06448,-0.111517],[0.064402,-0.111751],[0.064055,-0.112193],[0.063226,-0.113069],[0.063229,-0.113072],[0.063265,-0.113106],[0.063747,-0.113551],[0.064572,-0.114101],[0.0652,-0.114317],[0.06622,-0.114433],[0.066672,-0.114669],[0.066971,-0.115076],[0.067213,-0.115522],[0.067315,-0.115821],[0.067763,-0.11609],[0.068137,-0.11618],[0.068658,-0.116204],[0.069313,-0.116255],[0.069731,-0.116353],[0.07032,-0.116419],[0.070502,-0.116504],[0.070512,-0.116509],[0.070859,-0.116748],[0.071152,-0.117068],[0.071364,-0.117224],[0.071891,-0.117415],[0.072193,-0.117633],[0.072369,-0.117926],[0.072548,-0.118007],[0.072755,-0.118044],[0.072764,-0.118046],[0.072764,-0.118046],[0.072755,-0.118044],[0.072688,-0.118032]]]}},{"type":"Feature","id":9,"properties":{},"geometry":{"type":"MultiLineString","coordinates":[[[0.063214,-0.113082],[0.062949,-0.113269],[0.062524,-0.113748],[0.06229,-0.113862],[0.062015,-0.113859],[0.061852,-0.113777],[0.061596,-0.11364],[0.061427,-0.11363],[0.061237,-0.1135],[0.061046,-0.113304],[0.060892,-0.113207],[0.060717,-0.113085]]]}},{"type":"Feature","id":10,"properties":{},"geometry":{"type":"MultiLineString","coordinates":[[[0.073743,-0.109249],[0.073733,-0.109252],[0.073723,-0.109256],[0.073714,-0.10926],[0.073704,-0.109264],[0.073695,-0.109269],[0.073685,-0.109273],[0.073676,-0.109277],[0.073696,-0.109256],[0.073715,-0.109233],[0.073732,-0.10921],[0.073748,-0.109185],[0.073762,-0.109158],[0.073773,-0.109131],[0.073783,-0.109104],[0.073791,-0.109075],[0.073797,-0.109047],[0.073801,-0.109017],[0.073802,-0.108988],[0.073802,-0.108959],[0.073799,-0.108929],[0.073795,-0.1089],[0.073788,-0.108871],[0.073779,-0.108843],[0.073769,-0.108816],[0.073756,-0.108789],[0.073742,-0.108764],[0.073725,-0.108739],[0.073708,-0.108716],[0.073688,-0.108694],[0.073667,-0.108673],[0.073547,-0.108521],[0.073437,-0.108362],[0.073339,-0.108195],[0.073254,-0.108021],[0.073181,-0.107842],[0.07312,-0.107658],[0.073073,-0.10747],[0.07304,-0.107279],[0.07302,-0.107086],[0.073014,-0.106893],[0.073021,-0.106699],[0.073005,-0.106588],[0.072995,-0.106477],[0.072994,-0.106364],[0.072999,-0.106252],[0.073012,-0.106141],[0.073031,-0.106031],[0.073058,-0.105922],[0.073092,-0.105815],[0.073133,-0.10571],[0.07318,-0.105609],[0.073234,-0.10551],[0.073294,-0.105416],[0.07336,-0.105325],[0.073432,-0.105239],[0.073509,-0.105158],[0.073592,-0.105082],[0.073679,-0.105011],[0.07376,-0.104867],[0.07383,-0.104717],[0.073889,-0.104563],[0.073937,-0.104405],[0.073974,-0.104244],[0.073998,-0.104081],[0.074011,-0.103916],[0.074012,-0.103751],[0.074001,-0.103586],[0.074025,-0.103477],[0.074057,-0.103333],[0.074333,-0.102782],[0.074604,-0.102039],[0.075099,-0.101259],[0.075296,-0.100866],[0.075581,-0.100539],[0.075583,-0.100539]]]}},{"type":"Feature","id":11,"properties":{},"geometry":{"type":"MultiLineString","coordinates":[[[0.057612,-0.122031],[0.057592,-0.122122],[0.057568,-0.122254],[0.057577,-0.122625],[0.057568,-0.122814],[0.057519,-0.122965],[0.057477,-0.123106],[0.057431,-0.12315],[0.057435,-0.123155],[0.057307,-0.123269],[0.057226,-0.123439],[0.057144,-0.123886],[0.057131,-0.12437],[0.056986,-0.124842],[0.056823,-0.125176],[0.05659,-0.12551],[0.056206,-0.125994],[0.055916,-0.126322],[0.055746,-0.126624],[0.055637,-0.126897],[0.055621,-0.126938],[0.055551,-0.127259],[0.055501,-0.127725],[0.055333,-0.128276],[0.055242,-0.128613],[0.055157,-0.128655],[0.055031,-0.128691],[0.054847,-0.128786],[0.054847,-0.128786],[0.05455,-0.128926],[0.054054,-0.129234],[0.053758,-0.129623],[0.053569,-0.129991],[0.053288,-0.130173],[0.053053,-0.130365],[0.0529,-0.13049],[0.053088,-0.130777],[0.053235,-0.130963],[0.053178,-0.131166],[0.053094,-0.131887],[0.053115,-0.132709],[0.053138,-0.132784],[0.05322,-0.133044],[0.053387,-0.133487],[0.054045,-0.134088],[0.054861,-0.134656],[0.055026,-0.134931],[0.055361,-0.135416],[0.055555,-0.135553],[0.055905,-0.135685],[0.056658,-0.135989],[0.056859,-0.13616],[0.056994,-0.136235],[0.056993,-0.136235],[0.057236,-0.13637],[0.057484,-0.136563],[0.058049,-0.136747],[0.058275,-0.13677],[0.058812,-0.136793],[0.059109,-0.136787],[0.059341,-0.136761],[0.059582,-0.136704],[0.059898,-0.136644],[0.060151,-0.136634],[0.060455,-0.13659],[0.060694,-0.136595],[0.061049,-0.136737],[0.061262,-0.136914],[0.061264,-0.136915],[0.061275,-0.136828],[0.061268,-0.136872]]]}},{"type":"Feature","id":12,"properties":{},"geometry":{"type":"MultiLineString","coordinates":[[[0.05313,-0.13279],[0.05265,-0.13318],[0.05223,-0.133745],[0.051791,-0.134138],[0.051508,-0.134212]]]}},{"type":"Feature","id":13,"properties":{},"geometry":{"type":"MultiLineString","coordinates":[[[0.056988,-0.136267],[0.056961,-0.136442],[0.057018,-0.13668],[0.056999,-0.136927],[0.056799,-0.137268],[0.056304,-0.137789]]]}},{"type":"Feature","id":14,"properties":{},"geometry":{"type":"MultiLineString","coordinates":[[[0.10523,-0.117253],[0.105081,-0.117348],[0.10489,-0.117647],[0.104576,-0.11817],[0.104207,-0.118838],[0.103885,-0.119516],[0.103796,-0.119871],[0.103717,-0.120128],[0.103619,-0.120292],[0.103259,-0.120535],[0.103198,-0.120684],[0.103165,-0.121165],[0.103137,-0.121301],[0.103067,-0.12175],[0.103009,-0.122248],[0.103,-0.122284],[0.102899,-0.122754],[0.10274,-0.123357],[0.102643,-0.123674],[0.102572,-0.123907],[0.102525,-0.123999],[0.102517,-0.124017],[0.102461,-0.124149]]]}},{"type":"Feature","id":15,"properties":{},"geometry":{"type":"MultiLineString","coordinates":[[[0.17639,-0.24026],[0.176447,-0.240477],[0.176619,-0.240814],[0.17677,-0.241065],[0.176888,-0.24122],[0.176918,-0.241393],[0.176885,-0.241528],[0.176263,-0.242375],[0.176043,-0.242553],[0.175332,-0.242928],[0.174377,-0.243183],[0.173151,-0.243631],[0.172079,-0.243998],[0.171278,-0.244278],[0.171273,-0.24428],[0.171125,-0.244331],[0.170516,-0.244544],[0.170316,-0.244678],[0.170295,-0.244691],[0.170428,-0.244898],[0.170664,-0.245178],[0.17087,-0.245606],[0.170959,-0.246431],[0.170973,-0.247021],[0.170932,-0.247245],[0.170895,-0.247331],[0.170878,-0.247435],[0.170925,-0.247603],[0.170962,-0.247727],[0.170967,-0.247848],[0.170934,-0.247941],[0.170901,-0.248043]]]}},{"type":"Feature","id":16,"properties":{},"geometry":{"type":"MultiLineString","coordinates":[[[0.204521,-0.169136],[0.204515,-0.169125],[0.204599,-0.169045],[0.205343,-0.169037],[0.206405,-0.169196],[0.207101,-0.169228],[0.207331,-0.169109],[0.207474,-0.169085],[0.208109,-0.168867],[0.208512,-0.16863],[0.208965,-0.168205],[0.209222,-0.167841],[0.209323,-0.167667],[0.209323,-0.167667],[0.209424,-0.167261],[0.209454,-0.166927],[0.209652,-0.16646],[0.210172,-0.166053],[0.210272,-0.165992],[0.211005,-0.165882],[0.211727,-0.165746],[0.212802,-0.165575],[0.213307,-0.165481],[0.213587,-0.165377],[0.213847,-0.165263],[0.213958,-0.165257],[0.21409,-0.165288],[0.214222,-0.165322]]]}},{"type":"Feature","id":17,"properties":{},"geometry":{"type":"MultiLineString","coordinates":[[[0.076721,-0.076296],[0.076737,-0.076825],[0.076817,-0.077549],[0.07696,-0.078226],[0.077334,-0.079428],[0.077509,-0.080017],[0.077605,-0.080495],[0.077653,-0.081179],[0.077852,-0.081944],[0.078106,-0.082684],[0.078345,-0.083209],[0.078504,-0.083783],[0.079133,-0.08481],[0.079555,-0.085502],[0.07989,-0.08604],[0.079803,-0.086115],[0.080119,-0.086746],[0.080382,-0.087312],[0.080632,-0.087811],[0.080763,-0.088456],[0.080855,-0.089297],[0.080763,-0.089955],[0.080947,-0.090599],[0.081122,-0.091088],[0.081103,-0.091195],[0.081013,-0.091709]]]}},{"type":"Feature","id":18,"properties":{},"geometry":{"type":"MultiLineString","coordinates":[[[0.081013,-0.091709],[0.080995,-0.091703],[0.080988,-0.091763],[0.080922,-0.091984],[0.080874,-0.09217],[0.080867,-0.092232],[0.080791,-0.092456],[0.080822,-0.092666],[0.080843,-0.092821],[0.080764,-0.093056],[0.080722,-0.093211],[0.080616,-0.093428],[0.08055,-0.093604],[0.080443,-0.093928],[0.080336,-0.094111],[0.080257,-0.094211],[0.079733,-0.094824],[0.079599,-0.095217],[0.079034,-0.095865],[0.078576,-0.096468],[0.07786,-0.096877],[0.07765,-0.097222],[0.07759,-0.097454],[0.077461,-0.097739],[0.077283,-0.097965],[0.077036,-0.098369],[0.076772,-0.098763],[0.076637,-0.098951],[0.076405,-0.09907],[0.076368,-0.09929],[0.076158,-0.099468],[0.076147,-0.099694],[0.075921,-0.099942],[0.075899,-0.100152],[0.075721,-0.100287],[0.075631,-0.100539],[0.075649,-0.100539]]]}},{"type":"Feature","id":19,"properties":{},"geometry":{"type":"MultiLineString","coordinates":[[[0.065982,-0.101829],[0.065991,-0.101799],[0.066009,-0.101806],[0.066027,-0.101813],[0.066046,-0.101821],[0.066064,-0.101828],[0.066083,-0.101835],[0.066101,-0.101842],[0.06612,-0.101849],[0.066288,-0.101905],[0.066459,-0.101954],[0.066631,-0.101993],[0.066806,-0.102024],[0.066982,-0.102046],[0.067159,-0.10206],[0.067336,-0.102065],[0.067337,-0.102065],[0.067431,-0.102064],[0.067524,-0.10206],[0.067618,-0.102054],[0.067711,-0.102045],[0.067804,-0.102035],[0.067897,-0.102021],[0.067989,-0.102005],[0.068028,-0.101983],[0.068068,-0.101963],[0.068109,-0.101945],[0.068152,-0.101931],[0.068195,-0.101919],[0.068239,-0.10191],[0.068283,-0.101904],[0.068328,-0.101901],[0.068373,-0.101901],[0.068418,-0.101903],[0.068462,-0.101909],[0.068506,-0.101917],[0.06855,-0.101929],[0.068723,-0.101919],[0.068897,-0.101914],[0.069071,-0.101914],[0.069245,-0.101919],[0.069419,-0.101929],[0.069592,-0.101944],[0.069765,-0.101963],[0.069967,-0.102005],[0.070169,-0.102045],[0.070372,-0.102084],[0.070574,-0.102122],[0.070777,-0.102159],[0.07098,-0.102195],[0.071184,-0.102229],[0.071301,-0.102238],[0.071418,-0.102251],[0.071535,-0.102268],[0.071651,-0.102288],[0.071767,-0.102311],[0.071881,-0.102338],[0.071995,-0.102369],[0.072046,-0.10238],[0.072097,-0.102392],[0.072147,-0.102404],[0.072198,-0.102416],[0.072248,-0.102429],[0.072299,-0.102442],[0.072349,-0.102455],[0.072407,-0.102483],[0.072464,-0.102511],[0.072522,-0.102539],[0.07258,-0.102566],[0.072638,-0.102593],[0.072697,-0.10262],[0.072755,-0.102647],[0.072777,-0.102639],[0.0728,-0.102633],[0.072823,-0.102629],[0.072846,-0.102627],[0.072869,-0.102626],[0.072893,-0.102626],[0.072916,-0.102629],[0.072939,-0.102633],[0.072962,-0.102639],[0.072984,-0.102646],[0.073005,-0.102655],[0.073026,-0.102665],[0.073047,-0.102677],[0.073066,-0.10269],[0.073084,-0.102705],[0.073101,-0.102721],[0.073117,-0.102738],[0.073132,-0.102756],[0.073145,-0.102775],[0.073178,-0.102845],[0.073216,-0.102914],[0.073257,-0.102979],[0.073303,-0.103042],[0.073353,-0.103102],[0.073407,-0.103158],[0.073465,-0.10321],[0.073525,-0.103259],[0.073589,-0.103304],[0.073656,-0.103344],[0.073725,-0.10338],[0.073796,-0.103411],[0.073869,-0.103437],[0.073944,-0.103459],[0.07402,-0.103475],[0.074025,-0.103477],[0.074026,-0.103473]]]}},{"type":"Feature","id":20,"properties":{},"geometry":{"type":"MultiLineString","coordinates":[[[0.076724,-0.07629],[0.076721,-0.076291],[0.07633,-0.076057],[0.076024,-0.075853],[0.075859,-0.075726],[0.075691,-0.075532],[0.075602,-0.075239],[0.075638,-0.074536],[0.075664,-0.073659],[0.075859,-0.073388],[0.07587,-0.073372]]]}},{"type":"Feature","id":21,"properties":{},"geometry":{"type":"MultiLineString","coordinates":[[[0.071625,-0.073719],[0.07157,-0.073793],[0.071523,-0.073855],[0.071171,-0.074166],[0.070952,-0.07442],[0.070732,-0.074843],[0.070647,-0.075096],[0.070613,-0.075841],[0.070376,-0.076839],[0.069767,-0.077769],[0.06948,-0.078091],[0.06926,-0.078209],[0.069006,-0.078361],[0.068634,-0.078683],[0.068363,-0.079055],[0.068202,-0.079281],[0.068194,-0.079292],[0.068025,-0.079258],[0.067771,-0.07919],[0.067517,-0.079055],[0.067314,-0.078717],[0.066468,-0.078243],[0.065876,-0.077989],[0.065487,-0.077735],[0.064997,-0.077262],[0.064794,-0.077042],[0.064574,-0.07689],[0.063965,-0.076687],[0.063389,-0.076399],[0.062882,-0.07623],[0.062341,-0.076094],[0.061512,-0.07601],[0.060327,-0.076111],[0.059943,-0.076047],[0.059896,-0.076065],[0.059451,-0.076085],[0.059054,-0.07605],[0.058834,-0.076042],[0.058381,-0.076046],[0.058,-0.076042],[0.057473,-0.076018],[0.057178,-0.076081],[0.05669,-0.076187],[0.056399,-0.076242],[0.0561,-0.076262],[0.055801,-0.076254],[0.055667,-0.076258],[0.055447,-0.076325],[0.055251,-0.076482],[0.054971,-0.076616],[0.054672,-0.076769],[0.054484,-0.076895],[0.0542,-0.077045],[0.054023,-0.077171],[0.053717,-0.077328],[0.053453,-0.077489],[0.053245,-0.077674],[0.053068,-0.077749],[0.052702,-0.077859],[0.052485,-0.077926],[0.052242,-0.078036],[0.052029,-0.078134],[0.051703,-0.078197],[0.051541,-0.078256],[0.051254,-0.078299],[0.0509,-0.078327],[0.050739,-0.078327],[0.050456,-0.078343],[0.050247,-0.078378],[0.049736,-0.078626],[0.049339,-0.078836]]]}},{"type":"Feature","id":22,"properties":{},"geometry":{"type":"MultiLineString","coordinates":[[[0.102673,-0.063867],[0.102695,-0.063881],[0.102706,-0.063868],[0.102822,-0.063729],[0.102907,-0.063632],[0.103067,-0.063556],[0.103267,-0.063489],[0.103476,-0.063294],[0.1038,-0.063054],[0.103973,-0.062956],[0.10452,-0.062636],[0.104737,-0.062592],[0.105004,-0.062547],[0.105279,-0.062419],[0.105515,-0.062254],[0.105835,-0.061943],[0.106135,-0.061715],[0.10615,-0.061703],[0.106574,-0.061522]]]}},{"type":"Feature","id":23,"properties":{},"geometry":{"type":"MultiLineString","coordinates":[[[0.086194,-0.072905],[0.086337,-0.072873],[0.086305,-0.072894],[0.086483,-0.073276],[0.086682,-0.073615],[0.086779,-0.074019],[0.08684,-0.074192],[0.087026,-0.074613],[0.087135,-0.07516],[0.087244,-0.075892],[0.08732,-0.076506],[0.087261,-0.076834],[0.087093,-0.077179],[0.086815,-0.077617],[0.086748,-0.077878],[0.086664,-0.078164],[0.086563,-0.07866],[0.086501,-0.079291],[0.086483,-0.079882],[0.086681,-0.080172],[0.086878,-0.080553],[0.087193,-0.080895],[0.087496,-0.081158],[0.087706,-0.08146],[0.087956,-0.081618],[0.088114,-0.081789],[0.088244,-0.081928],[0.088255,-0.081948],[0.088459,-0.082265],[0.088772,-0.082659],[0.089149,-0.082955],[0.089483,-0.083466],[0.08958,-0.083757],[0.089633,-0.083962],[0.089811,-0.084161],[0.089951,-0.084366],[0.090043,-0.08463],[0.090048,-0.084802],[0.090156,-0.085012],[0.09022,-0.085109],[0.090383,-0.085258],[0.090468,-0.085376],[0.090585,-0.085544],[0.090644,-0.08573],[0.090703,-0.085839],[0.090855,-0.085966],[0.091084,-0.086127],[0.091332,-0.08622],[0.091612,-0.086313],[0.091901,-0.086444],[0.09238,-0.086762],[0.092735,-0.086951],[0.093008,-0.087141],[0.093321,-0.087382],[0.094183,-0.087703],[0.094693,-0.088116],[0.095031,-0.088351],[0.095634,-0.08842],[0.096058,-0.088588],[0.096251,-0.088768],[0.096513,-0.089088],[0.097082,-0.089736],[0.097224,-0.089884],[0.097316,-0.089981],[0.097444,-0.090209],[0.097551,-0.090309],[0.097637,-0.090657],[0.097789,-0.091046],[0.097885,-0.091263],[0.097975,-0.091381],[0.098182,-0.091563],[0.098299,-0.091743],[0.098433,-0.091987],[0.098581,-0.092201],[0.098623,-0.092305],[0.098642,-0.092296],[0.098676,-0.092396],[0.098693,-0.092445],[0.098824,-0.092698],[0.098964,-0.092941],[0.099053,-0.093062],[0.099146,-0.093216],[0.099198,-0.093315],[0.099259,-0.093413],[0.099516,-0.093712],[0.099693,-0.093894],[0.099847,-0.094198],[0.099983,-0.094394],[0.100235,-0.094773],[0.100352,-0.094885],[0.100618,-0.09509],[0.100763,-0.095179],[0.100857,-0.095235],[0.100941,-0.095291],[0.101049,-0.095391]]]}},{"type":"Feature","id":24,"properties":{},"geometry":{"type":"MultiLineString","coordinates":[[[0.089883,-0.058026],[0.090106,-0.058103],[0.09045,-0.058315],[0.090794,-0.058452],[0.091229,-0.058664],[0.091562,-0.05873],[0.091699,-0.05879],[0.091844,-0.058805],[0.092089,-0.058844],[0.092618,-0.05882],[0.093384,-0.05886],[0.093961,-0.058986],[0.094098,-0.059018],[0.094068,-0.059056],[0.0945,-0.059343],[0.09533,-0.059761],[0.095924,-0.060102],[0.096641,-0.060446],[0.096991,-0.060589],[0.097503,-0.060987],[0.098344,-0.061536],[0.098899,-0.061712],[0.100201,-0.062104],[0.100773,-0.062428],[0.101353,-0.062906],[0.102095,-0.063498],[0.102642,-0.063848],[0.10266,-0.063878]]]}},{"type":"Feature","id":25,"properties":{},"geometry":{"type":"MultiLineString","coordinates":[[[0.130344,-0.070233],[0.130417,-0.070293],[0.130497,-0.070802],[0.130502,-0.071142],[0.130442,-0.071457],[0.130362,-0.071877],[0.130377,-0.072062],[0.130397,-0.072241],[0.130451,-0.072354],[0.130611,-0.072493],[0.130825,-0.072615],[0.131102,-0.072645],[0.131308,-0.072646],[0.131621,-0.072688],[0.131722,-0.072697],[0.132013,-0.072627],[0.132156,-0.072591],[0.132501,-0.072511],[0.132971,-0.072271],[0.133206,-0.072097],[0.133705,-0.071632],[0.134185,-0.071092],[0.13451,-0.070837],[0.134794,-0.070722],[0.135034,-0.070678],[0.135319,-0.070732],[0.135529,-0.070837],[0.135849,-0.070922],[0.136139,-0.070992],[0.136443,-0.071062],[0.136763,-0.071112],[0.137095,-0.071163],[0.137259,-0.071233],[0.137376,-0.071366],[0.137634,-0.071639],[0.137767,-0.071819],[0.137917,-0.07193],[0.137912,-0.071917],[0.138167,-0.071912],[0.138507,-0.071757],[0.138842,-0.071507],[0.139107,-0.071217],[0.139376,-0.070942],[0.139426,-0.070757],[0.139556,-0.070443],[0.139601,-0.070113],[0.139816,-0.069563],[0.140031,-0.069313],[0.140161,-0.069024],[0.140406,-0.068814],[0.14075,-0.068524],[0.140866,-0.068514],[0.140975,-0.068504],[0.141255,-0.068629],[0.141495,-0.068774],[0.141635,-0.068909],[0.14186,-0.069039],[0.142214,-0.069253],[0.142634,-0.069298],[0.142864,-0.069263],[0.143209,-0.069218],[0.143429,-0.069054],[0.143823,-0.068734],[0.144018,-0.068634],[0.144338,-0.068324],[0.144401,-0.068222],[0.144436,-0.068175]]]}},{"type":"Feature","id":26,"properties":{},"geometry":{"type":"MultiLineString","coordinates":[[[0.182863,-0.087838],[0.182912,-0.087828],[0.182902,-0.087782],[0.182878,-0.087671],[0.183047,-0.087418],[0.183311,-0.087103],[0.183558,-0.086654],[0.183692,-0.086222],[0.18376,-0.085817],[0.183653,-0.085306],[0.183563,-0.085059],[0.18335,-0.084694],[0.183292,-0.084524],[0.183198,-0.084245],[0.182901,-0.083835],[0.182653,-0.083144],[0.182491,-0.082386],[0.182204,-0.081881],[0.182126,-0.08169],[0.181985,-0.081499],[0.181839,-0.081364],[0.181721,-0.081072],[0.181766,-0.08096],[0.181845,-0.080404],[0.181867,-0.080286],[0.181822,-0.080095],[0.181808,-0.079931],[0.181711,-0.079738],[0.181571,-0.079536],[0.181439,-0.079413],[0.181422,-0.079009],[0.181334,-0.078852],[0.181253,-0.078754],[0.181273,-0.078662],[0.181214,-0.078493],[0.181163,-0.078331],[0.181133,-0.078162],[0.181096,-0.078015],[0.181067,-0.077831],[0.181038,-0.077721],[0.181082,-0.077574],[0.181111,-0.077427],[0.181199,-0.077294],[0.181301,-0.077164],[0.18154,-0.077257],[0.182255,-0.077709],[0.182862,-0.077983],[0.183767,-0.078317],[0.184006,-0.078555],[0.184327,-0.078686],[0.184649,-0.078853],[0.184923,-0.078984],[0.185244,-0.078996],[0.185626,-0.078936],[0.186162,-0.078817],[0.186293,-0.078793],[0.186638,-0.078662],[0.187031,-0.07846],[0.187603,-0.078329],[0.187996,-0.078186],[0.188603,-0.078126],[0.189344,-0.078075],[0.189683,-0.077993],[0.189868,-0.077895],[0.190039,-0.077793],[0.190207,-0.077633],[0.19042,-0.077421],[0.190546,-0.07729],[0.19082,-0.077045],[0.190992,-0.07682],[0.19116,-0.076766],[0.191385,-0.076787],[0.191577,-0.076771],[0.191728,-0.076762],[0.192051,-0.076811],[0.192256,-0.076807],[0.192493,-0.076787],[0.192836,-0.076824],[0.193115,-0.076766],[0.193241,-0.076742],[0.193478,-0.076689],[0.193581,-0.076632],[0.193601,-0.076658],[0.193659,-0.076544],[0.193824,-0.076369],[0.194059,-0.076154],[0.194461,-0.075742],[0.194589,-0.075558],[0.194839,-0.075395],[0.195017,-0.075273],[0.195254,-0.075195],[0.195407,-0.075139],[0.195601,-0.075042],[0.195751,-0.074939],[0.195955,-0.074827],[0.195997,-0.074701],[0.196029,-0.074622],[0.196076,-0.074473],[0.196085,-0.074366],[0.19609,-0.074315],[0.19608,-0.074208],[0.196113,-0.07412],[0.196135,-0.074067],[0.196141,-0.074055],[0.196175,-0.074042]]]}},{"type":"Feature","id":27,"properties":{},"geometry":{"type":"MultiLineString","coordinates":[[[0.204187,-0.104595],[0.204118,-0.104563],[0.203993,-0.10453],[0.203883,-0.104519],[0.20365,-0.104441],[0.203341,-0.104262],[0.202977,-0.104117],[0.202751,-0.104],[0.202485,-0.103893],[0.202456,-0.103881],[0.202277,-0.103816],[0.202129,-0.103762],[0.201709,-0.103512],[0.201322,-0.103226],[0.201036,-0.103074],[0.200836,-0.102934],[0.200798,-0.102723],[0.200634,-0.102613],[0.200443,-0.102565],[0.200193,-0.102526],[0.199848,-0.102461],[0.19966,-0.102425],[0.199425,-0.102422],[0.199222,-0.102422],[0.198954,-0.102383],[0.198633,-0.102363],[0.198409,-0.102243],[0.198228,-0.102226],[0.198064,-0.102154],[0.197867,-0.102074],[0.197766,-0.102071],[0.197766,-0.102071],[0.197666,-0.101994],[0.19754,-0.101916],[0.19728,-0.101691],[0.197024,-0.101554],[0.196861,-0.10142],[0.196718,-0.101276],[0.196525,-0.101047],[0.196458,-0.100936],[0.196371,-0.100849],[0.196265,-0.100771],[0.196187,-0.100715],[0.196109,-0.100598],[0.196054,-0.100552],[0.196034,-0.100539]]]}},{"type":"Feature","id":28,"properties":{},"geometry":{"type":"MultiLineString","coordinates":[[[0.197782,-0.102197],[0.197787,-0.10224],[0.197778,-0.10241],[0.197736,-0.10255],[0.197686,-0.102693],[0.197602,-0.102821],[0.197567,-0.103018],[0.197578,-0.10311],[0.197492,-0.103298],[0.197337,-0.103378],[0.197132,-0.103539],[0.197004,-0.103581],[0.196897,-0.10364],[0.196623,-0.103774],[0.196447,-0.103854],[0.196256,-0.103926],[0.196122,-0.104006],[0.196033,-0.104033],[0.195857,-0.104108],[0.195682,-0.104227],[0.195571,-0.104316],[0.195423,-0.104527],[0.195342,-0.104718],[0.195286,-0.10487],[0.195268,-0.104977],[0.195244,-0.105072],[0.195223,-0.105212],[0.195181,-0.10551],[0.195128,-0.105698],[0.195119,-0.105823],[0.195152,-0.105972],[0.195259,-0.106195],[0.195262,-0.106398],[0.195262,-0.106588],[0.195265,-0.106731],[0.1953,-0.106868],[0.195333,-0.106966],[0.19539,-0.107154],[0.195464,-0.107336],[0.195497,-0.107449],[0.195571,-0.107711],[0.195643,-0.107845],[0.195759,-0.107991],[0.195795,-0.108074],[0.195816,-0.108184],[0.195851,-0.108333],[0.195869,-0.108411],[0.195932,-0.108574],[0.195959,-0.108693],[0.195982,-0.108938],[0.195973,-0.109128],[0.19597,-0.109509],[0.19592,-0.109736],[0.195854,-0.10987],[0.195839,-0.110069],[0.195825,-0.110248],[0.195756,-0.110456],[0.195649,-0.110623],[0.195476,-0.110864],[0.195303,-0.111034],[0.195166,-0.111168],[0.195021,-0.111302],[0.194907,-0.111439],[0.194797,-0.111627],[0.19495,-0.111803],[0.195382,-0.112157],[0.195969,-0.112552],[0.196583,-0.112841],[0.196829,-0.113008],[0.197109,-0.113171],[0.19729,-0.113218],[0.197453,-0.11325],[0.197528,-0.113287],[0.197699,-0.113371],[0.19765,-0.113435]]]}},{"type":"Feature","id":29,"properties":{},"geometry":{"type":"MultiLineString","coordinates":[[[0.183877,-0.11575],[0.18387,-0.11577],[0.183761,-0.115997],[0.183603,-0.116401],[0.183425,-0.116702],[0.183279,-0.11702],[0.183267,-0.117045],[0.183192,-0.117333],[0.183192,-0.117552],[0.183171,-0.117833],[0.183267,-0.11808],[0.183514,-0.118525],[0.18374,-0.118704],[0.184069,-0.119087],[0.184358,-0.119458],[0.18436,-0.119451],[0.184443,-0.119508],[0.184606,-0.119659],[0.184895,-0.11985],[0.185277,-0.120105],[0.185586,-0.120473],[0.185807,-0.120869],[0.185984,-0.121298],[0.185996,-0.12161],[0.185982,-0.121799],[0.185973,-0.121915]]]}},{"type":"Feature","id":30,"properties":{},"geometry":{"type":"MultiLineString","coordinates":[[[0.056244,-0.137855],[0.056062,-0.138052],[0.055914,-0.138196],[0.055856,-0.138301],[0.055798,-0.138445],[0.05574,-0.138647],[0.055701,-0.138787],[0.055689,-0.139036],[0.05572,-0.139199],[0.055825,-0.139296],[0.056109,-0.13986],[0.056148,-0.140031],[0.056344,-0.140281],[0.056166,-0.140318],[0.055986,-0.140345],[0.055758,-0.140571],[0.055495,-0.14072],[0.055181,-0.140974],[0.055038,-0.141111],[0.054911,-0.14138],[0.054627,-0.141678],[0.054423,-0.141871],[0.05413,-0.142172],[0.05382,-0.142551],[0.053738,-0.142485],[0.053822,-0.142556],[0.0537,-0.142695],[0.053628,-0.142775],[0.053464,-0.1429],[0.0533,-0.143044],[0.053108,-0.143305],[0.052834,-0.143522],[0.052727,-0.143663],[0.052722,-0.143741],[0.052717,-0.14389],[0.052705,-0.14395],[0.052628,-0.144042],[0.052503,-0.144151],[0.052232,-0.144378],[0.051914,-0.144743],[0.051909,-0.14475]]]}},{"type":"Feature","id":31,"properties":{},"geometry":{"type":"MultiLineString","coordinates":[[[0.051484,-0.134201],[0.051218,-0.134119],[0.050979,-0.134102],[0.050856,-0.134095],[0.050681,-0.134056],[0.050596,-0.134068],[0.050447,-0.134138],[0.050239,-0.134133],[0.049988,-0.134105],[0.049851,-0.134109],[0.049654,-0.134062],[0.049466,-0.134083],[0.049157,-0.13409],[0.048944,-0.134071],[0.04875,-0.134001],[0.048615,-0.133923],[0.048238,-0.133736],[0.048048,-0.133607],[0.04803,-0.133595],[0.04795,-0.133543],[0.047824,-0.133477],[0.047684,-0.133327],[0.047615,-0.133224],[0.047499,-0.133095],[0.047243,-0.132971],[0.047079,-0.13291],[0.046868,-0.132794],[0.046741,-0.132773],[0.046602,-0.132765],[0.046413,-0.132684],[0.046303,-0.132637]]]}},{"type":"Feature","id":32,"properties":{},"geometry":{"type":"MultiLineString","coordinates":[[[0.131699,-0.072695],[0.131661,-0.072692],[0.131787,-0.072719],[0.132036,-0.072781],[0.132331,-0.072866],[0.132451,-0.072951],[0.132541,-0.073066],[0.132636,-0.073136],[0.13264,-0.073136],[0.132692,-0.073345],[0.132776,-0.073849],[0.132877,-0.074423],[0.132881,-0.074445]]]}},{"type":"Feature","id":33,"properties":{},"geometry":{"type":"MultiLineString","coordinates":[[[0.195253,-0.10021],[0.195324,-0.100186],[0.195549,-0.100251],[0.195753,-0.100377],[0.195829,-0.100422],[0.195935,-0.100472],[0.196034,-0.100539],[0.196035,-0.100539]]]}},{"type":"Feature","id":34,"properties":{},"geometry":{"type":"MultiLineString","coordinates":[[[0.096713,-0.249104],[0.096619,-0.249241],[0.096568,-0.249298],[0.096527,-0.249415],[0.096515,-0.249539],[0.096527,-0.249656],[0.096504,-0.249833],[0.096455,-0.249984],[0.096402,-0.250142],[0.096414,-0.250335],[0.096445,-0.250526],[0.096451,-0.250564],[0.09644,-0.250564],[0.095946,-0.250557],[0.095234,-0.2505],[0.094039,-0.25038],[0.093696,-0.250353],[0.093282,-0.250244],[0.092856,-0.249897],[0.092419,-0.249652],[0.092023,-0.249215],[0.091619,-0.249017],[0.091578,-0.248997],[0.091375,-0.248808],[0.0911,-0.248526],[0.090828,-0.248183],[0.090647,-0.247881],[0.090459,-0.247542],[0.090244,-0.247387],[0.089705,-0.246762],[0.089268,-0.246332],[0.089064,-0.246144],[0.088846,-0.245899],[0.088684,-0.245548],[0.088378,-0.245254],[0.088377,-0.245247],[0.087921,-0.245431],[0.087625,-0.24551],[0.087064,-0.245672],[0.086641,-0.245763],[0.08621,-0.245747],[0.085866,-0.245676],[0.085507,-0.245644],[0.085021,-0.245569],[0.084847,-0.245506],[0.08455,-0.24532],[0.08446,-0.245273],[0.084278,-0.245229],[0.083914,-0.245194],[0.083385,-0.245198],[0.083084,-0.245198],[0.082914,-0.24519],[0.082744,-0.245194],[0.082618,-0.245221],[0.082432,-0.245292],[0.082231,-0.245312],[0.082029,-0.24534],[0.081551,-0.245336],[0.081219,-0.245419],[0.08101,-0.24547],[0.080666,-0.245466],[0.080176,-0.245462],[0.079911,-0.245375],[0.079578,-0.245146],[0.079488,-0.245122],[0.079279,-0.245119],[0.079192,-0.245154],[0.079047,-0.245249],[0.078939,-0.24532],[0.07882,-0.245624],[0.078737,-0.245897],[0.078753,-0.246221],[0.079125,-0.246988],[0.079302,-0.247419],[0.079524,-0.247889],[0.079733,-0.2486],[0.07982,-0.24911],[0.080172,-0.249703],[0.080745,-0.250228],[0.081025,-0.250623],[0.081219,-0.250934],[0.080997,-0.251036],[0.080856,-0.251088],[0.080461,-0.251207],[0.080312,-0.251262],[0.080101,-0.251436],[0.079826,-0.251564],[0.079613,-0.251674],[0.079442,-0.251718],[0.079099,-0.251722],[0.079004,-0.251729],[0.078735,-0.251735],[0.078453,-0.251719],[0.078214,-0.251645],[0.077911,-0.25153],[0.077735,-0.251435],[0.077415,-0.251299],[0.077116,-0.25114],[0.076799,-0.25093],[0.076605,-0.250816],[0.07649,-0.250725],[0.076204,-0.250536],[0.076022,-0.250435],[0.075768,-0.250266],[0.075627,-0.250189],[0.075306,-0.250009],[0.075195,-0.249941],[0.075122,-0.24986],[0.074847,-0.249714],[0.074833,-0.249715],[0.07469,-0.249721],[0.074536,-0.249799],[0.074376,-0.249883],[0.074243,-0.249977],[0.074105,-0.250148],[0.073974,-0.2503],[0.073861,-0.250388],[0.073514,-0.250556],[0.073343,-0.250678],[0.073344,-0.25068],[0.073328,-0.25068]]]}},{"type":"Feature","id":35,"properties":{},"geometry":{"type":"MultiLineString","coordinates":[[[0.085787,-0.252327],[0.085684,-0.252245],[0.085676,-0.25224],[0.085836,-0.251993],[0.086015,-0.251845],[0.086336,-0.251536],[0.086676,-0.251252],[0.087201,-0.250789],[0.087451,-0.250561],[0.087769,-0.250272],[0.088088,-0.249954],[0.088425,-0.249645],[0.088666,-0.249375],[0.088869,-0.24922],[0.089187,-0.249056],[0.089409,-0.249018],[0.089708,-0.248979],[0.090143,-0.248998],[0.090635,-0.249047],[0.091175,-0.249056],[0.091474,-0.249018],[0.091618,-0.249017]]]}},{"type":"Feature","id":36,"properties":{},"geometry":{"type":"MultiLineString","coordinates":[[[0.079574,-0.245144],[0.079539,-0.24512],[0.079303,-0.244843],[0.079095,-0.244599],[0.078632,-0.244232],[0.07842,-0.243904],[0.078391,-0.243412],[0.078217,-0.242853],[0.077861,-0.242428],[0.077349,-0.242081],[0.076703,-0.241608],[0.076162,-0.24127],[0.075477,-0.240962],[0.074667,-0.240518],[0.074663,-0.240498],[0.07459,-0.240171],[0.074493,-0.239659],[0.074098,-0.239071],[0.073683,-0.238231],[0.073364,-0.237749],[0.073085,-0.237131],[0.072583,-0.235858],[0.072351,-0.235221],[0.072187,-0.234835],[0.072168,-0.234575],[0.072303,-0.234362],[0.072322,-0.23414],[0.072274,-0.233832],[0.072149,-0.233349],[0.071985,-0.232645],[0.071981,-0.232501],[0.071975,-0.232307],[0.072429,-0.232114],[0.073374,-0.231921],[0.073953,-0.231777],[0.074484,-0.231497],[0.07541,-0.230802],[0.075873,-0.230407],[0.076269,-0.230156],[0.076376,-0.229925],[0.076728,-0.229231],[0.07706,-0.228205],[0.077329,-0.227241],[0.077443,-0.226391],[0.077537,-0.225904],[0.077705,-0.225642],[0.077723,-0.225614]]]}},{"type":"Feature","id":37,"properties":{},"geometry":{"type":"MultiLineString","coordinates":[[[0.074663,-0.240498],[0.074663,-0.240498],[0.074485,-0.240487],[0.074224,-0.240412],[0.073639,-0.240242],[0.073082,-0.240088],[0.072612,-0.239886],[0.072225,-0.239649],[0.072217,-0.239604],[0.0722,-0.23965],[0.071954,-0.239494],[0.071604,-0.239313],[0.071164,-0.238983],[0.071152,-0.238994],[0.071011,-0.238877]]]}},{"type":"Feature","id":38,"properties":{},"geometry":{"type":"MultiLineString","coordinates":[[[0.058663,-0.239291],[0.058682,-0.239326],[0.058593,-0.239384],[0.058339,-0.239786],[0.058195,-0.239954],[0.057993,-0.240279],[0.057994,-0.240274],[0.057722,-0.240409],[0.05716,-0.240576],[0.056283,-0.240842],[0.055376,-0.241058],[0.055123,-0.241076],[0.054592,-0.241076],[0.053943,-0.240996],[0.05361,-0.241002],[0.053295,-0.240959],[0.052881,-0.24078],[0.052072,-0.240286],[0.051041,-0.239848],[0.050183,-0.239613],[0.049547,-0.239551],[0.049207,-0.239526],[0.049105,-0.23944],[0.049024,-0.239183],[0.048965,-0.23899],[0.048866,-0.238752],[0.048777,-0.238531],[0.048736,-0.238297],[0.048673,-0.23796],[0.048623,-0.237822],[0.04857,-0.237677],[0.04856,-0.237634],[0.048511,-0.237421],[0.048453,-0.237205],[0.048372,-0.237043],[0.048345,-0.236895],[0.048315,-0.236869],[0.048291,-0.23685],[0.048268,-0.236862]]]}}]}